0307743920146112010010100004+43883-069933FM-15+0024KNHZ V0200301N002610270019N0112651N1-00301-00401102001ADDAA101000021AA206001591AJ100039199999999GD11991+0126019GD24991+0270019GF108991999999999999999999KA1999M-00281KA2999N-00331MA1101931999999MD1810151+9999REMMET126METAR KNHZ 312356Z 03005KT 7SM FEW042 OVC090 M03/M04 A3010 RMK AO2 SNE03 SLP200 4/001 P0000 60006 T10331044 11028 21033 58015;EQDQ01  00158PRCP06
0222743920146112010010100546+43900-069933FM-16+0023KNHZ V0203305N00155005185MN0144845N5-00505-00605999999ADDGA1025+002135999GA2075+005185999GA3075+012505999GD11991+0021359GD23991+0051859GD33991+0125059MA1101965101695REMMET10212/31/09 19:54:03 SPECI KNHZ 010054Z 33003KT 9SM FEW007 BKN017 BKN041 M05/M06 A3011 RMK AO2 FIBI (RDG)
0265743920146112010010100567+43900-069933FM-15+0023KNHZ V0209999C00005005185MN0144845N5-00505-00615102035ADDAA101000095GA1045+002135999GA2075+005185999GA3075+012505999GD12991+0021359GD23991+0051859GD33991+0125059GF107991999999999999999999MA1101965101695REMMET10812/31/09 19:56:01 METAR KNHZ 010056Z 00000KT 9SM SCT007 BKN017 BKN041 M05/M06 A3011 RMK AO2 SLP203 T10501061
0199743920146112010010101067+43900-069933FM-16+0023KNHZ V0203405N00215002135MN0144845N5-00405-00605999999ADDGA1075+002135999GA2085+005185999GD13991+0021359GD24991+0051859GF108991999999999999999999MA1101965101695REMMET08412/31/09 20:06:01 SPECI KNHZ 010106Z 34004KT 9SM BKN007 OVC017 M04/M06 A3011 RMK AO2
0263743920146112010010101447+43900-069933FM-16+0023KNHZ V0203605N00215004575MN0080475N5-00405-00505999999ADDAU100001015AW1105GA1045+002135999GA2075+004575999GA3085+011285999GD12991+0021359GD23991+0045759GD34991+0112859GF108991999999999999999999MA1101905101625MW1101REMMET09412/31/09 20:44:01 SPECI KNHZ 010144Z 36004KT 5SM BR SCT007 BKN015 OVC037 M04/M05 A3009 RMK AO2
0227743920146112010010101567+43900-069933FM-15+0023KNHZ V0203405N00215005185MN0112655N5-00395-00505101975ADDAA101000095GA1045+002135999GA2085+005185999GD12991+0021359GD24991+0051859GF108991999999999999999999MA1101905101625REMMET10112/31/09 20:56:01 METAR KNHZ 010156Z 34004KT 7SM SCT007 OVC017 M04/M05 A3009 RMK AO2 SLP197 T10391050
0173743920146112010010102137+43900-069933FM-16+0023KNHZ V0203405N00215001525MN0112655N5-00305-00505999999ADDGA1085+001525999GD14991+0015259GF108991999999999999999999MA1101905101625REMMET08912/31/09 21:13:01 SPECI KNHZ 010213Z 34004KT 7SM OVC005 M03/M05 A3009 RMK AO2 CIG 005V008
0209743920146112010010102567+43900-069933FM-15+0023KNHZ V0203505N00265001525MN0112655N5-00335-00445101895ADDAA101000095GA1085+001525999GD14991+0015259GF108991999999999999999999MA1101835101555MD1840124+9999REMMET10012/31/09 21:56:01 METAR KNHZ 010256Z 35005KT 7SM OVC005 M03/M04 A3007 RMK AO2 SLP189 T10331044 58012
0159743920146112010010103567+43900-069933FM-15+0023KNHZ V0203505N00365001525MN9999999N5-00335-00445101785ADDAA101000095GA1085+001525999GD14991+0015259MA1101735101455REMMET09012/31/09 22:56:01 METAR KNHZ 010356Z 35007KT OVC005 M03/M04 A3004 RMK AO2 SLP178 T10331044
0169743920146112010010104567+43900-069933FM-15+0023KNHZ V0203605N00315001525MN9999999N5-00335-00445101685ADDAA101000095GA1085+001525999GD14991+0015259MA1101635101355REMMET10012/31/09 23:56:01 METAR KNHZ 010456Z 36006KT OVC005 M03/M04 A3001 RMK AO2 SLP168 T10331044 410281100
0936743920146112010010104596+43900-069933SOD  +0023KNHZ V020999999999999999999999999999+99999+99999999999ADDAA124001595AX1015245KA1240M-00275KA2240N-00995MG1102014101694OE11240044736023555OE22240040201023525OE33240013499999995REMSOD77124 HR PRECIPITATION (IN):0.06  WEATHER(CODE):1  24 HR MAX TEMP (F):27 24 HR MAX TEMP TIME (LST):1754 24 HR MIN TEMP (F):14 24 HR MIN TEMP TIME (LST):0739 AVERAGE STATION PRESSURE:30.125 MINIMUM SEA LEVEL PRESSURE:30.03 TIME OF OCCURRENCE:2359 PEAK WIND SPEED (MPH):10  PEAK WIND DIR (DEG):360 PEAK WIND TIME (LST):2355  FASTEST 2MIN SPEED (MPH):9  FASTEST 2MIN DIR (DEG):10  FASTEST 2MIN TIME (LST):2352 AVERAGE WIND SPEED (MPH):3.0  24 HR AVG TEMP (F):21 DEPART FROM NORMAL: 0   HEATING DEGREE DAYS:44  COOLING DEGREE DAYS:0   LATEST DAY MAX TEMP (0700-1900 LST):27  LATEST NIGHT MIN TEMP(1900-0800 LST):13 HOURLY INCREMENTAL PRECIPITATION VALUES (IN):.00 0.00 0.00 0.00 0.00 0.00 0.00 0.00 0.00 0.00 0.00 0.00 T    0.01 0.04 0.01 T    T    T    0.00 0.00 0.00 0.00 0.00EQDR01     N7GJS072R02     N7GKS075
1258743920146112010010104596+43900-069933SOM  +0023KNHZ V020999999999999999999999999999+99999+99999999999ADDAB10094596AD10029090303999999995AE1075045035025AH1005002590920065AH2010004390920075AH3015005190920075AH4020005690920115AH5030006690920215AH6045006990920265AI1060008490307345AI2080010790307505AI3100012790308395AI4120015290308395AI5150018890308555AI6180020690308555KB1744N-06895KB2744M+02615KB3744A-02115KC1N9-01611799995KC2M9+02330399995KD1744H11355KD2744C00005KE1135005285005MH1101134101464MK1103562609475098650921075REMSOM810PCP MTOT:3.72 DEPNRM:-1.2 PCP GT 24HRS:1.14 DATE(S):3 DAYS W/PCP >=.01:7  DAYS W/PCP >=.10:4  DAYS W/ PCP >=.50:3 DAYS W/PCP >=1.00:2 MSDP AMTS W/DATE-TIME TAGS:MIN:5 0.10  09/2006 MIN:10 0.17  09/2007 MIN:15 0.20  09/2007 MIN:20 0.22  09/2011 MIN:30 0.26  09/2021 MIN:45 0.27  09/2026 MIN:60 0.33  03/0734 MIN:80 0.42  03/0750 MIN:100 0.50  03/0839 MIN:120 0.60  03/0839 MIN:150 0.74  03/0855 MIN:180 0.81  03/0855 AVG DLY MIN:19.6  AVG DLY MAX:36.7  AVG MLY TMP:28.2  DEP NORM:2.4   MIN TMP:3  DATE(S):17 MAX TMP:74  DATE(S):03 DAYS MAX <=32:1 DAYS MAX >=90:0  DAYS MIN <=32:28 DAYS MIN  <=0:0  AVG STP:29.865 LWST SLP:29.13 DATE/TIME:092107 HGST SLP:30.58 DATE/TIME:260947 HDD MTH TOT:1135 DEP NORM:-75 SEASON(JUL 1-JUN 30):2432 DEP NORM:-428 CDD MTH TOT:0 DEP NORM: 0 SEASON(JAN 1-DEC 31):189 DEP NORM:-131EQDR01  3.727ABP070
0346743920146112010010105567+43900-069933FM-15+0023KNHZ V0203505N00365002745MN9999999N5-00335-00395101605ADDAA101000025AA206000021AU110030015AW1715GA1025+001525999GA2085+002745999GD11991+0015259GD24991+0027459KA1999M-00331KA2999N-00501MA1101525101255MD1640284+9999REMMET15901/01/10 00:56:02 METAR KNHZ 010556Z 35007KT -SN FEW005 OVC009 M03/M04 A2998 RMK AO2 FZRAB49E54SNB54 CIG 008V013 SLP160 P0000 60000 T10331039 11033 21050 56028EQDQ01  00008PRCP06
0250743920146112010010106257+43900-069933FM-16+0023KNHZ V0203605N00365005795MN9999999N5-00305-00405999999ADDAA101000021GA1025+001525999GA2045+003965999GA3085+005795999GD11991+0015259GD22991+0039659GD34991+0057959MA1101525101255REMMET11901/01/10 01:25:02 SPECI KNHZ 010625Z 36007KT FEW005 SCT013 OVC019 M03/M04 A2998 RMK AO2 UPB07E19SNE07 CIG 010 R01 P0000
0192743920146112010010106417+43900-069933FM-16+0023KNHZ V0203505N00365005795MN9999999N5-00305-00405999999ADDAA101000021AU118020015AW1645GA1085+005795999GD14991+0057959MA1101525101255REMMET10601/01/10 01:41:02 SPECI KNHZ 010641Z 35007KT -FZRA OVC019 M03/M04 A2998 RMK AO2 UPB07E19FZRAB35SNE07 P0000
0225743920146112010010106567+43900-069933FM-15+0023KNHZ V0203405N00365004575MN9999999N5-00335-00395101585ADDAA101000025AU110030015AW1715GA1085+004575999GD14991+0045759MA1101525101255REMMET13901/01/10 01:56:02 METAR KNHZ 010656Z 34007KT -SN OVC015 M03/M04 A2998 RMK AO2 UPB07E19FZRAB35E55SNE07B55 CIG 010 R01 SLP158 P0000 T10331039
0186743920146112010010107147+43900-069933FM-16+0023KNHZ V0203505N00415003665MN9999999N5-00305-00405999999ADDAA101000021AU110030015AW1715GA1085+003665999GD14991+0036659MA1101495101215REMMET10001/01/10 02:14:02 SPECI KNHZ 010714Z 35008KT -SN OVC012 M03/M04 A2997 RMK AO2 UPB11E13SNE09B13 P0000
0203743920146112010010107567+43900-069933FM-15+0023KNHZ V0203505N00365003055MN9999999N5-00285-00395101505ADDAA101000025AU110030015AW1715GA1085+003055999GD14991+0030559MA1101425101155REMMET11701/01/10 02:56:02 METAR KNHZ 010756Z 35007KT -SN OVC010 M03/M04 A2995 RMK AO2 UPB11E13SNE09B13 SLP150 P0000 T10281039
0259743920146112010010108567+43900-069933FM-15+0023KNHZ V0203605N00465003055MN9999999N5-00285-00395101395ADDAA101000025AA203000021AU110030015AW1715GA1085+003055999GD14991+0030559MA1101325101045MD1840214+9999REMMET12901/01/10 03:56:02 METAR KNHZ 010856Z 36009KT -SN OVC010 M03/M04 A2992 RMK AO2 UPB47E49SNE47B49 SLP139 P0000 60000 T10281039 58021EQDQ01  00008PRCP03
0202743920146112010010109567+43900-069933FM-15+0023KNHZ V0200105N00465003055MN9999999N5-00285-00395101345ADDAA101000595AU120090015AW1401AW2415GA1085+003055999GD14991+0030559MA1101295101015REMMET11001/01/10 04:56:02 METAR KNHZ 010956Z 01009KT UP OVC010 M03/M04 A2991 RMK AO2 UPB53SNE53 SLP134 P0002 T10281039
0184743920146112010010110087+43900-069933FM-16+0023KNHZ V0200105N00365003055MN9999999N5-00205-00305999999ADDAA101000021AU118020015AW1645GA1085+003055999GD14991+0030559MA1101295101015REMMET09801/01/10 05:08:02 SPECI KNHZ 011008Z 01007KT -FZRA OVC010 M02/M03 A2991 RMK AO2 UPE02FZRAB02 P0000
0184743920146112010010110197+43900-069933FM-16+0023KNHZ V0200105N00365002445MN9999999N5-00205-00305999999ADDAA101000021AU118020015AW1645GA1085+002445999GD14991+0024459MA1101295101015REMMET09801/01/10 05:19:02 SPECI KNHZ 011019Z 01007KT -FZRA OVC008 M02/M03 A2991 RMK AO2 UPE02FZRAB02 P0000
0201743920146112010010110567+43900-069933FM-15+0023KNHZ V0200105N00465002445MN9999999N5-00225-00335101345ADDAA101000395AU118020015AW1645GA1085+002445999GD14991+0024459MA1101295101015REMMET11501/01/10 05:56:02 METAR KNHZ 011056Z 01009KT -FZRA OVC008 M02/M03 A2991 RMK AO2 UPE02FZRAB02 SLP134 P0001 T10221033
0170743920146112010010111037+43900-069933FM-16+0023KNHZ V0200205N00365002445MN9999999N5-00205-00305999999ADDAA101000391AU128020015AW1655GA1085+002445999GD14991+0024459MA1101255100985REMMET08401/01/10 06:03:02 SPECI KNHZ 011103Z 02007KT FZRA OVC008 M02/M03 A2990 RMK AO2 P0001
0220743920146112010010111157+43900-069933FM-16+0023KNHZ V0200105N00365002445MN9999999N5-00205-00305999999ADDAA101000591AU110030015AW1715GA1075+002445999GA2085+004275999GD13991+0024459GD24991+0042759MA1101255100985REMMET10301/01/10 06:15:02 SPECI KNHZ 011115Z 01007KT -SN BKN008 OVC014 M02/M03 A2990 RMK AO2 FZRAE09SNB09 P0002
0325743920146112010010111567+43900-069933FM-15+0023KNHZ V0200205N00265002445MN9999999N5-00225-00335101335ADDAA101001595AA206002391AA324003891AU120030015AW1725GA1085+002445999GD14991+0024459KA1999M-00221KA2999N-00331MA1101255100985MD1640064+9999REMMET14201/01/10 06:56:02 METAR KNHZ 011156Z 02005KT SN OVC008 M02/M03 A2990 RMK AO2 FZRAE09SNB09 SLP133 P0006 60009 70015 T10221033 11022 21033 56006EQDQ01  00238PRCP06Q02  00388PRCP24
0224743920146112010010112567+43900-069933FM-15+0023KNHZ V0200205N00265002445MN9999999N5-00225-00285101335ADDAA101000025AU110030015AW1715GA1075+002445999GA2085+003355999GD13991+0024459GD24991+0033559MA1101255100985REMMET10701/01/10 07:56:02 METAR KNHZ 011256Z 02005KT -SN BKN008 OVC011 M02/M03 A2990 RMK AO2 SLP133 P0000 T10221028
0224743920146112010010113567+43900-069933FM-15+0023KNHZ V0200305N00265001835MN9999999N5-00175-00225101335ADDAA101000025AU110030015AW1715GA1075+001835999GA2085+003965999GD13991+0018359GD24991+0039659MA1101255100985REMMET10701/01/10 08:56:02 METAR KNHZ 011356Z 03005KT -SN BKN006 OVC013 M02/M02 A2990 RMK AO2 SLP133 P0000 T10171022
0207743920146112010010114457+43900-069933FM-16+0023KNHZ V0200305N00315001225MN9999999N5-00105-00105999999ADDAA101000021AU110030015AW1715GA1075+001225999GA2085+005795999GD13991+0012259GD24991+0057959MA1101255100985REMMET09001/01/10 09:45:02 SPECI KNHZ 011445Z 03006KT -SN BKN004 OVC019 M01/M01 A2990 RMK AO2 P0000
0186743920146112010010114546+43900-069933FM-16+0023KNHZ V0200405N00265005795MN9999999N5-00105-00105999999ADDGA1045+001225999GA2085+005795999GD12991+0012259GD24991+0057959MA1101255100985REMMET09701/01/10 09:54:02 SPECI KNHZ 011454Z 04005KT SCT004 OVC019 M01/M01 A2990 RMK AO2 SNE52 P0000 FIBI
0265743920146112010010114567+43900-069933FM-15+0023KNHZ V0200305N00265005795MN9999999N5-00065-00115101315ADDAA101000025AA203000021GA1025+001225999GA2085+005795999GD11991+0012259GD24991+0057959MA1101255100985MD1840024+9999REMMET12101/01/10 09:56:02 METAR KNHZ 011456Z 03005KT FEW004 OVC019 M01/M01 A2990 RMK AO2 SNE52 SLP131 P0000 60000 T10061011 58002EQDQ01  00008PRCP03
0233743920146112010010115157+43900-069933FM-16+0023KNHZ V0200405N00315003355MN9999999N5-00105-00105999999ADDAA101000021GA1045+001225999GA2075+003355999GA3085+005795999GD12991+0012259GD23991+0033559GD34991+0057959MA1101225100945REMMET10201/01/10 10:15:02 SPECI KNHZ 011515Z 04006KT SCT004 BKN011 OVC019 M01/M01 A2989 RMK AO2 SNB01E12 P0000
0232743920146112010010115267+43900-069933FM-16+0023KNHZ V0200405N00365001225MN9999999N5+00005-00105999999ADDAA101000021GA1075+001225999GA2075+003355999GA3085+005495999GD13991+0012259GD23991+0033559GD34991+0054959MA1101225100945REMMET10101/01/10 10:26:02 SPECI KNHZ 011526Z 04007KT BKN004 BKN011 OVC018 00/M01 A2989 RMK AO2 SNB01E12 P0000
0223743920146112010010115567+43900-069933FM-15+0023KNHZ V0200405N00315001225MN9999999N5+00005-00065101235ADDAA101000025GA1075+001225999GA2085+002745999GD13991+0012259GD24991+0027459MA1101155100885REMMET12301/01/10 10:56:02 METAR KNHZ 011556Z 04006KT BKN004 OVC009 00/M01 A2987 RMK AO2 SNB01E12 CIG 002V006 SLP123 P0000 T00001006
0179743920146112010010116127+43900-069933FM-16+0023KNHZ V0200405N00315003055MN9999999N5+00005+00005999999ADDGA1045+001225999GA2085+003055999GD12991+0012259GD24991+0030559MA1101155100885REMMET09001/01/10 11:12:02 SPECI KNHZ 011612Z 04006KT SCT004 OVC010 00/00 A2987 RMK AO2 CIG 003 R01
0179743920146112010010116237+43900-069933FM-16+0023KNHZ V0200405N00265002445MN9999999N5+00105+00005999999ADDGA1075+002445999GA2085+003965999GD13991+0024459GD24991+0039659MA1101125100845REMMET09001/01/10 11:23:02 SPECI KNHZ 011623Z 04005KT BKN008 OVC013 01/00 A2986 RMK AO2 CIG 003 R01
0240743920146112010010116567+43900-069933FM-15+0023KNHZ V0200405N00315001525MN9999999N5+00065+00005101145ADDAA101000025AU110030015AW1715GA1075+001525999GA2085+003055999GD13991+0015259GD24991+0030559MA1101085100815REMMET12301/01/10 11:56:02 METAR KNHZ 011656Z 04006KT -SN BKN005 OVC010 01/00 A2985 RMK AO2 SNB29 CIG 004V008 SLP114 P0000 T00060000
0316743920146112010010117567+43900-069933FM-15+0023KNHZ V0200305N00315002745MN9999999N5+00065+00005101135ADDAA101000025AA206000021AU110030015AW1715GA1045+001225999GA2085+002745999GD12991+0012259GD24991+0027459KA1999M+00061KA2999N-00221MA1101085100815MD1640184+9999REMMET12901/01/10 12:56:02 METAR KNHZ 011756Z 03006KT -SN SCT004 OVC009 01/00 A2985 RMK AO2 SLP113 P0000 60000 T00060000 10006 21022 56018EQDQ01  00008PRCP06
0196743920146112010010118567+43900-069933FM-15+0023KNHZ V0200305N00415001835MN9999999N5+00005+00005101055ADDAA101000025AU110030015AW1715GA1085+001835999GD14991+0018359MA1100985100715REMMET11001/01/10 13:56:02 METAR KNHZ 011856Z 03008KT -SN OVC006 00/00 A2982 RMK AO2 CIG 004V009 SLP105 P0000 T00000000
0229743920146112010010119467+43900-069933FM-16+0023KNHZ V0200405N00415004575MN9999999N5+00005-00105999999ADDAA101000021GA1045+002445999GA2075+004575999GA3085+005795999GD12991+0024459GD23991+0045759GD34991+0057959MA1101025100745REMMET09801/01/10 14:46:02 SPECI KNHZ 011946Z 04008KT SCT008 BKN015 OVC019 00/M01 A2983 RMK AO2 SNE34 P0000
0197743920146112010010119546+43900-069933FM-16+0023KNHZ V0200205N00415002445MN9999999N5+00005-00105999999ADDGA1075+002445999GA2085+004575999GD13991+0024459GD24991+0045759MA1101055100775REMMET10801/01/10 14:54:02 SPECI KNHZ 011954Z 02008KT BKN008 OVC015 00/M01 A2984 RMK AO2 SNE34 CIG 006V011 P0000 FIBI
0209743920146112010010119567+43900-069933FM-15+0023KNHZ V0200205N00365004575MN9999999N5-00065-00065101115ADDAA101000025GA1045+002445999GA2085+004575999GD12991+0024459GD24991+0045759MA1101055100775REMMET10901/01/10 14:56:02 METAR KNHZ 011956Z 02007KT SCT008 OVC015 M01/M01 A2984 RMK AO2 SNE34 SLP111 P0000 T10061006
0225743920146112010010120197+43900-069933FM-16+0023KNHZ V0200305N00265002445MN9999999N5-00105-00105999999ADDAA101000021AU110030015AW1715GA1075+002445999GA2085+004575999GD13991+0024459GD24991+0045759MA1101085100815REMMET10801/01/10 15:19:02 SPECI KNHZ 012019Z 03005KT -SN BKN008 OVC015 M01/M01 A2985 RMK AO2 SNB18 CIG 006V012 P0000
0251743920146112010010120307+43900-069933FM-16+0023KNHZ V0200405N00365004575MN9999999N5-00105-00105999999ADDAA101000021AU110030015AW1715GA1045+002445999GA2075+004575999GA3085+008235999GD12991+0024459GD23991+0045759GD34991+0082359MA1101055100775REMMET10301/01/10 15:30:02 SPECI KNHZ 012030Z 04007KT -SN SCT008 BKN015 OVC027 M01/M01 A2984 RMK AO2 SNB18 P0000
0213743920146112010010120407+43900-069933FM-16+0023KNHZ V0200305N00415003055MN9999999N5-00105-00205999999ADDAA101000021AU110030015AW1715GA1075+003055999GA2085+008235999GD13991+0030559GD24991+0082359MA1101055100775REMMET09601/01/10 15:40:02 SPECI KNHZ 012040Z 03008KT -SN BKN010 OVC027 M01/M02 A2984 RMK AO2 SNB18 P0000
0286743920146112010010120567+43900-069933FM-15+0023KNHZ V0200205N00415003055MN9999999N5-00115-00175101115ADDAA101000025AA203000021AU110030015AW1715GA1075+003055999GA2085+008235999GD13991+0030559GD24991+0082359MA1101055100775MD1540024+9999REMMET12501/01/10 15:56:02 METAR KNHZ 012056Z 02008KT -SN BKN010 OVC027 M01/M02 A2984 RMK AO2 SNB18 SLP111 P0000 60000 T10111017 55002EQDQ01  00008PRCP03
0245743920146112010010121187+43900-069933FM-16+0023KNHZ V0200105N00465002445MN9999999N5-00105-00205999999ADDAA101000021AU110030015AW1715GA1075+002445999GA2075+003665999GA3085+013415999GD13991+0024459GD23991+0036659GD34991+0134159MA1101055100775REMMET09701/01/10 16:18:02 SPECI KNHZ 012118Z 01009KT -SN BKN008 BKN012 OVC044 M01/M02 A2984 RMK AO2 P0000
0236743920146112010010121567+43900-069933FM-15+0023KNHZ V0200205N00515002135MN9999999N5-00175-00285101105ADDAA101000025AU110030015AW1715GA1075+002135999GA2085+003665999GD13991+0021359GD24991+0036659MA1101055100775REMMET11901/01/10 16:56:02 METAR KNHZ 012156Z 02010KT -SN BKN007 OVC012 M02/M03 A2984 RMK AO2 CIG 006V011 SLP110 P0000 T10171028
0245743920146112010010122107+43900-069933FM-16+0023KNHZ V0200105N00415003055MN9999999N5-00205-00305999999ADDAA101000021AU110030015AW1715GA1075+003055999GA2075+006715999GA3085+011285999GD13991+0030559GD23991+0067159GD34991+0112859MA1101025100745REMMET09701/01/10 17:10:02 SPECI KNHZ 012210Z 01008KT -SN BKN010 BKN022 OVC037 M02/M03 A2983 RMK AO2 P0000
0245743920146112010010122247+43900-069933FM-16+0023KNHZ V0200205N00365002445MN9999999N5-00205-00305999999ADDAA101000021AU110030015AW1715GA1075+002445999GA2075+005495999GA3085+014335999GD13991+0024459GD23991+0054959GD34991+0143359MA1101055100775REMMET09701/01/10 17:24:02 SPECI KNHZ 012224Z 02007KT -SN BKN008 BKN018 OVC047 M02/M03 A2984 RMK AO2 P0000
0201743920146112010010122546+43900-069933FM-16+0023KNHZ V0200105N00415003355MN9999999N5-00205-00305999999ADDAU110030015AW1715GA1045+002445999GA2085+003355999GD12991+0024459GD24991+0033559MA1101025100745REMMET09501/01/10 17:54:02 SPECI KNHZ 012254Z 01008KT -SN SCT008 OVC011 M02/M03 A2983 RMK AO2 P0000 FIBI
0224743920146112010010122567+43900-069933FM-15+0023KNHZ V0200205N00465003355MN9999999N5-00225-00335101085ADDAA101000025AU110030015AW1715GA1045+002445999GA2085+003355999GD12991+0024459GD24991+0033559MA1101025100745REMMET10701/01/10 17:56:02 METAR KNHZ 012256Z 02009KT -SN SCT008 OVC011 M02/M03 A2983 RMK AO2 SLP108 P0000 T10221033
0168743920146112010010123087+43900-069933FM-16+0023KNHZ V0200105N00415002745MN9999999N5-00305-00305999999ADDAA101000021AU120030015AW1725GA1085+002745999GD14991+0027459MA1101025100745REMMET08201/01/10 18:08:02 SPECI KNHZ 012308Z 01008KT SN OVC009 M03/M03 A2983 RMK AO2 P0000
0196743920146112010010123516+43900-069933FM-16+0023KNHZ V0200105N00515003355MN9999999N5-00305-00405999999ADDAU110030015AW1715GA1075+003355999GA2085+007625999GD13991+0033559GD24991+0076259MA1101025100745REMMET09001/01/10 18:51:02 SPECI KNHZ 012351Z 01010KT -SN BKN011 OVC025 M03/M04 A2983 RMK AO2 P0000
0318743920146112010010123567+43900-069933FM-15+0023KNHZ V0200205N00465003355MN9999999N5-00285-00395101075ADDAA101000025AA206000021AU110030015AW1715GA1075+003355999GA2085+007625999GD13991+0033559GD24991+0076259KA1999M+00061KA2999N-00281MA1101025100745MD1640034+9999REMMET13101/01/10 18:56:02 METAR KNHZ 012356Z 02009KT -SN BKN011 OVC025 M03/M04 A2983 RMK AO2 SLP107 P0000 60000 T10281039 10006 21028 56003EQDQ01  00008PRCP06
0207743920146112010010200057+43900-069933FM-16+0023KNHZ V0200205N00515007625MN9999999N5-00305-00405999999ADDAA101000021AU110030015AW1715GA1045+003355999GA2085+007625999GD12991+0033559GD24991+0076259MA1101025100745REMMET09001/01/10 19:05:01 SPECI KNHZ 020005Z 02010KT -SN SCT011 OVC025 M03/M04 A2983 RMK AO2 P0000
0239743920146112010010200526+43900-069933FM-16+0023KNHZ V0200205N00465003055MN9999999N5-00305-00405999999ADDAU110030015AW1715GA1025+002135999GA2075+003055999GA3085+009455999GD11991+0021359GD23991+0030559GD34991+0094559MA1100955100675REMMET10201/01/10 19:52:03 SPECI KNHZ 020052Z 02009KT -SN FEW007 BKN010 OVC031 M03/M04 A2981 RMK AO2 P0000 FIBI
0247743920146112010010200537+43900-069933FM-15+0023KNHZ V0200105N00465003055MN9999999N5-00335-00445101005ADDAA101000025GA1025+002135999GA2075+003055999GA3085+021345999GD11991+0021359GD23991+0030559GD34991+0213459MA1100955100675REMMET11601/01/10 19:53:01 METAR KNHZ 020053Z 01009KT FEW007 BKN010 OVC070 M03/M04 A2981 RMK AO2 SNE53 SLP100 P0000 T10331044
0251743920146112010010201537+43900-069933FM-16+0023KNHZ V0200105N00575006715MN9999999N5-00405-00505999999ADDAA101000021AU110030015AW1715GA1045+003665999GA2075+006715999GA3085+010975999GD12991+0036659GD23991+0067159GD34991+0109759MA1100855100575REMMET10301/01/10 20:53:01 SPECI KNHZ 020153Z 01011KT -SN SCT012 BKN022 OVC036 M04/M05 A2978 RMK AO2 SNB04 P0000
0268743920146112010010201567+43900-069933FM-15+0023KNHZ V0200105N00515006715MN9999999N5-00395-00505100925ADDAA101000025AU110030015AW1715GA1045+003665999GA2075+006715999GA3085+019815999GD12991+0036659GD23991+0067159GD34991+0198159MA1100855100575REMMET12001/01/10 20:56:01 METAR KNHZ 020156Z 01010KT -SN SCT012 BKN022 OVC065 M04/M05 A2978 RMK AO2 SNB04 SLP092 P0000 T10391050
0257743920146112010010202307+43900-069933FM-16+0023KNHZ V0200205N00465018295MN9999999N5-00405-00605999999ADDAA101000021AU110030015AW1715GA1025+003665999GA2045+006715999GA3085+018295999GD11991+0036659GD22991+0067159GD34991+0182959MA1100815100545REMMET10901/01/10 21:30:01 SPECI KNHZ 020230Z 02009KT -SN FEW012 SCT022 OVC060 M04/M06 A2977 RMK AO2 CIG 022 R01 P0000
0256743920146112010010202477+43900-069933FM-16+0023KNHZ V0200205N00515006715MN9999999N5-00405-00605999999ADDAA101000021AU110030015AW1715GA1025+003665999GA2075+006715999GA3085+018295999GD11991+0036659GD23991+0067159GD34991+0182959MA1100785100505OC100935REMMET10001/01/10 21:47:01 SPECI KNHZ 020247Z 02010G18KT -SN FEW012 BKN022 OVC060 M04/M06 A2976 RMK AO2 P0000
0318743920146112010010202567+43900-069933FM-15+0023KNHZ V0200205N00515006715MN9999999N5-00445-00565100855ADDAA101000025AA203000021AU110030015AW1715GA1025+003665999GA2075+006715999GA3085+018295999GD11991+0036659GD23991+0067159GD34991+0182959MA1100785100505MD1740084+9999REMMET12601/01/10 21:56:01 METAR KNHZ 020256Z 02010KT -SN FEW012 BKN022 OVC060 M04/M06 A2976 RMK AO2 SLP085 P0000 60000 T10441056 57008EQDQ01  00008PRCP03
0227743920146112010010203457+43900-069933FM-16+0023KNHZ V0200205N00515015245MN9999999N5-00405-00605999999ADDAA101000021AU110030015AW1715GA1025+003665999GA2085+015245999GD11991+0036659GD24991+0152459MA1100755100475OC100825REMMET10201/01/10 22:45:01 SPECI KNHZ 020345Z 02010G16KT -SN FEW012 OVC050 M04/M06 A2975 RMK AO2 SNE06B41 P0000
0233743920146112010010203567+43900-069933FM-15+0023KNHZ V0200205N00575016765MN9999999N5-00445-00615100805ADDAA101000025AU110030015AW1715GA1025+003665999GA2085+016765999GD11991+0036659GD24991+0167659MA1100755100475REMMET11601/01/10 22:56:01 METAR KNHZ 020356Z 02011KT -SN FEW012 OVC055 M04/M06 A2975 RMK AO2 SNE06B41 SLP080 P0000 T10441061
0243743920146112010010204567+43900-069933FM-15+0023KNHZ V0200205N00465011285MN9999999N5-00505-00675100695ADDAA101000025AU110030015AW1715GA1075+011285999GA2085+015245999GD13991+0112859GD24991+0152459MA1100645100375REMMET12601/01/10 23:56:01 METAR KNHZ 020456Z 02009KT -SN BKN037 OVC050 M05/M07 A2972 RMK AO2 SNE04B43 SLP069 P0000 T10501067 400061050
0907743920146112010010204596+43900-069933SOD  +0023KNHZ V020999999999999999999999999999+99999+99999999999ADDAA124002395KA1240M+00065KA2240N-00495MG1100954100684OE11240093936021445OE22240071501021445OE33240039899999995REMSOD75124 HR PRECIPITATION (IN):0.09  24 HR MAX TEMP (F):33 24 HR MAX TEMP TIME (LST):1331 24 HR MIN TEMP (F):23 24 HR MIN TEMP TIME (LST):2359 AVERAGE STATION PRESSURE:29.810 MINIMUM SEA LEVEL PRESSURE:29.73 TIME OF OCCURRENCE:2359 PEAK WIND SPEED (MPH):21  PEAK WIND DIR (DEG):360 PEAK WIND TIME (LST):2144  FASTEST 2MIN SPEED (MPH):16 FASTEST 2MIN DIR (DEG):10  FASTEST 2MIN TIME (LST):2144 AVERAGE WIND SPEED (MPH):8.9  24 HR AVG TEMP (F):28 DEPART FROM NORMAL: +6  HEATING DEGREE DAYS:37  COOLING DEGREE DAYS:0   LATEST DAY MAX TEMP (0700-1900 LST):33  LATEST NIGHT MIN TEMP(1900-0800 LST):23 HOURLY INCREMENTAL PRECIPITATION VALUES (IN):    T    T    T    0.02 0.01 0.06 T    T    T    T    T    T    T    T    T    T    T    T    T    T    T    T    TEQDR01     N7GJS072R02     N7GKS075
0280743920146112010010205567+43900-069933FM-15+0023KNHZ V0200105N00465011895MN9999999N5-00565-00675100605ADDAA101000025AA206000021AU110030015AW1715GA1085+011895999GD14991+0118959KA1999M-00281KA2999N-00561MA1100545100275MD1840244+9999REMMET12401/02/10 00:56:02 METAR KNHZ 020556Z 01009KT -SN OVC039 M06/M07 A2969 RMK AO2 SLP060 P0000 60000 T10561067 11028 21056 58024EQDQ01  00008PRCP06
0274743920146112010010206567+43900-069933FM-15+0023KNHZ V0200205N00515011895MN9999999N5-00505-00725100635ADDAA101000025AU110030015AW1715GA1025+007925999GA2075+011895999GA3085+014025999GD11991+0079259GD23991+0118959GD34991+0140259MA1100585100305REMMET12601/02/10 01:56:02 METAR KNHZ 020656Z 02010KT -SN FEW026 BKN039 OVC046 M05/M07 A2970 RMK AO2 CIG 025 R01 SLP063 P0000 T10501072
0226743920146112010010207567+43900-069933FM-15+0023KNHZ V0200205N00575011285MN9999999N5-00565-00675100595ADDAA101000025AU110030015AW1715GA1075+011285999GA2085+014025999GD13991+0112859GD24991+0140259MA1100545100275REMMET10901/02/10 02:56:02 METAR KNHZ 020756Z 02011KT -SN BKN037 OVC046 M06/M07 A2969 RMK AO2 SLP059 P0000 T10561067 $
0331743920146112010010208567+43900-069933FM-15+0023KNHZ V0200205N00575011895MN9999999N5-00565-00675100495ADDAA101000025AA203000021AU110030015AW1715GA1025+007625999GA2075+011895999GA3085+015245999GD11991+0076259GD23991+0118959GD34991+0152459MA1100445100175MD1840124+9999OC101035REMMET13101/02/10 03:56:02 METAR KNHZ 020856Z 02011G20KT -SN FEW025 BKN039 OVC050 M06/M07 A2966 RMK AO2 SLP049 P0000 60000 T10561067 58012 $EQDQ01  00008PRCP03
0226743920146112010010209567+43900-069933FM-15+0023KNHZ V0200105N00465012195MN9999999N5-00565-00725100415ADDAA101000025AU110030015AW1715GA1075+012195999GA2085+024385999GD13991+0121959GD24991+0243859MA1100345100065REMMET10901/02/10 04:56:02 METAR KNHZ 020956Z 01009KT -SN BKN040 OVC080 M06/M07 A2963 RMK AO2 SLP041 P0000 T10561072 $
0241743920146112010010210546+43900-069933FM-16+0023KNHZ V0200105N00575007015MN9999999N5-00605-00705999999ADDAU110030015AW1715GA1025+003965999GA2075+007015999GA3085+010975999GD11991+0039659GD23991+0070159GD34991+0109759MA1100305100035REMMET10401/02/10 05:54:02 SPECI KNHZ 021054Z 01011KT -SN FEW013 BKN023 OVC036 M06/M07 A2962 RMK AO2 P0000 $ FIBI
0275743920146112010010210567+43900-069933FM-15+0023KNHZ V0200105N00575006405MN9999999N5-00565-00725100355ADDAA101000025AU110030015AW1715GA1025+003965999GA2075+006405999GA3085+010975999GD11991+0039659GD23991+0064059GD34991+0109759MA1100305100035OC100885REMMET11901/02/10 05:56:02 METAR KNHZ 021056Z 01011G17KT -SN FEW013 BKN021 OVC036 M06/M07 A2962 RMK AO2 SLP035 P0000 T10561072 $
0181743920146112010010211137+43900-069933FM-16+0023KNHZ V0200105N00465003355MN9999999N5-00605-00705999999ADDAA101000021AU120030015AW1725GA1085+003355999GD14991+0033559MA1100275100005OC100825REMMET08701/02/10 06:13:02 SPECI KNHZ 021113Z 01009G16KT SN OVC011 M06/M07 A2961 RMK AO2 P0000 $
0170743920146112010010211247+43900-069933FM-16+0023KNHZ V0200105N00625002135MN9999999N5-00605-00705999999ADDAA101000021AU120030015AW1725GA1085+002135999GD14991+0021359MA1100275100005REMMET08401/02/10 06:24:02 SPECI KNHZ 021124Z 01012KT SN OVC007 M06/M07 A2961 RMK AO2 P0000 $
0281743920146112010010211567+43900-069933FM-15+0023KNHZ V0200105N00465001525MN9999999N5-00565-00725100315ADDAA101000025AA206000021AU120030015AW1725GA1085+001525999GD14991+0015259KA1999M-00501KA2999N-00561MA1100245099965MD1640184+9999REMMET12501/02/10 06:56:02 METAR KNHZ 021156Z 01009KT SN OVC005 M06/M07 A2960 RMK AO2 SLP031 P0000 60000 T10561072 11050 21056 56018 $EQDQ01  00008PRCP06
0187743920146112010010212567+43900-069933FM-15+0023KNHZ V0203605N00575003355MN9999999N5-00565-00725100245ADDAA101000025AU120030015AW1725GA1085+003355999GD14991+0033559MA1100175099905REMMET10101/02/10 07:56:02 METAR KNHZ 021256Z 36011KT SN OVC011 M06/M07 A2958 RMK AO2 SLP024 P0000 T10561072 $
0170743920146112010010213217+43900-069933FM-16+0023KNHZ V0200105N00625002745MN9999999N5-00605-00705999999ADDAA101000021AU120030015AW1725GA1085+002745999GD14991+0027459MA1100145099865REMMET08401/02/10 08:21:02 SPECI KNHZ 021321Z 01012KT SN OVC009 M06/M07 A2957 RMK AO2 P0000 $
0188743920146112010010213567+43900-069933FM-15+0023KNHZ V0203605N00675003355MN9999999N5-00565-00725100175ADDAA101000025AU110030015AW1715GA1085+003355999GD14991+0033559MA1100105099835REMMET10201/02/10 08:56:02 METAR KNHZ 021356Z 36013KT -SN OVC011 M06/M07 A2956 RMK AO2 SLP017 P0000 T10561072 $
0244743920146112010010214567+43900-069933FM-15+0023KNHZ V0200205N00575003355MN9999999N5-00505-00675100105ADDAA101000025AA203000021AU110030015AW1715GA1085+003355999GD14991+0033559MA1100035099765MD1640214+9999REMMET11401/02/10 09:56:02 METAR KNHZ 021456Z 02011KT -SN OVC011 M05/M07 A2954 RMK AO2 SLP010 P0000 60000 T10501067 56021 $EQDQ01  00008PRCP03
0199743920146112010010215567+43900-069933FM-15+0023KNHZ V0203605N00575003355MN9999999N5-00505-00675099975ADDAA101000025AU110030015AW1715GA1085+003355999GD14991+0033559MA1099905099635OC100985REMMET10501/02/10 10:56:02 METAR KNHZ 021556Z 36011G19KT -SN OVC011 M05/M07 A2950 RMK AO2 SLP997 P0000 T10501067 $
0171743920146112010010216107+43900-069933FM-16+0023KNHZ V0203605N00725002745MN9999999N5-00405-00705999999ADDAA101000021AU110030015AW1715GA1085+002745999GD14991+0027459MA1099865099595REMMET08501/02/10 11:10:02 SPECI KNHZ 021610Z 36014KT -SN OVC009 M04/M07 A2949 RMK AO2 P0000 $
0220743920146112010010216487+43900-069933FM-16+0023KNHZ V0203605N00625003355MN9999999N5-00405-00705999999ADDAA101000021AU110030015AW1715GA1075+003355999GA2085+005185999GD13991+0033559GD24991+0051859MA1099805099525OC101035REMMET09501/02/10 11:48:02 SPECI KNHZ 021648Z 36012G20KT -SN BKN011 OVC017 M04/M07 A2947 RMK AO2 P0000 $
0226743920146112010010216567+43900-069933FM-15+0023KNHZ V0203605N00625003355MN9999999N5-00445-00675099835ADDAA101000025AU110030015AW1715GA1075+003355999GA2085+005185999GD13991+0033559GD24991+0051859MA1099765099495REMMET10901/02/10 11:56:02 METAR KNHZ 021656Z 36012KT -SN BKN011 OVC017 M04/M07 A2946 RMK AO2 SLP983 P0000 T10441067 $
0220743920146112010010217497+43900-069933FM-16+0023KNHZ V0203605N00625002745MN9999999N5-00405-00605999999ADDAA101000021AU110030015AW1715GA1075+002745999GA2085+004885999GD13991+0027459GD24991+0048859MA1099705099425OC100985REMMET09501/02/10 12:49:02 SPECI KNHZ 021749Z 36012G19KT -SN BKN009 OVC016 M04/M06 A2944 RMK AO2 P0000 $
0331743920146112010010217567+43900-069933FM-15+0023KNHZ V0203505N00675002745MN9999999N5-00445-00615099745ADDAA101000025AA206000021AU110030015AW1715GA1075+002745999GA2085+004885999GD13991+0027459GD24991+0048859KA1999M-00441KA2999N-00561MA1099665099395MD1640374+9999OC100985REMMET13601/02/10 12:56:02 METAR KNHZ 021756Z 35013G19KT -SN BKN009 OVC016 M04/M06 A2943 RMK AO2 SLP974 P0000 60000 T10441061 11044 21056 56037 $EQDQ01  00008PRCP06
0198743920146112010010218567+43900-069933FM-15+0023KNHZ V0203505N00515002135MN9999999N5-00445-00615099635ADDAA101000025AU120030015AW1725GA1085+002135999GD14991+0021359MA1099565099295OC101035REMMET10401/02/10 13:56:02 METAR KNHZ 021856Z 35010G20KT SN OVC007 M04/M06 A2940 RMK AO2 SLP963 P0000 T10441061 $
0187743920146112010010219567+43900-069933FM-15+0023KNHZ V0203505N00625001525MN9999999N5-00445-00615099565ADDAA101000025AU120030015AW1725GA1085+001525999GD14991+0015259MA1099495099225REMMET10101/02/10 14:56:02 METAR KNHZ 021956Z 35012KT SN OVC005 M04/M06 A2938 RMK AO2 SLP956 P0000 T10441061 $
0181743920146112010010220117+43900-069933FM-16+0023KNHZ V0203405N00825000915MN9999999N5-00405-00605999999ADDAA101000021AU120030015AW1725GA1085+000915999GD14991+0009159MA1099495099225OC101085REMMET08701/02/10 15:11:02 SPECI KNHZ 022011Z 34016G21KT SN OVC003 M04/M06 A2938 RMK AO2 P0000 $
0254743920146112010010220567+43900-069933FM-15+0023KNHZ V0203405N00825001525MN9999999N5-00445-00615099485ADDAA101000025AA203000021AU120030015AW1725GA1085+001525999GD14991+0015259MA1099425099155MD1640264+9999OC101245REMMET11601/02/10 15:56:02 METAR KNHZ 022056Z 34016G24KT SN OVC005 M04/M06 A2936 RMK AO2 SLP948 P0000 60000 T10441061 56026 $EQDQ01  00008PRCP03
0198743920146112010010221567+43900-069933FM-15+0023KNHZ V0203305N00775001525MN9999999N5-00445-00565099365ADDAA101000025AU120030015AW1725GA1085+001525999GD14991+0015259MA1099295099025OC101295REMMET10401/02/10 16:56:02 METAR KNHZ 022156Z 33015G25KT SN OVC005 M04/M06 A2932 RMK AO2 SLP936 P0000 T10441056 $
0236743920146112010010222567+43900-069933FM-15+0023KNHZ V0203305N00675001525MN9999999N5-00395-00565099225ADDAA101000025AU120030015AW1725GA1075+001525999GA2085+004575999GD13991+0015259GD24991+0045759MA1099155098885OC100985REMMET11101/02/10 17:56:02 METAR KNHZ 022256Z 33013G19KT SN BKN005 OVC015 M04/M06 A2928 RMK AO2 SLP922 P0000 T10391056 $
0292743920146112010010223567+43900-069933FM-15+0023KNHZ V0203205N00825002135MN9999999N5-00445-00615099075ADDAA101000025AA206000021AU120030015AW1725GA1085+002135999GD14991+0021359KA1999M-00391KA2999N-00441MA1099025098755MD1840414+9999OC101135REMMET12801/02/10 18:56:02 METAR KNHZ 022356Z 32016G22KT SN OVC007 M04/M06 A2924 RMK AO2 SLP907 P0000 60000 T10441061 11039 21044 58041 $EQDQ01  00008PRCP06
0206743920146112010010300567+43900-069933FM-15+0023KNHZ V0203305N00675001525MN9999999N5-00445-00615098895ADDAA101000025AU130030015AW1735GA1085+001525999GD14991+0015259MA1098815098545OC101085REMMET11201/02/10 19:56:01 METAR KNHZ 030056Z 33013G21KT +SN OVC005 M04/M06 A2918 RMK AO2 PRESFR SLP889 P0000 T10441061 $
0254743920146112010010301567+43900-069933FM-15+0023KNHZ V0203205N00885002745MN9999999N5-00445-00615098645ADDAA101000025AU120030015AW1725GA1075+002745999GA2085+005185999GD13991+0027459GD24991+0051859MA1098585098315OC101185REMMET12901/02/10 20:56:01 METAR KNHZ 030156Z 32017G23KT SN BKN009 OVC017 M04/M06 A2911 RMK AO2 PK WND 32027/0113 SLP864 P0000 T10441061 $
0238743920146112010010302377+43900-069933FM-16+0023KNHZ V0203205N00935000915MN9999999N5-00405-00605999999ADDAA101000021AU130030015AW1735GA1075+000915999GA2085+003665999GD13991+0009159GD24991+0036659MA1098445098175OC101395REMMET11301/02/10 21:37:01 SPECI KNHZ 030237Z 32018G27KT +SN BKN003 OVC012 M04/M06 A2907 RMK AO2 PK WND 32029/0201 P0000 $
0327743920146112010010302567+43900-069933FM-15+0023KNHZ V0203205N00985000915MN9999999N5-00445-00615098445ADDAA101000025AA203000021AU130030015AW1735GA1075+000915999GA2085+003665999GD13991+0009159GD24991+0036659MA1098375098105MD1840634+9999OC101495REMMET14201/02/10 21:56:01 METAR KNHZ 030256Z 32019G29KT +SN BKN003 OVC012 M04/M06 A2905 RMK AO2 PK WND 33029/0254 SLP844 P0000 60000 T10441061 58063 $EQDQ01+000632APC3  Q02  00008PRCP03
0255743920146112010010303567+43900-069933FM-15+0023KNHZ V0203305N00885000915MN9999999N5-00445-00615098265ADDAA101000025AU130030015AW1735GA1075+000915999GA2085+004275999GD13991+0009159GD24991+0042759MA1098215097945OC101445REMMET13001/02/10 22:56:01 METAR KNHZ 030356Z 33017G28KT +SN BKN003 OVC014 M04/M06 A2900 RMK AO2 PK WND 32030/0307 SLP826 P0000 T10441061 $
0199743920146112010010304487+43900-069933FM-16+0023KNHZ V0203205N00935002135MN9999999N5-00605-00705999999ADDAA101000021AU120030015AW1725GA1085+002135999GD14991+0021359MA1098045097775OC101495REMMET10501/02/10 23:48:01 SPECI KNHZ 030448Z 32018G29KT SN OVC007 M06/M07 A2895 RMK AO2 PK WND 31031/0438 P0000 $
0226743920146112010010304567+43900-069933FM-15+0023KNHZ V0203205N01035002135MN9999999N5-00565-00725098075ADDAA101000025AU120030015AW1725GA1085+002135999GD14991+0021359MA1098005097735OC101545REMMET13201/02/10 23:56:01 METAR KNHZ 030456Z 32020G30KT SN OVC007 M06/M07 A2894 RMK AO2 PK WND 31031/0438 SLP807 P0000 T10561072 410391056 $
0907743920146112010010304596+43900-069933SOD  +0023KNHZ V020999999999999999999999999999+99999+99999999999ADDAA124000025KA1240M-00385KA2240N-00555MG1099594098074OE11240160931023385OE22240125231023465OE33240066699999995REMSOD75124 HR PRECIPITATION (IN):T     24 HR MAX TEMP (F):25 24 HR MAX TEMP TIME (LST):1817 24 HR MIN TEMP (F):22 24 HR MIN TEMP TIME (LST):2359 AVERAGE STATION PRESSURE:29.410 MINIMUM SEA LEVEL PRESSURE:28.96 TIME OF OCCURRENCE:2359 PEAK WIND SPEED (MPH):36  PEAK WIND DIR (DEG):310 PEAK WIND TIME (LST):2338  FASTEST 2MIN SPEED (MPH):28 FASTEST 2MIN DIR (DEG):310 FASTEST 2MIN TIME (LST):2346 AVERAGE WIND SPEED (MPH):14.9 24 HR AVG TEMP (F):24 DEPART FROM NORMAL: +2  HEATING DEGREE DAYS:41  COOLING DEGREE DAYS:0   LATEST DAY MAX TEMP (0700-1900 LST):25  LATEST NIGHT MIN TEMP(1900-0800 LST):22 HOURLY INCREMENTAL PRECIPITATION VALUES (IN):    T    T    T    T    T    T    T    T    T    T    T    T    T    T    T    T    T    T    T    T    T    T    TEQDR01     N7GJS072R02     N7GKS075
0310743920146112010010305567+43900-069933FM-15+0023KNHZ V0203305N00885002745MN9999999N5-00565-00725097995ADDAA101000025AA206000021AU120030015AW1725GA1085+002745999GD14991+0027459KA1999M-00441KA2999N-00561MA1097935097675MD1640454+9999OC101445REMMET14601/03/10 00:56:02 METAR KNHZ 030556Z 33017G28KT SN OVC009 M06/M07 A2892 RMK AO2 PK WND 32031/0540 SLP799 P0000 60000 T10561072 11044 21056 56045 $EQDQ01  00008PRCP06
0199743920146112010010306047+43900-069933FM-16+0023KNHZ V0203205N00935003355MN9999999N5-00605-00805999999ADDAA101000021AU120030015AW1725GA1085+003355999GD14991+0033559MA1097935097675OC101395REMMET10501/03/10 01:04:02 SPECI KNHZ 030604Z 32018G27KT SN OVC011 M06/M08 A2892 RMK AO2 PK WND 32027/0557 P0000 $
0199743920146112010010306127+43900-069933FM-16+0023KNHZ V0203205N01035002745MN9999999N5-00605-00705999999ADDAA101000021AU120030015AW1725GA1085+002745999GD14991+0027459MA1097905097635OC101445REMMET10501/03/10 01:12:02 SPECI KNHZ 030612Z 32020G28KT SN OVC009 M06/M07 A2891 RMK AO2 PK WND 31028/0609 P0000 $
0254743920146112010010306567+43900-069933FM-15+0023KNHZ V0203205N01035002135MN9999999N5-00565-00725097945ADDAA101000025AU120030015AW1725GA1075+002135999GA2085+004575999GD13991+0021359GD24991+0045759MA1097875097605OC101495REMMET12901/03/10 01:56:02 METAR KNHZ 030656Z 32020G29KT SN BKN007 OVC015 M06/M07 A2890 RMK AO2 PK WND 32031/0646 SLP794 P0000 T10561072 $
0254743920146112010010307567+43900-069933FM-15+0023KNHZ V0203205N00935001525MN9999999N5-00505-00725097915ADDAA101000025AU120030015AW1725GA1075+001525999GA2085+004885999GD13991+0015259GD24991+0048859MA1097875097605OC101395REMMET12901/03/10 02:56:02 METAR KNHZ 030756Z 32018G27KT SN BKN005 OVC016 M05/M07 A2890 RMK AO2 PK WND 31031/0711 SLP791 P0000 T10501072 $
0273743920146112010010308567+43900-069933FM-15+0023KNHZ V0203205N00885002745MN9999999N5-00505-00725097915ADDAA101000025AA203000021AU110030015AW1715GA1085+002745999GD14991+0027459MA1097875097605MD1640074+9999OC101495REMMET13501/03/10 03:56:02 METAR KNHZ 030856Z 32017G29KT -SN OVC009 M05/M07 A2890 RMK AO2 PK WND 32029/0848 SLP791 P0000 60000 T10501072 56007 $EQDQ01  00008PRCP03
0200743920146112010010309037+43900-069933FM-16+0023KNHZ V0203305N00935003965MN9999999N5-00505-00705999999ADDAA101000021AU110030015AW1715GA1085+003965999GD14991+0039659MA1097875097605OC101345REMMET10601/03/10 04:03:02 SPECI KNHZ 030903Z 33018G26KT -SN OVC013 M05/M07 A2890 RMK AO2 PK WND 32026/0857 P0000 $
0238743920146112010010309157+43900-069933FM-16+0023KNHZ V0203305N00775005185MN9999999N5-00505-00705999999ADDAA101000021AU110030015AW1715GA1075+005185999GA2085+011585999GD13991+0051859GD24991+0115859MA1097875097605OC101135REMMET11301/03/10 04:15:02 SPECI KNHZ 030915Z 33015G22KT -SN BKN017 OVC038 M05/M07 A2890 RMK AO2 PK WND 32026/0857 P0000 $
0255743920146112010010309567+43900-069933FM-15+0023KNHZ V0203305N00575007625MN9999999N5-00505-00675097955ADDAA101000025AU110030015AW1715GA1075+007625999GA2085+010975999GD13991+0076259GD24991+0109759MA1097905097635OC100885REMMET13001/03/10 04:56:02 METAR KNHZ 030956Z 33011G17KT -SN BKN025 OVC036 M05/M07 A2891 RMK AO2 PK WND 32026/0857 SLP795 P0000 T10501067 $
0237743920146112010010310567+43900-069933FM-15+0023KNHZ V0203505N00465004575MN9999999N5-00395-00565098045ADDAA101000025AU110030015AW1715GA1075+004575999GA2085+006105999GD13991+0045759GD24991+0061059MA1097975097705OC100825REMMET11201/03/10 05:56:02 METAR KNHZ 031056Z 35009G16KT -SN BKN015 OVC020 M04/M06 A2893 RMK AO2 SLP804 P0000 T10391056 $
0209743920146112010010311087+43900-069933FM-16+0023KNHZ V0203405N00465003965MN9999999N5-00405-00505999999ADDAA101000021AU110030015AW1715GA1075+003965999GA2085+006105999GD13991+0039659GD24991+0061059MA1098005097735REMMET09201/03/10 06:08:02 SPECI KNHZ 031108Z 34009KT -SN BKN013 OVC020 M04/M05 A2894 RMK AO2 P0000 $
0294743920146112010010311567+43900-069933FM-15+0023KNHZ V0203405N00415003055MN9999999N5-00285-00395098135ADDAA101000025AA206000021AU110030015AW1715GA1085+003055999GD14991+0030559KA1999M-00281KA2999N-00561MA1098075097805MD1340214+9999REMMET13801/03/10 06:56:02 METAR KNHZ 031156Z 34008KT -SN OVC010 M03/M04 A2896 RMK AO2 CIG 008V013 SLP813 P0000 60000 T10281039 11028 21056 53021 $EQDQ01  00008PRCP06
0183743920146112010010312567+43900-069933FM-15+0023KNHZ V0200205N00515004275MN9999999N5+00115-00065098255ADDAA101000025GA1085+004275999GD14991+0042759MA1098175097905OC100885REMMET10601/03/10 07:56:02 METAR KNHZ 031256Z 02010G17KT OVC014 01/M01 A2899 RMK AO2 SNE28 SLP825 P0000 T00111006 $
0231743920146112010010313567+43900-069933FM-15+0023KNHZ V0200205N00575003355MN9999999N5+00115+00005098405ADDAA101000025GA1075+003355999GA2085+005795999GD13991+0033559GD24991+0057959MA1098345098075OC100985REMMET12301/03/10 08:56:02 METAR KNHZ 031356Z 02011G19KT BKN011 OVC019 01/00 A2904 RMK AO2 UPB38E51SNB37E38 SLP840 P0000 T00110000 $
0180743920146112010010314007+43900-069933FM-16+0023KNHZ V0200205N00575004575MN9999999N5+00105+00005999999ADDGA1025+002745999GA2085+004575999GD11991+0027459GD24991+0045759MA1098345098075OC100935REMMET08301/03/10 09:00:02 SPECI KNHZ 031400Z 02011G18KT FEW009 OVC015 01/00 A2904 RMK AO2 $
0218743920146112010010314077+43900-069933FM-16+0023KNHZ V0200205N00465003965MN9999999N5+00105+00005999999ADDGA1075+003965999GA2075+005495999GA3085+007625999GD13991+0039659GD23991+0054959GD34991+0076259MA1098375098105OC100935REMMET09001/03/10 09:07:02 SPECI KNHZ 031407Z 02009G18KT BKN013 BKN018 OVC025 01/00 A2905 RMK AO2 $
0218743920146112010010314157+43900-069933FM-16+0023KNHZ V0200105N00625004575MN9999999N5+00105+00005999999ADDGA1025+003055999GA2075+004575999GA3085+007625999GD11991+0030559GD23991+0045759GD34991+0076259MA1098375098105OC100885REMMET09001/03/10 09:15:02 SPECI KNHZ 031415Z 01012G17KT FEW010 BKN015 OVC025 01/00 A2905 RMK AO2 $
0180743920146112010010314417+43900-069933FM-16+0023KNHZ V0200105N007252200059N9999999N5+00205+00005999999ADDGA1045+005185999GA2045+012805999GD12991+0051859GD22991+0128059MA1098415098145OC101085REMMET08301/03/10 09:41:02 SPECI KNHZ 031441Z 01014G21KT SCT017 SCT042 02/00 A2906 RMK AO2 $
0283743920146112010010314567+43900-069933FM-15+0023KNHZ V0200105N00725016765MN9999999N5+00175+00005098505ADDAA101000095AA203000021GA1025+004575999GA2045+014335999GA3075+016765999GD11991+0045759GD22991+0143359GD33991+0167659MA1098445098175MD1140384+9999OC101135REMMET11901/03/10 09:56:02 METAR KNHZ 031456Z 01014G22KT FEW015 SCT047 BKN055 02/00 A2907 RMK AO2 SLP850 60000 T00170000 51038 $
0295743920146112010010315567+43900-069933FM-15+0023KNHZ V0200205N00515010675MN9999999N5+00175+00005098535ADDAA101000025AU110030015AW1715GA1025+006715999GA2075+010675999GA3075+014635999GD11991+0067159GD23991+0106759GD33991+0146359MA1098485098215OC101185REMMET13901/03/10 10:56:02 METAR KNHZ 031556Z 02010G23KT -SN FEW022 BKN035 BKN048 02/00 A2908 RMK AO2 RAB49E50UPB50E53SNB53 SLP853 P0000 T00170000 $
0245743920146112010010316087+43900-069933FM-16+0023KNHZ V0200305N00415007325MN9999999N5+00205+00105999999ADDAA101000021AU110030015AW1715GA1045+003965999GA2075+007325999GA3085+010975999GD12991+0039659GD23991+0073259GD34991+0109759MA1098485098215REMMET09701/03/10 11:08:02 SPECI KNHZ 031608Z 03008KT -SN SCT013 BKN024 OVC036 02/01 A2908 RMK AO2 P0000 $
0261743920146112010010316207+43900-069933FM-16+0023KNHZ V0200205N00265003355MN9999999N5+00205+00105999999ADDAA101000021AU120090015AW1401AW2415GA1075+003355999GA2075+005185999GA3085+007015999GD13991+0033559GD23991+0051859GD34991+0070159MA1098485098215REMMET10701/03/10 11:20:02 SPECI KNHZ 031620Z 02005KT UP BKN011 BKN017 OVC023 02/01 A2908 RMK AO2 UPB15SNE15 P0000 $
0246743920146112010010316427+43900-069933FM-16+0023KNHZ V0200105N00515003665MN9999999N5+00205+00105999999ADDAA101000021GA1025+002445999GA2075+003665999GA3085+007325999GD11991+0024459GD23991+0036659GD34991+0073259MA1098485098215REMMET11501/03/10 11:42:02 SPECI KNHZ 031642Z 01010KT FEW008 BKN012 OVC024 02/01 A2908 RMK AO2 UPB15E38RAB38E39SNE15 P0000 $
0263743920146112010010316546+43900-069933FM-16+0023KNHZ V0200105N00575007625MN9999999N5+00205+00105999999ADDGA1045+003055999GA2075+007625999GA3085+014635999GD12991+0030559GD23991+0076259GD34991+0146359MA1098485098215OC100885REMMET13501/03/10 11:54:02 SPECI KNHZ 031654Z 01011G17KT SCT010 BKN025 OVC048 02/01 A2908 RMK AO2 UPB15E38RAB38E39SNE15 CIG 012 R01 P0000 $ FIBI
0286743920146112010010316567+43900-069933FM-15+0023KNHZ V0200105N00625007625MN9999999N5+00225+00065098535ADDAA101000025GA1045+003055999GA2075+007625999GA3085+014635999GD12991+0030559GD23991+0076259GD34991+0146359MA1098485098215OC100885REMMET14701/03/10 11:56:02 METAR KNHZ 031656Z 01012G17KT SCT010 BKN025 OVC048 02/01 A2908 RMK AO2 UPB15E38RAB38E39SNE15 CIG 012 R01 SLP853 P0000 T00220006 $
0180743920146112010010317147+43900-069933FM-16+0023KNHZ V0200105N00415004275MN9999999N5+00205+00105999999ADDGA1075+004275999GA2085+007625999GD13991+0042759GD24991+0076259MA1098485098215OC100825REMMET08301/03/10 12:14:02 SPECI KNHZ 031714Z 01008G16KT BKN014 OVC025 02/01 A2908 RMK AO2 $
0221743920146112010010317477+43900-069933FM-16+0023KNHZ V0200105N00515002745MN9999999N5+00205+00105999999ADDAA101000021AU110020015AW1615GA1075+002745999GA2085+004275999GD13991+0027459GD24991+0042759MA1098515098245REMMET10401/03/10 12:47:02 SPECI KNHZ 031747Z 01010KT -RA BKN009 OVC014 02/01 A2909 RMK AO2 RAB37UPB38E43 P0000 $
0332743920146112010010317567+43900-069933FM-15+0023KNHZ V0203605N00365002745MN9999999N5+00175+00065098585ADDAA101000025AA206000021AU110020015AW1615GA1075+002745999GA2085+004575999GD13991+0027459GD24991+0045759KA1999M+00221KA2999N-00281MA1098515098245MD1340084+9999REMMET14501/03/10 12:56:02 METAR KNHZ 031756Z 36007KT -RA BKN009 OVC015 02/01 A2909 RMK AO2 RAB37UPB38E43 SLP858 P0000 60000 T00170006 10022 21028 53008 $EQDQ01  00008PRCP06
0214743920146112010010318147+43900-069933FM-16+0023KNHZ V0200105N00625004575MN9999999N5+00205+00105999999ADDAA101000021GA1025+002445999GA2085+004575999GD11991+0024459GD24991+0045759MA1098545098275REMMET11401/03/10 13:14:02 SPECI KNHZ 031814Z 01012KT FEW008 OVC015 02/01 A2910 RMK AO2 RAE01UPB1757E00 CIG 009 R01 P0000 $
0237743920146112010010318217+43900-069933FM-16+0023KNHZ V0200105N00575003355MN9999999N5+00205+00105999999ADDAA101000021AU120090015AW1401AW2415GA1075+003355999GA2085+004575999GD13991+0033559GD24991+0045759MA1098545098275REMMET11401/03/10 13:21:02 SPECI KNHZ 031821Z 01011KT UP BKN011 OVC015 02/01 A2910 RMK AO2 RAE01UPB1757 CIG 006V012 P0000 $
0251743920146112010010318397+43900-069933FM-16+0023KNHZ V0200105N00515004575MN9999999N5+00205+00105999999ADDAA101000021GA1025+003055999GA2075+004575999GA3085+012805999GD11991+0030559GD23991+0045759GD34991+0128059MA1098545098275OC100885REMMET11201/03/10 13:39:02 SPECI KNHZ 031839Z 01010G17KT FEW010 BKN015 OVC042 02/01 A2910 RMK AO2 RAE01UPB1757E25 P0000 $
0242743920146112010010318537+43900-069933FM-16+0023KNHZ V0200105N00575004275MN9999999N5+00205+00105999999ADDAA101000021AU120090015AW1401AW2415GA1075+004275999GA2085+006105999GD13991+0042759GD24991+0061059MA1098585098315OC100935REMMET11101/03/10 13:53:02 SPECI KNHZ 031853Z 01011G18KT UP BKN014 OVC020 02/01 A2911 RMK AO2 RAE01UPB1757E25B53 P0000 $
0259743920146112010010318567+43900-069933FM-15+0023KNHZ V0200105N00625004275MN9999999N5+00175+00065098655ADDAA101000025AU120090015AW1401AW2415GA1075+004275999GA2085+006105999GD13991+0042759GD24991+0061059MA1098585098315OC100935REMMET12801/03/10 13:56:02 METAR KNHZ 031856Z 01012G18KT UP BKN014 OVC020 02/01 A2911 RMK AO2 RAE01UPB1757E25B53 SLP865 P0000 T00170006 $
0212743920146112010010319287+43900-069933FM-16+0023KNHZ V0203605N00725004885MN9999999N5+00205+00005999999ADDAA101000021AU120090015AW1401AW2415GA1075+004885999GA2085+006715999GD13991+0048859GD24991+0067159MA1098655098385REMMET08901/03/10 14:28:02 SPECI KNHZ 031928Z 36014KT UP BKN016 OVC022 02/00 A2913 RMK AO2 P0000 $
0267743920146112010010319497+43900-069933FM-16+0023KNHZ V0200105N00515004575MN9999999N5+00205+00105999999ADDAA101000021AU110020015AW1615GA1025+002745999GA2075+004575999GA3085+006405999GD11991+0027459GD23991+0045759GD34991+0064059MA1098685098415OC100885REMMET11101/03/10 14:49:02 SPECI KNHZ 031949Z 01010G17KT -RA FEW009 BKN015 OVC021 02/01 A2914 RMK AO2 UPE42RAB31 P0000 $
0250743920146112010010319546+43900-069933FM-16+0023KNHZ V0200105N00515003665MN9999999N5+00205+00105999999ADDAU110020015AW1615GA1025+002745999GA2075+003665999GA3085+005795999GD11991+0027459GD23991+0036659GD34991+0057959MA1098685098415REMMET11301/03/10 14:54:02 SPECI KNHZ 031954Z 01010KT -RA FEW009 BKN012 OVC019 02/01 A2914 RMK AO2 UPE42RAB31 P0000 $ FIBI
0273743920146112010010319567+43900-069933FM-15+0023KNHZ V0200105N00465003665MN9999999N5+00175+00115098755ADDAA101000025AU110020015AW1615GA1025+002745999GA2075+003665999GA3085+005795999GD11991+0027459GD23991+0036659GD34991+0057959MA1098685098415REMMET12501/03/10 14:56:02 METAR KNHZ 031956Z 01009KT -RA FEW009 BKN012 OVC019 02/01 A2914 RMK AO2 UPE42RAB31 SLP875 P0000 T00170011 $
0254743920146112010010320117+43900-069933FM-16+0023KNHZ V0203505N00415004575MN9999999N5+00205+00205999999ADDAA101000021AU110020015AW1615GA1025+003055999GA2075+004575999GA3085+007015999GD11991+0030559GD23991+0045759GD34991+0070159MA1098715098445REMMET10601/03/10 15:11:02 SPECI KNHZ 032011Z 35008KT -RA FEW010 BKN015 OVC023 02/02 A2915 RMK AO2 UPB02E06 P0000 $
0297743920146112010010320567+43900-069933FM-15+0023KNHZ V0203605N00515004575MN9999999N5+00175+00175098825ADDAA101000025AA203000021AU110020015AW1615GA1075+004575999GA2085+006105999GD13991+0045759GD24991+0061059MA1098755098485MD1340174+9999REMMET13601/03/10 15:56:02 METAR KNHZ 032056Z 36010KT -RA BKN015 OVC020 02/02 A2916 RMK AO2 RAE15B53UPB02E53 SLP882 P0000 60000 T00170017 53017 $EQDQ01  00008PRCP03
0261743920146112010010321267+43900-069933FM-16+0023KNHZ V0203605N00465004275MN9999999N5+00205+00205999999ADDAA101000021AU120090015AW1401AW2415GA1075+004275999GA2075+006405999GA3085+008535999GD13991+0042759GD23991+0064059GD34991+0085359MA1098785098515REMMET10701/03/10 16:26:02 SPECI KNHZ 032126Z 36009KT UP BKN014 BKN021 OVC028 02/02 A2917 RMK AO2 RAE11UPB00 P0000 $
0261743920146112010010321447+43900-069933FM-16+0023KNHZ V0203605N00575004575MN9999999N5+00205+00205999999ADDAA101000021AU120090015AW1401AW2415GA1075+004575999GA2075+006405999GA3085+008535999GD13991+0045759GD23991+0064059GD34991+0085359MA1098815098545REMMET10701/03/10 16:44:02 SPECI KNHZ 032144Z 36011KT UP BKN015 BKN021 OVC028 02/02 A2918 RMK AO2 RAE11UPB00 P0000 $
0279743920146112010010321567+43900-069933FM-15+0023KNHZ V0203605N00575004575MN9999999N5+00175+00115098885ADDAA101000025AU110020015AW1615GA1075+004575999GA2075+006405999GA3085+009145999GD13991+0045759GD23991+0064059GD34991+0091459MA1098815098545REMMET13101/03/10 16:56:02 METAR KNHZ 032156Z 36011KT -RA BKN015 BKN021 OVC030 02/01 A2918 RMK AO2 RAE11B53UPB00E53 SLP888 P0000 T00170011 $
0279743920146112010010322567+43900-069933FM-15+0023KNHZ V0203605N00625007325MN9999999N5+00175+00115098985ADDAA101000025AU110020015AW1615GA1045+004275999GA2075+007325999GA3085+008845999GD12991+0042759GD23991+0073259GD34991+0088459MA1098925098655REMMET13101/03/10 17:56:02 METAR KNHZ 032256Z 36012KT -RA SCT014 BKN024 OVC029 02/01 A2921 RMK AO2 RAE05B24UPB05E24 SLP898 P0000 T00170011 $
0361743920146112010010323567+43900-069933FM-15+0023KNHZ V0203605N00625007325MN9999999N5+00175+00175099045ADDAA101000025AA206000021GA1025+003665999GA2075+007325999GA3085+012195999GD11991+0036659GD23991+0073259GD34991+0121959KA1999M+00221KA2999N+00171MA1098985098715MD1140224+9999REMMET16001/03/10 18:56:02 METAR KNHZ 032356Z 36012KT FEW012 BKN024 OVC040 02/02 A2923 RMK AO2 RAE17UPB17E30 CIG 016 R01 SLP904 P0000 60000 T00170017 10022 20017 51022 $EQDQ01  00008PRCP06
0218743920146112010010400147+43900-069933FM-16+0023KNHZ V0203505N00675009755MN9999999N5+00205+00205999999ADDGA1045+005495999GA2075+009755999GA3085+012805999GD12991+0054959GD23991+0097559GD34991+0128059MA1098985098715OC100935REMMET09001/03/10 19:14:01 SPECI KNHZ 040014Z 35013G18KT SCT018 BKN032 OVC042 02/02 A2923 RMK AO2 $
0212743920146112010010400567+43900-069933FM-15+0023KNHZ V0203505N00515012195MN9999999N5+00175+00115099045ADDAA101000025GA1075+012195999GA2085+014335999GD13991+0121959GD24991+0143359MA1098985098715REMMET11201/03/10 19:56:01 METAR KNHZ 040056Z 35010KT BKN040 OVC047 02/01 A2923 RMK AO2 UPB22E36 SLP904 P0000 T00170011 $
0208743920146112010010401567+43900-069933FM-15+0023KNHZ V0203505N005152200059N9999999N5+00225+00115099065ADDAA101000095GA1025+007925999GA2045+010675999GD11991+0079259GD22991+0106759MA1099025098755OC100935REMMET10001/03/10 20:56:01 METAR KNHZ 040156Z 35010G18KT FEW026 SCT035 02/01 A2924 RMK AO2 SLP906 T00220011 $
0245743920146112010010402567+43900-069933FM-15+0023KNHZ V0203305N00825012505MN9999999N5+00225+00115099075ADDAA101000095AA203000021GA1075+012505999GA2085+018295999GD13991+0125059GD24991+0182959MA1099025098755MD1340054+9999OC101035REMMET11201/03/10 21:56:01 METAR KNHZ 040256Z 33016G20KT BKN041 OVC060 02/01 A2924 RMK AO2 SLP907 60000 T00220011 53005 $
0247743920146112010010403397+43900-069933FM-16+0023KNHZ V0203405N00725008535MN9999999N5+00205+00105999999ADDAA101000021AU120090015AW1401AW2415GA1075+008535999GA2085+011585999GD13991+0085359GD24991+0115859MA1099055098785OC101345REMMET11601/03/10 22:39:01 SPECI KNHZ 040339Z 34014G26KT UP BKN028 OVC038 02/01 A2925 RMK AO2 PK WND 33026/0333 UPB18 P0000 $
0241743920146112010010403567+43900-069933FM-15+0023KNHZ V0203405N00725008535MN9999999N5+00175+00115099135ADDAA101000025GA1075+008535999GA2085+018295999GD13991+0085359GD24991+0182959MA1099095098815OC101085REMMET13301/03/10 22:56:01 METAR KNHZ 040356Z 34014G21KT BKN028 OVC060 02/01 A2926 RMK AO2 PK WND 33026/0333 UPB18E54 SLP913 P0000 T00170011 $
0180743920146112010010404137+43900-069933FM-16+0023KNHZ V0203305N00575009145MN9999999N5+00205+00105999999ADDGA1075+009145999GA2085+018295999GD13991+0091459GD24991+0182959MA1099095098815OC100885REMMET08301/03/10 23:13:01 SPECI KNHZ 040413Z 33011G17KT BKN030 OVC060 02/01 A2926 RMK AO2 $
0180743920146112010010404497+43900-069933FM-16+0023KNHZ V0203405N00575008535MN9999999N5+00105+00105999999ADDAA101000021AU120090015AW1401AW2415GA1085+008535999GD14991+0085359MA1099095098815REMMET08801/03/10 23:49:01 SPECI KNHZ 040449Z 34011KT UP OVC028 01/01 A2926 RMK AO2 UPB37 P0000 $
0207743920146112010010404567+43900-069933FM-15+0023KNHZ V0203405N00625007925MN9999999N5+00115+00115099135ADDAA101000025AU120090015AW1401AW2415GA1085+007925999GD14991+0079259MA1099095098815REMMET11501/03/10 23:56:01 METAR KNHZ 040456Z 34012KT UP OVC026 01/01 A2926 RMK AO2 UPB37 SLP913 P0000 T00110011 400221056 $
0907743920146112010010404596+43900-069933SOD  +0023KNHZ V020999999999999999999999999999+99999+99999999999ADDAA124000025KA1240M+00225KA2240N-00555MG1098104097904OE11240160931002115OE22240125232000415OE33240062699999995REMSOD75124 HR PRECIPITATION (IN):T     24 HR MAX TEMP (F):36 24 HR MAX TEMP TIME (LST):2227 24 HR MIN TEMP (F):22 24 HR MIN TEMP TIME (LST):0215 AVERAGE STATION PRESSURE:28.970 MINIMUM SEA LEVEL PRESSURE:28.91 TIME OF OCCURRENCE:0419 PEAK WIND SPEED (MPH):36  PEAK WIND DIR (DEG):310 PEAK WIND TIME (LST):0211  FASTEST 2MIN SPEED (MPH):28 FASTEST 2MIN DIR (DEG):320 FASTEST 2MIN TIME (LST):0041 AVERAGE WIND SPEED (MPH):14.0 24 HR AVG TEMP (F):29 DEPART FROM NORMAL: +7  HEATING DEGREE DAYS:36  COOLING DEGREE DAYS:0   LATEST DAY MAX TEMP (0700-1900 LST):36  LATEST NIGHT MIN TEMP(1900-0800 LST):22 HOURLY INCREMENTAL PRECIPITATION VALUES (IN):    T    T    T    T    T    T    T    T    0.00 T    T    T    T    T    T    T    T    T    T    0.00 0.00 T    TEQDR01     N7GJS072R02     N7GKS075
0238743920146112010010405457+43900-069933FM-16+0023KNHZ V0203205N00365015245MN9999999N5+00105+00105999999ADDAA101000021GA1045+010065999GA2075+015245999GA3085+025915999GD12991+0100659GD23991+0152459GD34991+0259159MA1099095098815REMMET10701/04/10 00:45:02 SPECI KNHZ 040545Z 32007KT SCT033 BKN050 OVC085 01/01 A2926 RMK AO2 UPE00SNB00E16 P0000 $
0311743920146112010010405567+43900-069933FM-15+0023KNHZ V0203205N00465015245MN9999999N5+00175+00065099155ADDAA101000025AA206000021GA1025+008235999GA2085+015245999GD11991+0082359GD24991+0152459KA1999M+00221KA2999N+00111MA1099125098855MD1140084+9999REMMET14101/04/10 00:56:02 METAR KNHZ 040556Z 32009KT FEW027 OVC050 02/01 A2927 RMK AO2 UPE00SNB00E16 SLP915 P0000 60000 T00170006 10022 20011 51008 $EQDQ01  00008PRCP06
0198743920146112010010406567+43900-069933FM-15+0023KNHZ V0203305N00515018295MN9999999N5+00225-00225099185ADDAA101000095GA1075+018295999GA2085+036585999GD13991+0182959GD24991+0365859MA1099125098855REMMET09801/04/10 01:56:02 METAR KNHZ 040656Z 33010KT BKN060 OVC120 02/M02 A2927 RMK AO2 SLP918 T00221022 $
0160743920146112010010407567+43900-069933FM-15+0023KNHZ V0203305N005152200059N9999999N5+00225-00285099215ADDAA101000095GA1025+033535999GD11991+0335359MA1099155098885REMMET09101/04/10 02:56:02 METAR KNHZ 040756Z 33010KT FEW110 02/M03 A2928 RMK AO2 SLP921 T00221028 $
0188743920146112010010408567+43900-069933FM-15+0023KNHZ V0203205N007752200059N9999999N5+00175-00335099225ADDAA101000095GA1005+999999999GD10991+9999999MA1099195098925MD1140074+9999OC101295REMMET09701/04/10 03:56:02 METAR KNHZ 040856Z 32015G25KT CLR 02/M03 A2929 RMK AO2 SLP922 T00171033 51007 $
0186743920146112010010409567+43900-069933FM-15+0023KNHZ V0203205N008852200059N9999999N5+00115-00335099265ADDAA101000095GA1005+999999999GD10991+9999999MA1099225098955OC101245REMMET10901/04/10 04:56:02 METAR KNHZ 040956Z 32017G24KT CLR 01/M03 A2930 RMK AO2 PK WND 30027/0925 SLP926 T00111033 $
0245743920146112010010410567+43900-069933FM-15+0023KNHZ V0203205N010352200059N0160935N5+00065-00445099315ADDAA101000095GA1045+018295999GA2045+036585999GD12991+0182959GD22991+0365859GF104991999999999999999999MA1099265098985OC101295REMMET11101/04/10 05:56:02 METAR KNHZ 041056Z 32020G25KT 10SM SCT060 SCT120 01/M04 A2931 RMK AO2 SLP931 T00061044 $ (CT)
0344743920146112010010411567+43900-069933FM-15+0023KNHZ V0203305N00935033535MN0160935N5+00065-00445099365ADDAA101000095AJ100159599999999GA1045+018295999GA2075+033535999GD12991+0182959GD23991+0335359GF107991999999999999999999KA1999M+00221KA2999N+00001MA1099325099055MD1340144+9999OC101135REMMET15301/04/10 06:56:02 METAR KNHZ 041156Z 33018G22KT 10SM SCT060 BKN110 01/M04 A2933 RMK AO2 PK WND 30028/1122 SLP936 4/006 T00061044 10022 20000 53014 $ (CT)
0283743920146112010010412567+43900-069933FM-15+0023KNHZ V0203205N00775039625MN0160935N5+00005-00505099435ADDAA101000095GA1025+018295999GA2045+033535999GA3075+039625999GD11991+0182959GD22991+0335359GD33991+0396259GF107991999999999999999999MA1099395099125OC101245REMMET11801/04/10 07:56:02 METAR KNHZ 041256Z 32015G24KT 10SM FEW060 SCT110 BKN130 00/M05 A2935 RMK AO2 SLP943 T00001050 $ (CT)
0281743920146112010010413567+43900-069933FM-15+0023KNHZ V0203305N00775039625MN0160935N5+00005-00565099555ADDAA101000095GA1025+010675999GA2045+015245999GA3075+039625999GD11991+0106759GD22991+0152459GD33991+0396259GF107991999999999999999999MA1099495099225OC101085REMMET11601/04/10 08:56:02 METAR KNHZ 041356Z 33015G21KT 10SM FEW035 SCT050 BKN130 00/M06 A2938 RMK AO2 SLP955 T00001056 (CT)
0281743920146112010010414567+43900-069933FM-15+0023KNHZ V0203305N00985016765MN0160935N5+00065-00565099625ADDAA101000095GA1075+016765999GA2075+022865999GD13991+0167659GD23991+0228659GF107991999999999999999999MA1099565099295MD1140264+9999OC101345REMMET13301/04/10 09:56:02 METAR KNHZ 041456Z 33019G26KT 10SM BKN055 BKN075 01/M06 A2940 RMK AO2 PK WND 33026/1456 SLP962 T00061056 51026 (CT)
0205743920146112010010415567+43900-069933FM-15+0023KNHZ V0203305N00725021345MN0160935N5+00065-00565099645ADDAA101000095GA1085+021345999GD14991+0213459GF108991999999999999999999MA1099595099325OC101035REMMET10201/04/10 10:56:02 METAR KNHZ 041556Z 33014G20KT 10SM OVC070 01/M06 A2941 RMK AO2 SLP964 T00061056 (CT)
0205743920146112010010416567+43900-069933FM-15+0023KNHZ V0203305N00775019815MN0160935N5+00065-00565099635ADDAA101000095GA1085+019815999GD14991+0198159GF108991999999999999999999MA1099595099325OC101085REMMET10201/04/10 11:56:02 METAR KNHZ 041656Z 33015G21KT 10SM OVC065 01/M06 A2941 RMK AO2 SLP963 T00061056 (CT)
0282743920146112010010417567+43900-069933FM-15+0023KNHZ V0203405N00625018295MN0160935N5+00065-00565099645ADDAA101000095AJ100159599999999GA1085+018295999GD14991+0182959GF108991999999999999999999KA1999M+00061KA2999N+00001MA1099595099325MD1140024+9999REMMET13001/04/10 12:56:02 METAR KNHZ 041756Z 34012KT 10SM OVC060 01/M06 A2941 RMK AO2 SLP964 4/006 933007 T00061056 10006 20000 51002 (CT)
0195743920146112010010418567+43900-069933FM-15+0023KNHZ V0203305N00625018295MN0160935N5+00065-00615099715ADDAA101000095GA1085+018295999GD14991+0182959GF108991999999999999999999MA1099665099395REMMET10001/04/10 13:56:02 METAR KNHZ 041856Z 33012KT 10SM OVC060 01/M06 A2943 RMK AO2 SLP971 T00061061 (RDG)
0206743920146112010010419567+43900-069933FM-15+0023KNHZ V0203205N00675016765MN0160935N5+00005-00615099795ADDAA101000095GA1085+016765999GD14991+0167659GF108991999999999999999999MA1099735099465OC100935REMMET10301/04/10 14:56:02 METAR KNHZ 041956Z 32013G18KT 10SM OVC055 00/M06 A2945 RMK AO2 SLP979 T00001061 (RDG)
0227743920146112010010420567+43900-069933FM-15+0023KNHZ V0203305N00675015245MN0160935N5-00065-00675099835ADDAA101000095GA1085+015245999GD14991+0152459GF108991999999999999999999MA1099805099525MD1140204+9999OC100985REMMET11001/04/10 15:56:02 METAR KNHZ 042056Z 33013G19KT 10SM OVC050 M01/M07 A2947 RMK AO2 SLP983 T10061067 51020 (RDG)
0196743920146112010010421567+43900-069933FM-15+0023KNHZ V0203405N00365015245MN0160935N5-00115-00675099925ADDAA101000095GA1085+015245999GD14991+0152459GF108991999999999999999999MA1099865099595REMMET10101/04/10 16:56:02 METAR KNHZ 042156Z 34007KT 10SM OVC050 M01/M07 A2949 RMK AO2 SLP992 T10111067 (RDG)
0196743920146112010010422567+43900-069933FM-15+0023KNHZ V0203405N00675014635MN0160935N5-00115-00725099955ADDAA101000095GA1085+014635999GD14991+0146359GF108991999999999999999999MA1099905099635REMMET10101/04/10 17:56:02 METAR KNHZ 042256Z 34013KT 10SM OVC048 M01/M07 A2950 RMK AO2 SLP995 T10111072 (RDG)
0277743920146112010010423567+43900-069933FM-15+0023KNHZ V0203405N00575013415MN0160935N5-00175-00725100005ADDAA101000095AJ100159599999999GA1085+013415999GD14991+0134159GF108991999999999999999999KA1999M+00061KA2999N-00171MA1099935099665MD1140164+9999REMMET12501/04/10 18:56:02 METAR KNHZ 042356Z 34011KT 10SM OVC044 M02/M07 A2951 RMK AO2 SLP000 4/006 T10171072 10006 21017 51016 (RDG)
0190743920146112010010500567+43900-069933FM-15+0023KNHZ V0203305N00515014025MN0160935N5-00175-00725100035ADDAA101000095GA1085+014025999GD14991+0140259GF108991999999999999999999MA1099975099695REMMET09501/04/10 19:56:01 METAR KNHZ 050056Z 33010KT 10SM OVC046 M02/M07 A2952 RMK AO2 SLP003 T10171072
0190743920146112010010501567+43900-069933FM-15+0023KNHZ V0203305N00415014635MN0160935N5-00175-00725100035ADDAA101000095GA1085+014635999GD14991+0146359GF108991999999999999999999MA1099975099695REMMET09501/04/10 20:56:01 METAR KNHZ 050156Z 33008KT 10SM OVC048 M02/M07 A2952 RMK AO2 SLP003 T10171072
0210743920146112010010502567+43900-069933FM-15+0023KNHZ V0203405N00365015245MN0160935N5-00225-00725100055ADDAA101000095GA1085+015245999GD14991+0152459GF108991999999999999999999MA1100005099735MD1140054+9999REMMET10101/04/10 21:56:01 METAR KNHZ 050256Z 34007KT 10SM OVC050 M02/M07 A2953 RMK AO2 SLP005 T10221072 51005
0159743920146112010010503567+43900-069933FM-15+0023KNHZ V0203305N00365016765MN9999999N5-00225-00725100055ADDAA101000095GA1085+016765999GD14991+0167659MA1100005099735REMMET09001/04/10 22:56:01 METAR KNHZ 050356Z 33007KT OVC055 M02/M07 A2953 RMK AO2 SLP005 T10221072
0169743920146112010010504567+43900-069933FM-15+0023KNHZ V0203305N00415015245MN9999999N5-00225-00725100035ADDAA101000095GA1085+015245999GD14991+0152459MA1099975099695REMMET10001/04/10 23:56:01 METAR KNHZ 050456Z 33008KT OVC050 M02/M07 A2952 RMK AO2 SLP003 T10221072 400221022
0910743920146112010010504596+43900-069933SOD  +0023KNHZ V020999999999999999999999999999+99999+99999999999ADDAA124000025KA1240M+00225KA2240N-00215MG1099204099124OE11240143130006225OE22240102832006225OE33240063999999995REMSOD75424 HR PRECIPITATION (IN):T     24 HR MAX TEMP (F):36 24 HR MAX TEMP TIME (LST):0350 24 HR MIN TEMP (F):28 24 HR MIN TEMP TIME (LST):2359 AVERAGE STATION PRESSURE:29.295 MINIMUM SEA LEVEL PRESSURE:29.27 TIME OF OCCURRENCE:0032 PEAK WIND SPEED (MPH):32  PEAK WIND DIR (DEG):300 PEAK WIND TIME (LST):0622  FASTEST 2MIN SPEED (MPH):23 FASTEST 2MIN DIR (DEG):320 FASTEST 2MIN TIME (LST):0622 AVERAGE WIND SPEED (MPH):14.3 24 HR AVG TEMP (F):32 DEPART FROM NORMAL:+10  HEATING DEGREE DAYS:33  COOLING DEGREE DAYS:0   LATEST DAY MAX TEMP (0700-1900 LST):33  LATEST NIGHT MIN TEMP(1900-0800 LST):32 HOURLY INCREMENTAL PRECIPITATION VALUES (IN):    0.00 0.00 0.00 0.00 0.00 0.00 0.00 0.00 0.00 0.00 0.00 0.00 0.00 0.00 0.00 0.00 0.00 0.00 0.00 0.00 0.00 0.00 0.00EQDR01     N7GJS072R02     N7GKS075
0200743920146112010010505566+43900-069933FM-15+0023KNHZ V0203305N00315015245MN9999999N5-00225-00725100025ADDAA101000095GA1085+015245999GD14991+0152459MA1099975099695MD1840034+9999REMMET11701/05/10 00:56:02 METAR KNHZ 050556Z 33006KT OVC050 M02/M07 A2952 RMK AO2 SLP002 T10221072 11017 21022 58003 RTX FIBI
0170743920146112010010506566+43900-069933FM-15+0023KNHZ V0203305N00365014635MN9999999N5-00225-00725100045ADDAA101000095GA1085+014635999GD14991+0146359MA1099975099695REMMET10101/05/10 01:56:02 METAR KNHZ 050656Z 33007KT OVC048 M02/M07 A2952 RMK AO2 SLP004 T10221072 $ RTX FIBI
0170743920146112010010507566+43900-069933FM-15+0023KNHZ V0203405N00515016765MN9999999N5-00225-00725100025ADDAA101000095GA1085+016765999GD14991+0167659MA1099975099695REMMET10101/05/10 02:56:02 METAR KNHZ 050756Z 34010KT OVC055 M02/M07 A2952 RMK AO2 SLP002 T10221072 $ RTX FIBI
0190743920146112010010508566+43900-069933FM-15+0023KNHZ V0203305N00365016765MN9999999N5-00285-00725100035ADDAA101000095GA1085+016765999GD14991+0167659MA1099975099695MD1140014+9999REMMET10701/05/10 03:56:02 METAR KNHZ 050856Z 33007KT OVC055 M03/M07 A2952 RMK AO2 SLP003 T10281072 51001 $ RTX FIBI
0170743920146112010010509566+43900-069933FM-15+0023KNHZ V0203205N00315015245MN9999999N5-00285-00785100025ADDAA101000095GA1085+015245999GD14991+0152459MA1099975099695REMMET10101/05/10 04:56:02 METAR KNHZ 050956Z 32006KT OVC050 M03/M08 A2952 RMK AO2 SLP002 T10281078 $ RTX FIBI
0282743920146112010010510567+43900-069933FM-15+0023KNHZ V0203205N00155011895MN0160935N5-00285-00725100065ADDAA101000095GA1045+009755999GA2075+011895999GA3085+014635999GD12991+0097559GD23991+0118959GD34991+0146359GF108991999999999999999999MA1100005099735REMMET12501/05/10 05:56:02 METAR KNHZ 051056Z 32003KT 10SM SCT032 BKN039 OVC048 M03/M07 A2953 RMK AO2 SLP006 T10281072 $ RTX FIBI (CT)
0278743920146112010010511567+43900-069933FM-15+0023KNHZ V0203305N00315013725MN0160935N5-00285-00725100075ADDAA101000095AJ100159599999999GA1085+013725999GD14991+0137259GF108991999999999999999999KA1999M-00221KA2999N-00331MA1100005099735MD1340044+9999REMMET12601/05/10 06:56:02 METAR KNHZ 051156Z 33006KT 10SM OVC045 M03/M07 A2953 RMK AO2 SLP007 4/006 T10281072 11022 21033 53004 $ (CT)
0235743920146112010010512567+43900-069933FM-15+0023KNHZ V0203305N00265060965MN0160935N5-00225-00725100095ADDAA101000095GA1045+016765999GA2075+060965999GD12991+0167659GD23991+0609659GF107991999999999999999999MA1100035099765REMMET10901/05/10 07:56:02 METAR KNHZ 051256Z 33005KT 10SM SCT055 BKN200 M02/M07 A2954 RMK AO2 SLP009 T10221072 $ (CT)
0245743920146112010010513307+43900-069933FM-16+0023KNHZ V0203205N00265008235MN0160935N5-00205-00705999999ADDGA1075+008235999GA2075+012195999GA3085+060965999GD13991+0082359GD23991+0121959GD34991+0609659GF108991999999999999999999MA1100035099765REMMET09901/05/10 08:30:02 SPECI KNHZ 051330Z 32005KT 10SM BKN027 BKN040 OVC200 M02/M07 A2954 RMK AO2 $ (CT)
0235743920146112010010513567+43900-069933FM-15+0023KNHZ V0203205N00315008845MN0160935N5-00175-00675100105ADDAA101000095GA1075+008845999GA2085+011285999GD13991+0088459GD24991+0112859GF108991999999999999999999MA1100035099765REMMET10901/05/10 08:56:02 METAR KNHZ 051356Z 32006KT 10SM BKN029 OVC037 M02/M07 A2954 RMK AO2 SLP010 T10171067 $ (CT)
0169743920146112010010514207+43900-069933FM-16+0023KNHZ V0203105N00315010065MN0160935N5-00205-00705999999ADDGA1075+010065999GD13991+0100659GF107991999999999999999999MA1100035099765REMMET08501/05/10 09:20:02 SPECI KNHZ 051420Z 31006KT 10SM BKN033 M02/M07 A2954 RMK AO2 $ (CT)
0217743920146112010010514567+43900-069933FM-15+0023KNHZ V0203005N00315010675MN0160935N5-00065-00565100125ADDAA101000095GA1085+010675999GD14991+0106759GF108991999999999999999999MA1100075099795MD1240044+9999REMMET10801/05/10 09:56:02 METAR KNHZ 051456Z 30006KT 10SM OVC035 M01/M06 A2955 RMK AO2 SLP012 T10061056 52004 $ (CT)
0196743920146112010010515567+43900-069933FM-15+0023KNHZ V0203305N00315010675MN0160935N5+00005-00565100065ADDAA101000095GA1085+010675999GD14991+0106759GF108991999999999999999999MA1100005099735REMMET10101/05/10 10:56:02 METAR KNHZ 051556Z 33006KT 10SM OVC035 00/M06 A2953 RMK AO2 SLP006 T00001056 $ (CT)
0196743920146112010010516567+43900-069933FM-15+0023KNHZ V0203205N00365011285MN0160935N5+00005-00565100005ADDAA101000095GA1085+011285999GD14991+0112859GF108991999999999999999999MA1099935099665REMMET10101/05/10 11:56:02 METAR KNHZ 051656Z 32007KT 10SM OVC037 00/M06 A2951 RMK AO2 SLP000 T00001056 $ (CT)
0322743920146112010010517567+43900-069933FM-15+0023KNHZ V0203105N00265012505MN0160935N5+00065-00445099945ADDAA101000095AJ100159599999999GA1045+010365999GA2085+012505999GD12991+0103659GD24991+0125059GF108991999999999999999999KA1999M+00061KA2999N-00281MA1099905099635MD1840174+9999REMMET13901/05/10 12:56:02 METAR KNHZ 051756Z 31005KT 10SM SCT034 OVC041 01/M04 A2950 RMK AO2 SLP994 4/006 933016 T00061044 10006 21028 58017 $ (CT)
0235743920146112010010518567+43900-069933FM-15+0023KNHZ V0203205N00415011585MN0160935N5+00005-00395099955ADDAA101000095GA1045+009145999GA2085+011585999GD12991+0091459GD24991+0115859GF108991999999999999999999MA1099905099635REMMET10901/05/10 13:56:02 METAR KNHZ 051856Z 32008KT 10SM SCT030 OVC038 00/M04 A2950 RMK AO2 SLP995 T00001039 $ (RDG)
0197743920146112010010519567+43900-069933FM-15+0023KNHZ V0202805N00315011585MN0160935N5+00005-00395099965ADDAA101000095GA1085+011585999GD14991+0115859GF108991999999999999999999MA1099905099635REMMET10201/05/10 14:56:02 METAR KNHZ 051956Z 28006KT 10SM OVC038 00/M04 A2950 RMK AO2 SLP996 T00001039 $ (RDG)
0217743920146112010010520567+43900-069933FM-15+0023KNHZ V0203005N00265012805MN0160935N5+00005-00395099955ADDAA101000095GA1085+012805999GD14991+0128059GF108991999999999999999999MA1099905099635MD1040014+9999REMMET10801/05/10 15:56:02 METAR KNHZ 052056Z 30005KT 10SM OVC042 00/M04 A2950 RMK AO2 SLP995 T00001039 50001 $ (RDG)
0248743920146112010010521567+43900-069933FM-15+0023KNHZ V0203105N00265014335MN0160935N5-00065-00505099945ADDAA101000095GA1025+011895999GA2085+014335999GD11991+0118959GD24991+0143359GF108991999999999999999999MA1099865099595REMMET12201/05/10 16:56:02 METAR KNHZ 052156Z 31005KT 10SM FEW039 OVC047 M01/M05 A2949 RMK AO2 CIG 040 R01 SLP994 T10061050 $ (RDG)
0198743920146112010010522567+43900-069933FM-15+0023KNHZ V0203205N00365011285MN0160935N5-00065-00565099955ADDAA101000095GA1085+011285999GD14991+0112859GF108991999999999999999999MA1099905099635REMMET10301/05/10 17:56:02 METAR KNHZ 052256Z 32007KT 10SM OVC037 M01/M06 A2950 RMK AO2 SLP995 T10061056 $ (RDG)
0279743920146112010010523567+43900-069933FM-15+0023KNHZ V0203305N00465012505MN0160935N5-00175-00675100005ADDAA101000095AJ100159599999999GA1085+012505999GD14991+0125059GF108991999999999999999999KA1999M+00061KA2999N-00171MA1099935099665MD1340054+9999REMMET12701/05/10 18:56:02 METAR KNHZ 052356Z 33009KT 10SM OVC041 M02/M07 A2951 RMK AO2 SLP000 4/006 T10171067 10006 21017 53005 $ (RDG)
0192743920146112010010600567+43900-069933FM-15+0023KNHZ V0203305N00415010675MN0160935N5-00175-00675100005ADDAA101000095GA1085+010675999GD14991+0106759GF108991999999999999999999MA1099935099665REMMET09701/05/10 19:56:01 METAR KNHZ 060056Z 33008KT 10SM OVC035 M02/M07 A2951 RMK AO2 SLP000 T10171067 $
0192743920146112010010601567+43900-069933FM-15+0023KNHZ V0203305N00515010675MN0160935N5-00175-00675100035ADDAA101000095GA1085+010675999GD14991+0106759GF108991999999999999999999MA1099975099695REMMET09701/05/10 20:56:01 METAR KNHZ 060156Z 33010KT 10SM OVC035 M02/M07 A2952 RMK AO2 SLP003 T10171067 $
0212743920146112010010602567+43900-069933FM-15+0023KNHZ V0203205N00415010065MN0160935N5-00225-00725100015ADDAA101000095GA1085+010065999GD14991+0100659GF108991999999999999999999MA1099975099695MD1040024+9999REMMET10301/05/10 21:56:01 METAR KNHZ 060256Z 32008KT 10SM OVC033 M02/M07 A2952 RMK AO2 SLP001 T10221072 50002 $
0161743920146112010010603567+43900-069933FM-15+0023KNHZ V0203105N00465010675MN9999999N5-00225-00725099995ADDAA101000095GA1085+010675999GD14991+0106759MA1099935099665REMMET09201/05/10 22:56:01 METAR KNHZ 060356Z 31009KT OVC035 M02/M07 A2951 RMK AO2 SLP999 T10221072 $
0182743920146112010010604567+43900-069933FM-15+0023KNHZ V0203205N00515010675MN9999999N5-00225-00725099975ADDAA101000095GA1085+010675999GD14991+0106759MA1099905099635OC100885REMMET10501/05/10 23:56:01 METAR KNHZ 060456Z 32010G17KT OVC035 M02/M07 A2950 RMK AO2 SLP997 T10221072 400061033 $
0910743920146112010010604596+43900-069933SOD  +0023KNHZ V020999999999999999999999999999+99999+99999999999ADDAA124000095KA1240M+00065KA2240N-00325MG1099684099934OE11240098332018145OE22240071532018155OE33240035399999995REMSOD75424 HR PRECIPITATION (IN):0.00  24 HR MAX TEMP (F):33 24 HR MAX TEMP TIME (LST):1335 24 HR MIN TEMP (F):26 24 HR MIN TEMP TIME (LST):0436 AVERAGE STATION PRESSURE:29.435 MINIMUM SEA LEVEL PRESSURE:29.51 TIME OF OCCURRENCE:1749 PEAK WIND SPEED (MPH):22  PEAK WIND DIR (DEG):320 PEAK WIND TIME (LST):1814  FASTEST 2MIN SPEED (MPH):16 FASTEST 2MIN DIR (DEG):320 FASTEST 2MIN TIME (LST):1815 AVERAGE WIND SPEED (MPH):7.9  24 HR AVG TEMP (F):30 DEPART FROM NORMAL: +9  HEATING DEGREE DAYS:35  COOLING DEGREE DAYS:0   LATEST DAY MAX TEMP (0700-1900 LST):33  LATEST NIGHT MIN TEMP(1900-0800 LST):26 HOURLY INCREMENTAL PRECIPITATION VALUES (IN):.00 0.00 0.00 0.00 0.00 0.00 0.00 0.00 0.00 0.00 0.00 0.00 0.00 0.00 0.00 0.00 0.00 0.00 0.00 0.00 0.00 0.00 0.00 0.00EQDR01     N7GJS072R02     N7GKS075
0230743920146112010010605567+43900-069933FM-15+0023KNHZ V0203205N00415011285MN9999999N5-00225-00785099925ADDAA101000095GA1085+011285999GD14991+0112859KA1999M-00171KA2999N-00221MA1099865099595MD1840094+9999OC100775REMMET11301/06/10 00:56:02 METAR KNHZ 060556Z 32008G15KT OVC037 M02/M08 A2949 RMK AO2 SLP992 T10221078 11017 21022 58009 $
0199743920146112010010606567+43900-069933FM-15+0023KNHZ V0203005N00315013115MN9999999N5-00225-00785099945ADDAA101000095GA1075+013115999GA2085+019815999GD13991+0131159GD24991+0198159MA1099865099595REMMET09901/06/10 01:56:02 METAR KNHZ 060656Z 30006KT BKN043 OVC065 M02/M08 A2949 RMK AO2 SLP994 T10221078 $
0161743920146112010010607567+43900-069933FM-15+0023KNHZ V0203205N00365019815MN9999999N5-00285-00785099925ADDAA101000095GA1085+019815999GD14991+0198159MA1099865099595REMMET09201/06/10 02:56:02 METAR KNHZ 060756Z 32007KT OVC065 M03/M08 A2949 RMK AO2 SLP992 T10281078 $
0181743920146112010010608567+43900-069933FM-15+0023KNHZ V0203205N00415021345MN9999999N5-00285-00785099915ADDAA101000095GA1085+021345999GD14991+0213459MA1099865099595MD1840024+9999REMMET09801/06/10 03:56:02 METAR KNHZ 060856Z 32008KT OVC070 M03/M08 A2949 RMK AO2 SLP991 T10281078 58002 $
0161743920146112010010609567+43900-069933FM-15+0023KNHZ V0203005N00265021345MN9999999N5-00285-00785099885ADDAA101000095GA1085+021345999GD14991+0213459MA1099835099565REMMET09201/06/10 04:56:02 METAR KNHZ 060956Z 30005KT OVC070 M03/M08 A2948 RMK AO2 SLP988 T10281078 $
0197743920146112010010610567+43900-069933FM-15+0023KNHZ V0203005N00415022865MN0160935N5-00285-00785099885ADDAA101000095GA1085+022865999GD14991+0228659GF108991999999999999999999MA1099835099565REMMET10201/06/10 05:56:02 METAR KNHZ 061056Z 30008KT 10SM OVC075 M03/M08 A2948 RMK AO2 SLP988 T10281078 $ (CT)
0278743920146112010010611567+43900-069933FM-15+0023KNHZ V0203205N00465024385MN0160935N5-00335-00785099885ADDAA101000095AJ100159599999999GA1075+024385999GD13991+0243859GF107991999999999999999999KA1999M-00221KA2999N-00331MA1099835099565MD1640034+9999REMMET12601/06/10 06:56:02 METAR KNHZ 061156Z 32009KT 10SM BKN080 M03/M08 A2948 RMK AO2 SLP988 4/006 T10331078 11022 21033 56003 $ (CT)
0197743920146112010010612567+43900-069933FM-15+0023KNHZ V0203305N00215019815MN0160935N5-00395-00895099925ADDAA101000095GA1075+019815999GD13991+0198159GF107991999999999999999999MA1099865099595REMMET10201/06/10 07:56:02 METAR KNHZ 061256Z 33004KT 10SM BKN065 M04/M09 A2949 RMK AO2 SLP992 T10391089 $ (CT)
0197743920146112010010613567+43900-069933FM-15+0023KNHZ V0203105N00365019815MN0160935N5-00225-00785099945ADDAA101000095GA1075+019815999GD13991+0198159GF107991999999999999999999MA1099865099595REMMET10201/06/10 08:56:02 METAR KNHZ 061356Z 31007KT 10SM BKN065 M02/M08 A2949 RMK AO2 SLP994 T10221078 $ (CT)
0255743920146112010010614567+43900-069933FM-15+0023KNHZ V0202905N00365019815MN0160935N5-00225-00785099965ADDAA101000095GA1075+019815999GA2075+060965999GD13991+0198159GD23991+0609659GF107991999999999999999999MA1099905099635MD1140084+9999REMMET11501/06/10 09:56:02 METAR KNHZ 061456Z 29007KT 10SM BKN065 BKN200 M02/M08 A2950 RMK AO2 SLP996 T10221078 51008 $ (CT)
0235743920146112010010615567+43900-069933FM-15+0023KNHZ V0203005N00215019815MN0160935N5-00065-00725099905ADDAA101000095GA1075+019815999GA2075+060965999GD13991+0198159GD23991+0609659GF107991999999999999999999MA1099835099565REMMET10901/06/10 10:56:02 METAR KNHZ 061556Z 30004KT 10SM BKN065 BKN200 M01/M07 A2948 RMK AO2 SLP990 T10061072 $ (CT)
0272743920146112010010616567+43900-069933FM-15+0023KNHZ V0203105N00625027435MN0160935N5+00005-00785099825ADDAA101000095GA1045+021345999GA2075+027435999GA3075+060965999GD12991+0213459GD23991+0274359GD33991+0609659GF107991999999999999999999MA1099765099495REMMET11501/06/10 11:56:02 METAR KNHZ 061656Z 31012KT 10SM SCT070 BKN090 BKN200 00/M08 A2946 RMK AO2 SLP982 T00001078 $ (CT)
0360743920146112010010617567+43900-069933FM-15+0023KNHZ V0203005N004152200059N0160935N5+00005-00785099785ADDAA101000095AJ100159599999999GA1025+010675999GA2045+027435999GA3045+060965999GD11991+0106759GD22991+0274359GD32991+0609659GF104991999999999999999999KA1999M+00001KA2999N-00391MA1099735099465MD1640184+9999REMMET14601/06/10 12:56:02 METAR KNHZ 061756Z 30008KT 10SM FEW035 SCT090 SCT200 00/M08 A2945 RMK AO2 SLP978 4/006 933016 T00001078 10000 21039 56018 $ (CT)
0246743920146112010010618567+43900-069933FM-15+0023KNHZ V0203205N007252200059N0160935N5+00005-00785099745ADDAA101000095GA1025+030485999GA2045+060965999GD11991+0304859GD22991+0609659GF104991999999999999999999MA1099705099425OC101035REMMET11201/06/10 13:56:02 METAR KNHZ 061856Z 32014G20KT 10SM FEW100 SCT200 00/M08 A2944 RMK AO2 SLP974 T00001078 $ (RDG)
0197743920146112010010619567+43900-069933FM-15+0023KNHZ V0203005N00415036585MN0160935N5+00005-00785099775ADDAA101000095GA1075+036585999GD13991+0365859GF107991999999999999999999MA1099705099425REMMET10201/06/10 14:56:02 METAR KNHZ 061956Z 30008KT 10SM BKN120 00/M08 A2944 RMK AO2 SLP977 T00001078 $ (RDG)
0256743920146112010010620567+43900-069933FM-15+0023KNHZ V0203105N006252200059N0160935N5-00065-00835099805ADDAA101000095GA1045+024385999GA2045+060965999GD12991+0243859GD22991+0609659GF104991999999999999999999MA1099735099465MD1340024+9999REMMET11601/06/10 15:56:02 METAR KNHZ 062056Z 31012KT 10SM SCT080 SCT200 M01/M08 A2945 RMK AO2 SLP980 T10061083 53002 $ (RDG)
0198743920146112010010621567+43900-069933FM-15+0023KNHZ V0202905N00315024385MN0160935N5-00175-00785099875ADDAA101000095GA1075+024385999GD13991+0243859GF107991999999999999999999MA1099805099525REMMET10301/06/10 16:56:02 METAR KNHZ 062156Z 29006KT 10SM BKN080 M02/M08 A2947 RMK AO2 SLP987 T10171078 $ (RDG)
0198743920146112010010622567+43900-069933FM-15+0023KNHZ V0202905N00365022865MN0160935N5-00175-00725099905ADDAA101000095GA1085+022865999GD14991+0228659GF108991999999999999999999MA1099835099565REMMET10301/06/10 17:56:02 METAR KNHZ 062256Z 29007KT 10SM OVC075 M02/M07 A2948 RMK AO2 SLP990 T10171072 $ (RDG)
0226743920146112010010623546+43900-069933FM-16+0023KNHZ V0203205N00465005495MN0160935N5-00205-00605999999ADDAU110030015AW1715GA1075+005495999GA2085+021345999GD13991+0054959GD24991+0213459MA1099905099635REMMET12001/06/10 18:54:02 SPECI KNHZ 062354Z 32009KT 10SM -SN BKN018 OVC070 M02/M06 A2950 RMK AO2 SNB46 4/006 P0000 $ FIBI (RDG)
0392743920146112010010623567+43900-069933FM-15+0023KNHZ V0203205N00415005495MN0160935N5-00225-00615099945ADDAA101000025AA206000021AJ100159599999999AU110030015AW1715GA1075+005495999GA2085+021345999GD13991+0054959GD24991+0213459GF108991999999999999999999KA1999M+00061KA2999N-00221MA1099865099595MD1140144+9999MW1711REMMET15601/06/10 18:56:02 METAR KNHZ 062356Z 32008KT 10SM -SN BKN018 OVC070 M02/M06 A2949 RMK AO2 SNB46 SLP994 4/006 P0000 60000 T10221061 10006 21022 51014 $ (RDG)EQDQ01  00008PRCP06
0225743920146112010010700117+43900-069933FM-16+0023KNHZ V0203205N00315007925MN0160935N5-00205-00605999999ADDAA101000021GA1075+007925999GA2085+018295999GD13991+0079259GD24991+0182959GF108991999999999999999999MA1099905099635REMMET09901/06/10 19:11:01 SPECI KNHZ 070011Z 32006KT 10SM BKN026 OVC060 M02/M06 A2950 RMK AO2 SNE06 P0000 $
0225743920146112010010700207+43900-069933FM-16+0023KNHZ V0203305N00315011585MN0160935N5-00205-00605999999ADDAA101000021GA1075+011585999GA2085+018295999GD13991+0115859GD24991+0182959GF108991999999999999999999MA1099905099635REMMET09901/06/10 19:20:01 SPECI KNHZ 070020Z 33006KT 10SM BKN038 OVC060 M02/M06 A2950 RMK AO2 SNE06 P0000 $
0215743920146112010010700567+43900-069933FM-15+0023KNHZ V0203305N00725030485MN0160935N5-00225-00835099985ADDAA101000025GA1085+030485999GD14991+0304859GF108991999999999999999999MA1099905099635OC101135REMMET11201/06/10 19:56:01 METAR KNHZ 070056Z 33014G22KT 10SM OVC100 M02/M08 A2950 RMK AO2 SNE06 SLP998 P0000 T10221083 $
0203743920146112010010701567+43900-069933FM-15+0023KNHZ V0203105N00365027435MN0160935N5-00285-00835099995ADDAA101000095GA1075+027435999GD13991+0274359GF107991999999999999999999MA1099935099665OC100775REMMET10001/06/10 20:56:01 METAR KNHZ 070156Z 31007G15KT 10SM BKN090 M03/M08 A2951 RMK AO2 SLP999 T10281083 $
0229743920146112010010702567+43900-069933FM-15+0023KNHZ V0202905N004152200059N0160935N5-00395-00945100015ADDAA101000095AA203000021GA1045+030485999GD12991+0304859GF104991999999999999999999MA1099935099665MD1140064+9999REMMET10901/06/10 21:56:01 METAR KNHZ 070256Z 29008KT 10SM SCT100 M04/M09 A2951 RMK AO2 SLP001 60000 T10391094 51006 $
0161743920146112010010703567+43900-069933FM-15+0023KNHZ V0203005N004652200059N9999999N5-00395-01005100045ADDAA101000095GA1025+025915999GD11991+0259159MA1099975099695REMMET09201/06/10 22:56:01 METAR KNHZ 070356Z 30009KT FEW085 M04/M10 A2952 RMK AO2 SLP004 T10391100 $
0171743920146112010010704567+43900-069933FM-15+0023KNHZ V0202605N00265021345MN9999999N5-00505-01065100045ADDAA101000095GA1075+021345999GD13991+0213459MA1099975099695REMMET10201/06/10 23:56:01 METAR KNHZ 070456Z 26005KT BKN070 M05/M11 A2952 RMK AO2 SLP004 T10501106 400061050 $
0910743920146112010010704596+43900-069933SOD  +0023KNHZ V020999999999999999999999999999+99999+99999999999ADDAA124000025KA1240M+00065KA2240N-00495MG1099544099734OE11240116231019385OE22240098332011345OE33240041199999995REMSOD75424 HR PRECIPITATION (IN):T     24 HR MAX TEMP (F):33 24 HR MAX TEMP TIME (LST):1426 24 HR MIN TEMP (F):23 24 HR MIN TEMP TIME (LST):2359 AVERAGE STATION PRESSURE:29.395 MINIMUM SEA LEVEL PRESSURE:29.45 TIME OF OCCURRENCE:1409 PEAK WIND SPEED (MPH):26  PEAK WIND DIR (DEG):310 PEAK WIND TIME (LST):1938  FASTEST 2MIN SPEED (MPH):22 FASTEST 2MIN DIR (DEG):320 FASTEST 2MIN TIME (LST):1134 AVERAGE WIND SPEED (MPH):9.2  24 HR AVG TEMP (F):28 DEPART FROM NORMAL: +8  HEATING DEGREE DAYS:37  COOLING DEGREE DAYS:0   LATEST DAY MAX TEMP (0700-1900 LST):33  LATEST NIGHT MIN TEMP(1900-0800 LST):25 HOURLY INCREMENTAL PRECIPITATION VALUES (IN):.00 0.00 0.00 0.00 0.00 0.00 0.00 0.00 0.00 0.00 0.00 0.00 0.00 0.00 0.00 0.00 0.00 0.00 T    T    0.00 0.00 0.00 0.00EQDR01     N7GJS072R02     N7GKS075
0236743920146112010010705567+43900-069933FM-15+0023KNHZ V0203005N003152200059N9999999N5-00445-01065100055ADDAA101000095AA206000021GA1045+030485999GD12991+0304859KA1999M-00171KA2999N-00561MA1100005099735MD1140054+9999REMMET11601/07/10 00:56:02 METAR KNHZ 070556Z 30006KT SCT100 M04/M11 A2953 RMK AO2 SLP005 60000 T10441106 11017 21056 51005 $
0161743920146112010010706567+43900-069933FM-15+0023KNHZ V0203205N003152200059N9999999N5-00615-01065100115ADDAA101000095GA1025+036585999GD11991+0365859MA1100035099765REMMET09201/07/10 01:56:02 METAR KNHZ 070656Z 32006KT FEW120 M06/M11 A2954 RMK AO2 SLP011 T10611106 $
0158743920146112010010707567+43900-069933FM-15+0023KNHZ V0202905N002652200059N9999999N5-00565-01065100125ADDAA101000095GA1005+999999999GD10991+9999999MA1100075099795REMMET08901/07/10 02:56:02 METAR KNHZ 070756Z 29005KT CLR M06/M11 A2955 RMK AO2 SLP012 T10561106 $
0178743920146112010010708567+43900-069933FM-15+0023KNHZ V0209999C000052200059N9999999N5-00565-01065100155ADDAA101000095GA1005+999999999GD10991+9999999MA1100105099835MD1140094+9999REMMET09501/07/10 03:56:02 METAR KNHZ 070856Z 00000KT CLR M06/M11 A2956 RMK AO2 SLP015 T10561106 51009 $
0158743920146112010010709567+43900-069933FM-15+0023KNHZ V0202605N002652200059N9999999N5-00725-01115100165ADDAA101000095GA1005+999999999GD10991+9999999MA1100105099835REMMET08901/07/10 04:56:02 METAR KNHZ 070956Z 26005KT CLR M07/M11 A2956 RMK AO2 SLP016 T10721111 $
0197743920146112010010710567+43900-069933FM-15+0023KNHZ V0202505N003152200059N0160935N5-00615-01065100225ADDAA101000095GA1045+045725999GD12991+0457259GF104991999999999999999999MA1100175099905REMMET10201/07/10 05:56:02 METAR KNHZ 071056Z 25006KT 10SM SCT150 M06/M11 A2958 RMK AO2 SLP022 T10611106 $ (CP)
0366743920146112010010711567+43900-069933FM-15+0023KNHZ V0202905N00465060965MN0160935N5-00445-01005100255ADDAA101000095AJ100159599999999GA1025+027435999GA2045+045725999GA3075+060965999GD11991+0274359GD22991+0457259GD33991+0609659GF107991999999999999999999KA1999M-00441KA2999N-00781MA1100205099935MD1340104+9999REMMET15201/07/10 06:56:02 METAR KNHZ 071156Z 29009KT 10SM FEW090 SCT150 BKN200 M04/M10 A2959 RMK AO2 SLP025 ACSL DSNT N 4/006 T10441100 11044 21078 53010 $ (CP)
0288743920146112010010712567+43900-069933FM-15+0023KNHZ V0202805N00365039625MN0160935N5-00505-01005100345ADDAA101000095GA1025+027435999GA2075+039625999GA3075+060965999GD11991+0274359GD23991+0396259GD33991+0609659GF107991999999999999999999MA1100275100005REMMET13101/07/10 07:56:02 METAR KNHZ 071256Z 28007KT 10SM FEW090 BKN130 BKN200 M05/M10 A2961 RMK AO2 SLP034 ACSL DSNT NW-N T10501100 $ (CP)
0314743920146112010010713567+43900-069933FM-15+0023KNHZ V0203105N00515039625MN0160935N5-00335-00895100385ADDAA101000095GA1025+015245999GA2045+030485999GA3075+039625999GD11991+0152459GD22991+0304859GD33991+0396259GD43991+0600019GF107991999999999999999999MA1100305100035OC100885REMMET13401/07/10 08:56:02 METAR KNHZ 071356Z 31010G17KT 10SM FEW050 SCT100 BKN130 M03/M09 A2962 RMK AO2 SLP038 ACSL DSNT NW-N T10331089 $ (CP)
0334743920146112010010714567+43900-069933FM-15+0023KNHZ V0202905N00675039625MN0160935N5-00225-00895100395ADDAA101000095GA1025+015245999GA2045+030485999GA3075+039625999GD11991+0152459GD22991+0304859GD33991+0396259GD43991+0600019GF107991999999999999999999MA1100345100065MD1140144+9999OC101135REMMET14001/07/10 09:56:02 METAR KNHZ 071456Z 29013G22KT 10SM FEW050 SCT100 BKN130 M02/M09 A2963 RMK AO2 SLP039 ACSL DSNT W-NW T10221089 51014 $ (CP)
0315743920146112010010715567+43900-069933FM-15+0023KNHZ V0203105N007252200059N0160935N5-00115-00835100395ADDAA101000095GA1025+015245999GA2045+030485999GA3045+060965999GD11991+0152459GD22991+0304859GD32991+0609659GF104991999999999999999999MA1100345100065OC101035REMMET15001/07/10 10:56:02 METAR KNHZ 071556Z 31014G20KT 10SM FEW050 SCT100 SCT200 M01/M08 A2963 RMK AO2 PK WND 28027/1500 SLP039 ACSL DSNT NW T10111083 $ (CP)
0298743920146112010010716567+43900-069933FM-15+0023KNHZ V0203105N006752200059N0160935N5-00065-00835100355ADDAA101000095GA1025+015245999GA2045+030485999GA3045+060965999GD11991+0152459GD22991+0304859GD32991+0609659GF104991999999999999999999MA1100305100035OC101085REMMET13301/07/10 11:56:02 METAR KNHZ 071656Z 31013G21KT 10SM FEW050 SCT100 SCT200 M01/M08 A2962 RMK AO2 SLP035 ACSL DSNT W-N T10061083 $ (CP)
0404743920146112010010717567+43900-069933FM-15+0023KNHZ V0203005N008852200059N0160935N5+00065-00785100325ADDAA101000095AJ100159599999999GA1025+015245999GA2045+030485999GA3045+045725999GD11991+0152459GD22991+0304859GD32991+0457259GF104991999999999999999999KA1999M+00061KA2999N-00561MA1100275100005MD1840074+9999OC101245REMMET18201/07/10 12:56:02 METAR KNHZ 071756Z 30017G24KT 10SM FEW050 SCT100 SCT150 01/M08 A2961 RMK AO2 PK WND 33028/1736 SLP032 ACSL DSNT SW-N 4/006 933010 T00061078 10006 21056 58007 $ (CP)
0316743920146112010010718567+43900-069933FM-15+0023KNHZ V0203205N006752200059N0160935N5+00005-00835100345ADDAA101000095GA1025+015245999GA2045+030485999GA3045+045725999GD11991+0152459GD22991+0304859GD32991+0457259GF104991999999999999999999MA1100275100005OC101185REMMET15101/07/10 13:56:02 METAR KNHZ 071856Z 32013G23KT 10SM FEW050 SCT100 SCT150 00/M08 A2961 RMK AO2 PK WND 31026/1841 SLP034 ACSL DSNT SW-N T00001083 $ (CP)
0285743920146112010010719567+43900-069933FM-15+0023KNHZ V0202905N006252200059N0160935N5+00005-00785100395ADDAA101000095GA1025+015245999GA2045+039625999GA3045+076205999GD11991+0152459GD22991+0396259GD32991+0762059GF104991999999999999999999MA1100345100065REMMET12801/07/10 14:56:02 METAR KNHZ 071956Z 29012KT 10SM FEW050 SCT130 SCT250 00/M08 A2963 RMK AO2 SLP039 ACSL DSNT NW T00001078 $ (CP)
0236743920146112010010720567+43900-069933FM-15+0023KNHZ V0203005N004652200059N0160935N5-00115-00785100435ADDAA101000095GA1025+030485999GA2045+076205999GD11991+0304859GD22991+0762059GF104991999999999999999999MA1100375100105REMMET11001/07/10 15:56:02 METAR KNHZ 072056Z 30009KT 10SM FEW100 SCT250 M01/M08 A2964 RMK AO2 SLP043 T10111078 $ (RDG)
0198743920146112010010721567+43900-069933FM-15+0023KNHZ V0203205N003652200059N0160935N5-00225-00835100505ADDAA101000095GA1025+030485999GD11991+0304859GF102991999999999999999999MA1100445100175REMMET10301/07/10 16:56:02 METAR KNHZ 072156Z 32007KT 10SM FEW100 M02/M08 A2966 RMK AO2 SLP050 T10221083 $ (RDG)
0164743920146112010010722567+43900-069933FM-15+0023KNHZ V0203405N004152200059N0160935N5-00335-00945100585ADDAA101000095GF100991999999999999999999MA1100515100235REMMET10001/07/10 17:56:02 METAR KNHZ 072256Z 34008KT 10SM CLR M03/M09 A2968 RMK AO2 SLP058 T10331094 $ (RDG)
0279743920146112010010723567+43900-069933FM-15+0023KNHZ V0203305N003652200059N0160935N5-00445-01005100655ADDAA101000095AJ100159599999999GA1025+060965999GD11991+0609659GF102991999999999999999999KA1999M+00061KA2999N-00501MA1100585100305MD1140214+9999REMMET12701/07/10 18:56:02 METAR KNHZ 072356Z 33007KT 10SM FEW200 M04/M10 A2970 RMK AO2 SLP065 4/006 T10441100 10006 21050 51021 $ (RDG)
0181743920146112010010800567+43900-069933FM-15+0023KNHZ V0203205N004652200059N0160935N5-00445-01005100705ADDGA1045+060965999GD12991+0609659GF104991999999999999999999MA1100645100375REMMET09701/07/10 19:56:01 METAR KNHZ 080056Z 32009KT 10SM SCT200 M04/M10 A2972 RMK AO2 SLP070 T10441100 $
0181743920146112010010801567+43900-069933FM-15+0023KNHZ V0203205N005152200059N0160935N5-00415-01115100725ADDGA1045+060965999GD12991+0609659GF104991999999999999999999MA1100645100375REMMET09701/07/10 20:56:01 METAR KNHZ 080156Z 32010KT 10SM SCT200 M04/M11 A2972 RMK AO2 SLP072 T10411111 $
0181743920146112010010802567+43900-069933FM-15+0023KNHZ V0203205N004152200059N0160935N5-00465-01155100725ADDGA1045+060965999GD12991+0609659GF104991999999999999999999MA1100645100375REMMET09701/07/10 21:56:01 METAR KNHZ 080256Z 32008KT 10SM SCT200 M05/M11 A2972 RMK AO2 SLP072 T10461115 $
0156743920146112010010803566+43900-069933FM-15+0023KNHZ V02099999999999999999N9999999N5+99999+99999999999ADDMA1100645100375REMMET09401/07/10 22:56:01 METAR KNHZ 080356Z      KT A2972 RMK AO2 SLPNO PWINO FZRANO TSNO CHINO R01 $EQDR01      7SKY009R02      7GAS009
0166743920146112010010804566+43900-069933FM-15+0023KNHZ V02099999999999999999N9999999N5+99999+99999999999ADDMA1100685100405REMMET10401/07/10 23:56:01 METAR KNHZ 080456Z      KT A2973 RMK AO2 SLPNO 400061078 PWINO FZRANO TSNO CHINO R01 $EQDR01      7SKY009R02      7GAS009
0971743920146112010010804596+43900-069933SOD  +0023KNHZ V020999999999999999999999999999+99999+99999999999ADDAA124000095KA1240M+00065KA2240N-00775MG1099984100034OE11240053632020016OE22240053632020006OE33240045299999995REMSOD75124 HR PRECIPITATION (IN):0.00  24 HR MAX TEMP (F):33 24 HR MAX TEMP TIME (LST):1455 24 HR MIN TEMP (F):18 24 HR MIN TEMP TIME (LST):0547 AVERAGE STATION PRESSURE:29.525 MINIMUM SEA LEVEL PRESSURE:29.54 TIME OF OCCURRENCE:0055 PEAK WIND SPEED (MPH):12  PEAK WIND DIR (DEG):320 PEAK WIND TIME (LST):2001  FASTEST 2MIN SPEED (MPH):12 FASTEST 2MIN DIR (DEG):320 FASTEST 2MIN TIME (LST):2000 AVERAGE WIND SPEED (MPH):10.1 24 HR AVG TEMP (F):26 DEPART FROM NORMAL: +3  HEATING DEGREE DAYS:39  COOLING DEGREE DAYS:0   LATEST DAY MAX TEMP (0700-1900 LST):33  LATEST NIGHT MIN TEMP(1900-0800 LST):18 HOURLY INCREMENTAL PRECIPITATION VALUES (IN):.00 0.00 0.00 0.00 0.00 0.00 0.00 0.00 0.00 0.00 0.00 0.00 0.00 0.00 0.00 0.00 0.00 0.00 0.00 M    M    M    M    MEQDR01      7SKY009R02      7GAS009R03     N7GJS072R04     N7GKS075R05    127OES063R06    127SOE079
0182743920146112010010805566+43900-069933FM-15+0023KNHZ V02099999999999999999N9999999N5+99999+99999999999ADDMA1100645100375MD1040004+9999REMMET10601/08/10 00:56:02 METAR KNHZ 080556Z      KT A2972 RMK AO2 SLPNO 6//// 50000 PWINO FZRANO TSNO CHINO R01 $EQDR01      7SKY009R02      7GAS009
0156743920146112010010806566+43900-069933FM-15+0023KNHZ V02099999999999999999N9999999N5+99999+99999999999ADDMA1100715100445REMMET09401/08/10 01:56:02 METAR KNHZ 080656Z      KT A2974 RMK AO2 SLPNO PWINO FZRANO TSNO CHINO R01 $EQDR01      7SKY009R02      7GAS009
0156743920146112010010807566+43900-069933FM-15+0023KNHZ V02099999999999999999N9999999N5+99999+99999999999ADDMA1100685100405REMMET09401/08/10 02:56:02 METAR KNHZ 080756Z      KT A2973 RMK AO2 SLPNO PWINO FZRANO TSNO CHINO R01 $EQDR01      7SKY009R02      7GAS009
0182743920146112010010808566+43900-069933FM-15+0023KNHZ V02099999999999999999N9999999N5+99999+99999999999ADDMA1100645100375MD1040004+9999REMMET10601/08/10 03:56:02 METAR KNHZ 080856Z      KT A2972 RMK AO2 SLPNO 6//// 50000 PWINO FZRANO TSNO CHINO R01 $EQDR01      7SKY009R02      7GAS009
0156743920146112010010809566+43900-069933FM-15+0023KNHZ V02099999999999999999N9999999N5+99999+99999999999ADDMA1100645100375REMMET09401/08/10 04:56:02 METAR KNHZ 080956Z      KT A2972 RMK AO2 SLPNO PWINO FZRANO TSNO CHINO R01 $EQDR01      7SKY009R02      7GAS009
0135743920146112010010810097+43900-069933FM-16+0023KNHZ V0209999C000052200059N0160935N5-01205-01605999999ADDGF100991999999999999999999MA1100615100345REMMET08201/08/10 05:09:02 SPECI KNHZ 081009Z 00000KT 10SM CLR M12/M16 A2971 RMK AO2 $ (CT)
0186743920146112010010810567+43900-069933FM-15+0023KNHZ V0209999C000052200059N0160935N5-01125-01595100705ADDGA1045+060965999GD12991+0609659GF104991999999999999999999MA1100645100375REMMET10201/08/10 05:56:02 METAR KNHZ 081056Z 00000KT 10SM SCT200 M11/M16 A2972 RMK AO2 SLP070 T11121159 $ (CT)
0305743920146112010010811567+43900-069933FM-15+0023KNHZ V0209999C00005060965MN0160935N5-00955-01195100735ADDAJ100159599999999GA1025+009145999GA2045+030485999GA3075+060965999GD11991+0091459GD22991+0304859GD33991+0609659GF107991999999999999999999MA1100685100405MD1340014+9999REMMET12801/08/10 06:56:02 METAR KNHZ 081156Z 00000KT 10SM FEW030 SCT100 BKN200 M09/M12 A2973 RMK AO2 SLP073 4/006 T10951119 53001 $ (CT)
0224743920146112010010812567+43900-069933FM-15+0023KNHZ V0209999C00005060965MN0160935N5-00955-01395100755ADDGA1025+009145999GA2075+060965999GD11991+0091459GD23991+0609659GF107991999999999999999999MA1100685100405REMMET10901/08/10 07:56:02 METAR KNHZ 081256Z 00000KT 10SM FEW030 BKN200 M09/M14 A2973 RMK AO2 SLP075 T10951139 $ (CT)
0235743920146112010010813567+43900-069933FM-15+0023KNHZ V0200105N00155054865MN0160935N5-01005-01225100745ADDAA101000095GA1025+015245999GA2075+054865999GD11991+0152459GD23991+0548659GF107991999999999999999999MA1100685100405REMMET10901/08/10 08:56:02 METAR KNHZ 081356Z 01003KT 10SM FEW050 BKN180 M10/M12 A2973 RMK AO2 SLP074 T11001122 $ (CT)
0255743920146112010010814567+43900-069933FM-15+0023KNHZ V0200205N00155048775MN0160935N5-00895-01175100695ADDAA101000095GA1025+015245999GA2085+048775999GD11991+0152459GD24991+0487759GF108991999999999999999999MA1100645100375MD1840044+9999REMMET11501/08/10 09:56:02 METAR KNHZ 081456Z 02003KT 10SM FEW050 OVC160 M09/M12 A2972 RMK AO2 SLP069 T10891117 58004 $ (CT)
0272743920146112010010815567+43900-069933FM-15+0023KNHZ V0200205N00155045725MN0160935N5-00725-01175999999ADDAA101000095GA1025+015245999GA2045+027435999GA3085+045725999GD11991+0152459GD22991+0274359GD34991+0457259GF108991999999999999999999MA1100545100275REMMET11501/08/10 10:56:02 METAR KNHZ 081556Z 02003KT 10SM FEW050 SCT090 OVC150 M07/M12 A2969 RMK AO2 SLPNO T10721117 $ (CT)
0195743920146112010010816567+43900-069933FM-15+0023KNHZ V0203605N00155039625MN0160935N5-00565-01115999999ADDGA1085+039625999GD14991+0396259GF108991999999999999999999MA1100415100135REMMET11101/08/10 11:56:02 METAR KNHZ 081656Z 36003KT 10SM OVC130 M06/M11 A2965 RMK AO2 SLPNO T10561111 CHINO R01 $ (CT)
0358743920146112010010817567+43900-069933FM-15+0023KNHZ V0200205N00155039625MN0160935N5-00405-01145999999ADDAJ100159599999999GA1045+022865999GA2075+039625999GA3085+060965999GD12991+0228659GD23991+0396259GD34991+0609659GF108991999999999999999999KA1999M-00401KA2999N-01001MA1100305100035MD1640314+9999REMMET15501/08/10 12:56:02 METAR KNHZ 081756Z 02003KT 10SM SCT075 BKN130 OVC200 M04/M11 A2962 RMK AO2 SLPNO VCSH S-W 4/006 933012 T10401114 11040 21100 56031 $ (CP)
0294743920146112010010818267+43900-069933FM-16+0023KNHZ V0200205N00155022865MN0112655N5-00405-01205999999ADDAA101000021AU110030015AW1715GA1025+009145999GA2075+022865999GA3085+039625999GD11991+0091459GD23991+0228659GD34991+0396259GF108991999999999999999999MA1100305100035MW1711REMMET11401/08/10 13:26:02 SPECI KNHZ 081826Z 02003KT 7SM -SN FEW030 BKN075 OVC130 M04/M12 A2962 RMK AO2 SNB26 P0000 $ (CP)
0242743920146112010010818567+43900-069933FM-15+0023KNHZ V0203105N00265022865MN0112655N5-00505-01065999999ADDAA101000025GA1045+010675999GA2085+022865999GD12991+0106759GD24991+0228659GF108991999999999999999999MA1100275100005REMMET11601/08/10 13:56:02 METAR KNHZ 081856Z 31005KT 7SM SCT035 OVC075 M05/M11 A2961 RMK AO2 SNB26E54 SLPNO T10501106 $ (CP)
0256743920146112010010819097+43900-069933FM-16+0023KNHZ V0203205N00315021345MN0112655N5-00405-01105999999ADDAA101000021AU110030015AW1715GA1045+008535999GA2085+021345999GD12991+0085359GD24991+0213459GF108991999999999999999999MA1100275100005MW1711REMMET10701/08/10 14:09:02 SPECI KNHZ 081909Z 32006KT 7SM -SN SCT028 OVC070 M04/M11 A2961 RMK AO2 SNB09 P0000 $ (CP)
0272743920146112010010819567+43900-069933FM-15+0023KNHZ V0200105N00415008535MN0064375N5-00505-00945999999ADDAA101000025AU110030015AW1715GA1075+008535999GA2085+016765999GD13991+0085359GD24991+0167659GF108991999999999999999999MA1100305100035MW1711REMMET12301/08/10 14:56:02 METAR KNHZ 081956Z 01008KT 4SM -SN BKN028 OVC055 M05/M09 A2962 RMK AO2 SNB09 SLPNO P0000 T10501094 $ (CP)
0360743920146112010010820567+43900-069933FM-15+0023KNHZ V0203605N00315006715MN0048285N5-00555-00895999999ADDAA101000025AA203000021AU110030015AW1715GA1025+004575999GA2075+006715999GA3085+010975999GD11991+0045759GD23991+0067159GD34991+0109759GF108991999999999999999999MA1100305100035MD1340004+9999MW1711REMMET13601/08/10 15:56:02 METAR KNHZ 082056Z 36006KT 3SM -SN FEW015 BKN022 OVC036 M05/M09 A2962 RMK AO2 SLPNO P0000 60000 T10551089 53000 $ (CP)EQDQ01  00008PRCP03
0296743920146112010010821567+43900-069933FM-15+0023KNHZ V0203405N00315010975MN0080475N5-00555-00965999999ADDAA101000025GA1045+006715999GA2075+010975999GA3075+021345999GD12991+0067159GD23991+0109759GD33991+0213459GD44991+0450019GF108991999999999999999999MA1100345100065MW1711REMMET11801/08/10 16:56:02 METAR KNHZ 082156Z 34006KT 5SM -SN SCT022 BKN036 BKN070 M05/M10 A2963 RMK AO2 SLPNO T10551096 $ (CP)
0250743920146112010010822567+43900-069933FM-15+0023KNHZ V0203505N00315018295MN0048285N5-00565-00895100435ADDAU110030015AW1715GA1045+010975999GA2085+018295999GD12991+0109759GD24991+0182959GF108991999999999999999999MA1100375100105MW1711REMMET11201/08/10 17:56:02 METAR KNHZ 082256Z 35006KT 3SM -SN SCT036 OVC060 M06/M09 A2964 RMK AO2 SLP043 T10561089 $ (CP)
0250743920146112010010823337+43900-069933FM-16+0023KNHZ V0203605N00155021345MN0112655N5-00505-00805999999ADDGA1025+010975999GA2075+021345999GA3085+030485999GD11991+0109759GD23991+0213459GD34991+0304859GF108991999999999999999999MA1100375100105REMMET10401/08/10 18:33:02 SPECI KNHZ 082333Z 36003KT 7SM FEW036 BKN070 OVC100 M05/M08 A2964 RMK AO2 SNE33 $ (CP)
0391743920146112010010823567+43900-069933FM-15+0023KNHZ V0203605N00155015245MN0144845N5-00565-00895100455ADDAA106000021AJ100159599999999GA1025+012195999GA2075+015245999GA3085+025915999GD11991+0121959GD23991+0152459GD34991+0259159GF108991999999999999999999KA1999M-00391KA2999N-00561MA1100375100105MD1140074+9999REMMET15801/08/10 18:56:02 METAR KNHZ 082356Z 36003KT 9SM FEW040 BKN050 OVC085 M06/M09 A2964 RMK AO2 SNE33 SLP045 VCSH N 60000 4/006 T10561089 11039 21056 51007 $ (CP)EQDQ01  00008PRCP06
0234743920146112010010900437+43900-069933FM-16+0023KNHZ V0203605N00215021345MN0112655N5-00605-01005999999ADDAU110030015AW1715GA1025+015245999GA2085+021345999GD11991+0152459GD24991+0213459GF108991999999999999999999MA1100445100175MW1711REMMET09601/08/10 19:43:01 SPECI KNHZ 090043Z 36004KT 7SM -SN FEW050 OVC070 M06/M10 A2966 RMK AO2 SNB42 $
0265743920146112010010900567+43900-069933FM-15+0023KNHZ V0203505N00155025915MN0112655N5-00605-00965100495ADDGA1025+016765999GA2075+025915999GA3085+030485999GD11991+0167659GD23991+0259159GD34991+0304859GF108991999999999999999999MA1100445100175REMMET11901/08/10 19:56:01 METAR KNHZ 090056Z 35003KT 7SM FEW055 BKN085 OVC100 M06/M10 A2966 RMK AO2 SNB42E55 SLP049 T10601096 $
0218743920146112010010901567+43900-069933FM-15+0023KNHZ V0203405N00365009145MN0144845N5-00535-01005100535ADDGA1075+009145999GA2085+016765999GD13991+0091459GD24991+0167659GF108991999999999999999999MA1100475100205REMMET10301/08/10 20:56:01 METAR KNHZ 090156Z 34007KT 9SM BKN030 OVC055 M05/M10 A2967 RMK AO2 SLP053 T10531100 $
0236743920146112010010902567+43900-069933FM-15+0023KNHZ V0203405N00315010065MN0144845N5-00505-01025100555ADDAA103000021GA1085+010065999GD14991+0100659GF108991999999999999999999MA1100515100235MD1140114+9999REMMET10801/08/10 21:56:01 METAR KNHZ 090256Z 34006KT 9SM OVC033 M05/M10 A2968 RMK AO2 SLP055 60000 T10501102 51011 $EQDQ01  00008PRCP03
0156743920146112010010903566+43900-069933FM-15+0023KNHZ V02099999999999999999N9999999N5+99999+99999999999ADDMA1100545100275REMMET09401/08/10 22:56:01 METAR KNHZ 090356Z      KT A2969 RMK AO2 SLPNO PWINO FZRANO TSNO CHINO R01 $EQDR01      7SKY009R02      7GAS009
0156743920146112010010904566+43900-069933FM-15+0023KNHZ V02099999999999999999N9999999N5+99999+99999999999ADDMA1100585100305REMMET09401/08/10 23:56:01 METAR KNHZ 090456Z      KT A2970 RMK AO2 SLPNO PWINO FZRANO TSNO CHINO R01 $EQDR01      7SKY009R02      7GAS009
0626743920146112010010904596+43900-069933SOD  +0023KNHZ V020999999999999999999999999999+99999+99999999999ADDAA124000025AX1086246MG1100244100414OE11240067101014415OE22240053601014495REMSOD45824 HR PRECIPITATION (IN):T     WEATHER(CODE):8  AVERAGE STATION PRESSURE:29.600 MINIMUM SEA LEVEL PRESSURE:29.65 TIME OF OCCURRENCE:1824 PEAK WIND SPEED (MPH):15  PEAK WIND DIR (DEG):10  PEAK WIND TIME (LST):1441  FASTEST 2MIN SPEED (MPH):12 FASTEST 2MIN DIR (DEG):10  FASTEST 2MIN TIME (LST):1449 HOURLY INCREMENTAL PRECIPITATION VALUES (IN):    M    M    M    M    M    M    M    0.00 0.00 0.00 M    M    T    T    T    T    M    M    M    M    M    M    MEQDR01      7SKY009R02      7GAS009R03     87AXW093R04     N7GJS072R05     N7GKS075
0182743920146112010010905566+43900-069933FM-15+0023KNHZ V02099999999999999999N9999999N5+99999+99999999999ADDMA1100585100305MD1140104+9999REMMET10601/09/10 00:56:02 METAR KNHZ 090556Z      KT A2970 RMK AO2 SLPNO 6//// 51010 PWINO FZRANO TSNO CHINO R01 $EQDR01      7SKY009R02      7GAS009
0156743920146112010010906566+43900-069933FM-15+0023KNHZ V02099999999999999999N9999999N5+99999+99999999999ADDMA1100645100375REMMET09401/09/10 01:56:02 METAR KNHZ 090656Z      KT A2972 RMK AO2 SLPNO PWINO FZRANO TSNO CHINO R01 $EQDR01      7SKY009R02      7GAS009
0156743920146112010010907566+43900-069933FM-15+0023KNHZ V02099999999999999999N9999999N5+99999+99999999999ADDMA1100685100405REMMET09401/09/10 02:56:02 METAR KNHZ 090756Z      KT A2973 RMK AO2 SLPNO PWINO FZRANO TSNO CHINO R01 $EQDR01      7SKY009R02      7GAS009
0182743920146112010010908566+43900-069933FM-15+0023KNHZ V02099999999999999999N9999999N5+99999+99999999999ADDMA1100715100445MD1140144+9999REMMET10601/09/10 03:56:02 METAR KNHZ 090856Z      KT A2974 RMK AO2 SLPNO 6//// 51014 PWINO FZRANO TSNO CHINO R01 $EQDR01      7SKY009R02      7GAS009
0156743920146112010010909566+43900-069933FM-15+0023KNHZ V02099999999999999999N9999999N5+99999+99999999999ADDMA1100785100505REMMET09401/09/10 04:56:02 METAR KNHZ 090956Z      KT A2976 RMK AO2 SLPNO PWINO FZRANO TSNO CHINO R01 $EQDR01      7SKY009R02      7GAS009
0156743920146112010010910566+43900-069933FM-15+0023KNHZ V02099999999999999999N9999999N5+99999+99999999999ADDMA1100885100615REMMET09401/09/10 05:56:02 METAR KNHZ 091056Z      KT A2979 RMK AO2 SLPNO PWINO FZRANO TSNO CHINO R01 $EQDR01      7SKY009R02      7GAS009
0188743920146112010010911566+43900-069933FM-15+0023KNHZ V02099999999999999999N9999999N5+99999+99999999999ADDMA1100985100715MD1340274+9999REMMET11201/09/10 06:56:02 METAR KNHZ 091156Z      KT A2982 RMK AO2 SLPNO 6//// 7//// 53027 PWINO FZRANO TSNO CHINO R01 $EQDR01      7SKY009R02      7GAS009
0156743920146112010010912566+43900-069933FM-15+0023KNHZ V02099999999999999999N9999999N5+99999+99999999999ADDMA1101055100775REMMET09401/09/10 07:56:02 METAR KNHZ 091256Z      KT A2984 RMK AO2 SLPNO PWINO FZRANO TSNO CHINO R01 $EQDR01      7SKY009R02      7GAS009
0156743920146112010010913566+43900-069933FM-15+0023KNHZ V02099999999999999999N9999999N5+99999+99999999999ADDMA1101155100885REMMET09401/09/10 08:56:02 METAR KNHZ 091356Z      KT A2987 RMK AO2 SLPNO PWINO FZRANO TSNO CHINO R01 $EQDR01      7SKY009R02      7GAS009
0182743920146112010010914566+43900-069933FM-15+0023KNHZ V02099999999999999999N9999999N5+99999+99999999999ADDMA1101255100985MD1340274+9999REMMET10601/09/10 09:56:02 METAR KNHZ 091456Z      KT A2990 RMK AO2 SLPNO 6//// 53027 PWINO FZRANO TSNO CHINO R01 $EQDR01      7SKY009R02      7GAS009
0156743920146112010010915566+43900-069933FM-15+0023KNHZ V02099999999999999999N9999999N5+99999+99999999999ADDMA1101225100945REMMET09401/09/10 10:56:02 METAR KNHZ 091556Z      KT A2989 RMK AO2 SLPNO PWINO FZRANO TSNO CHINO R01 $EQDR01      7SKY009R02      7GAS009
0156743920146112010010916566+43900-069933FM-15+0023KNHZ V02099999999999999999N9999999N5+99999+99999999999ADDMA1101195100915REMMET09401/09/10 11:56:02 METAR KNHZ 091656Z      KT A2988 RMK AO2 SLPNO PWINO FZRANO TSNO CHINO R01 $EQDR01      7SKY009R02      7GAS009
0182743920146112010010917566+43900-069933FM-15+0023KNHZ V02099999999999999999N9999999N5+99999+99999999999ADDMA1101195100915MD1640074+9999REMMET10601/09/10 12:56:02 METAR KNHZ 091756Z      KT A2988 RMK AO2 SLPNO 6//// 56007 PWINO FZRANO TSNO CHINO R01 $EQDR01      7SKY009R02      7GAS009
0156743920146112010010918566+43900-069933FM-15+0023KNHZ V02099999999999999999N9999999N5+99999+99999999999ADDMA1101225100945REMMET09401/09/10 13:56:02 METAR KNHZ 091856Z      KT A2989 RMK AO2 SLPNO PWINO FZRANO TSNO CHINO R01 $EQDR01      7SKY009R02      7GAS009
0156743920146112010010919566+43900-069933FM-15+0023KNHZ V02099999999999999999N9999999N5+99999+99999999999ADDMA1101295101015REMMET09401/09/10 14:56:02 METAR KNHZ 091956Z      KT A2991 RMK AO2 SLPNO PWINO FZRANO TSNO CHINO R01 $EQDR01      7SKY009R02      7GAS009
0182743920146112010010920566+43900-069933FM-15+0023KNHZ V02099999999999999999N9999999N5+99999+99999999999ADDMA1101325101045MD1240144+9999REMMET10601/09/10 15:56:02 METAR KNHZ 092056Z      KT A2992 RMK AO2 SLPNO 6//// 52014 PWINO FZRANO TSNO CHINO R01 $EQDR01      7SKY009R02      7GAS009
0156743920146112010010921566+43900-069933FM-15+0023KNHZ V02099999999999999999N9999999N5+99999+99999999999ADDMA1101425101155REMMET09401/09/10 16:56:02 METAR KNHZ 092156Z      KT A2995 RMK AO2 SLPNO PWINO FZRANO TSNO CHINO R01 $EQDR01      7SKY009R02      7GAS009
0156743920146112010010922566+43900-069933FM-15+0023KNHZ V02099999999999999999N9999999N5+99999+99999999999ADDMA1101525101255REMMET09401/09/10 17:56:02 METAR KNHZ 092256Z      KT A2998 RMK AO2 SLPNO PWINO FZRANO TSNO CHINO R01 $EQDR01      7SKY009R02      7GAS009
0182743920146112010010923566+43900-069933FM-15+0023KNHZ V02099999999999999999N9999999N5+99999+99999999999ADDMA1101635101355MD1240304+9999REMMET10601/09/10 18:56:02 METAR KNHZ 092356Z      KT A3001 RMK AO2 SLPNO 6//// 52030 PWINO FZRANO TSNO CHINO R01 $EQDR01      7SKY009R02      7GAS009
0156743920146112010011000566+43900-069933FM-15+0023KNHZ V02099999999999999999N9999999N5+99999+99999999999ADDMA1101735101455REMMET09401/09/10 19:56:01 METAR KNHZ 100056Z      KT A3004 RMK AO2 SLPNO PWINO FZRANO TSNO CHINO R01 $EQDR01      7SKY009R02      7GAS009
0167743920146112010011001567+43900-069933FM-15+0023KNHZ V0203305N004152200019N9999999N5-01335-02005999999ADDAA101000095MA1101795101525REMMET09401/09/10 20:56:01 METAR KNHZ 100156Z 33008KT M13/M20 A3006 RMK AO2 SLPNO T11331200 CHINO R01 $EQDR01      7SKY009R02      7GAS009
0193743920146112010011002567+43900-069933FM-15+0023KNHZ V0203305N002652200019N9999999N5-01395-02065999999ADDAA101000095MA1101835101555MD1140184+9999REMMET10601/09/10 21:56:01 METAR KNHZ 100256Z 33005KT M14/M21 A3007 RMK AO2 SLPNO 6//// T11391206 51018 CHINO R01 $EQDR01      7SKY009R02      7GAS009
0167743920146112010011003567+43900-069933FM-15+0023KNHZ V0200105N001552200019N9999999N5-01395-02065999999ADDAA101000095MA1101865101595REMMET09401/09/10 22:56:01 METAR KNHZ 100356Z 01003KT M14/M21 A3008 RMK AO2 SLPNO T11391206 CHINO R01 $EQDR01      7SKY009R02      7GAS009
0160743920146112010011004567+43900-069933FM-15+0023KNHZ V0203005N00155012805MN9999999N5-01395-02065999999ADDAA101000095GA1075+012805999GD13991+0128059MA1101865101595REMMET09101/09/10 23:56:01 METAR KNHZ 100456Z 30003KT BKN042 M14/M21 A3008 RMK AO2 SLPNO T11391206 $
0498743920146112010011004596+43900-069933SOD  +0023KNHZ V020999999999999999999999999999+99999+99999999999ADDAA124000095MG1100834999999OE11240076032019295OE22240058133021045REMSOD38724 HR PRECIPITATION (IN):0.00  AVERAGE STATION PRESSURE:29.775 PEAK WIND SPEED (MPH):17  PEAK WIND DIR (DEG):320 PEAK WIND TIME (LST):1929  FASTEST 2MIN SPEED (MPH):13 FASTEST 2MIN DIR (DEG):330 FASTEST 2MIN TIME (LST):2104 HOURLY INCREMENTAL PRECIPITATION VALUES (IN):    M    M    M    M    M    M    M    M    M    M    M    M    M    M    M    M    M    M    M    0.00 0.00 0.00 0.00EQDR01     N7GJS072R02     N7GKS075
0186743920146112010011005567+43900-069933FM-15+0023KNHZ V0209999C000052200059N9999999N5-01395-02065999999ADDAA101000095GA1025+014635999GD11991+0146359MA1101905101625MD1140064+9999REMMET10301/10/10 00:56:02 METAR KNHZ 100556Z 00000KT FEW048 M14/M21 A3009 RMK AO2 SLPNO 6//// T11391206 51006 $
0157743920146112010011006567+43900-069933FM-15+0023KNHZ V0203205N002652200059N9999999N5-01505-02065999999ADDAA101000095GA1005+999999999GD10991+9999999MA1101905101625REMMET08801/10/10 01:56:02 METAR KNHZ 100656Z 32005KT CLR M15/M21 A3009 RMK AO2 SLPNO T11501206 $
0157743920146112010011007567+43900-069933FM-15+0023KNHZ V0203305N002152200059N9999999N5-01565-02115999999ADDAA101000095GA1005+999999999GD10991+9999999MA1101865101595REMMET08801/10/10 02:56:02 METAR KNHZ 100756Z 33004KT CLR M16/M21 A3008 RMK AO2 SLPNO T11561211 $
0182743920146112010011008566+43900-069933FM-15+0023KNHZ V02099999999999999999N9999999N5+99999+99999999999ADDMA1101905101625MD1340034+9999REMMET10601/10/10 03:56:02 METAR KNHZ 100856Z      KT A3009 RMK AO2 SLPNO 6//// 53003 PWINO FZRANO TSNO CHINO R01 $EQDR01      7SKY009R02      7GAS009
0156743920146112010011009566+43900-069933FM-15+0023KNHZ V02099999999999999999N9999999N5+99999+99999999999ADDMA1101865101595REMMET09401/10/10 04:56:02 METAR KNHZ 100956Z      KT A3008 RMK AO2 SLPNO PWINO FZRANO TSNO CHINO R01 $EQDR01      7SKY009R02      7GAS009
0156743920146112010011010566+43900-069933FM-15+0023KNHZ V02099999999999999999N9999999N5+99999+99999999999ADDMA1101935101655REMMET09401/10/10 05:56:02 METAR KNHZ 101056Z      KT A3010 RMK AO2 SLPNO PWINO FZRANO TSNO CHINO R01 $EQDR01      7SKY009R02      7GAS009
0188743920146112010011011566+43900-069933FM-15+0023KNHZ V02099999999999999999N9999999N5+99999+99999999999ADDMA1102005101725MD1340104+9999REMMET11201/10/10 06:56:02 METAR KNHZ 101156Z      KT A3012 RMK AO2 SLPNO 6//// 7//// 53010 PWINO FZRANO TSNO CHINO R01 $EQDR01      7SKY009R02      7GAS009
0156743920146112010011012566+43900-069933FM-15+0023KNHZ V02099999999999999999N9999999N5+99999+99999999999ADDMA1102035101755REMMET09401/10/10 07:56:02 METAR KNHZ 101256Z      KT A3013 RMK AO2 SLPNO PWINO FZRANO TSNO CHINO R01 $EQDR01      7SKY009R02      7GAS009
0156743920146112010011013566+43900-069933FM-15+0023KNHZ V02099999999999999999N9999999N5+99999+99999999999ADDMA1102035101755REMMET09401/10/10 08:56:02 METAR KNHZ 101356Z      KT A3013 RMK AO2 SLPNO PWINO FZRANO TSNO CHINO R01 $EQDR01      7SKY009R02      7GAS009
0191743920146112010011014566+43900-069933FM-15+0023KNHZ V02099999999999999999N9999999N5-01065-02065102095ADDMA1102035101755MD1040014+9999REMMET11501/10/10 09:56:02 METAR KNHZ 101456Z      KT M11/M21 A3013 RMK AO2 SLP209 6//// T11061206 50001 PWINO FZRANO TSNO $EQDR01      7SKY009R02      7GAS009
0168743920146112010011015567+43900-069933FM-15+0023KNHZ V0203205N004152200019N9999999N5-00835-02065102035ADDAA101000095MA1101965101695REMMET09501/10/10 10:56:02 METAR KNHZ 101556Z 32008KT M08/M21 A3011 RMK AO2 SLP203 T10831206 CHINO R01 $EQDR01      7SKY009R02      7GAS009
0156743920146112010011016566+43900-069933FM-15+0023KNHZ V02099999999999999999N9999999N5+99999+99999999999ADDMA1101865101595REMMET09401/10/10 11:56:02 METAR KNHZ 101656Z      KT A3008 RMK AO2 SLPNO PWINO FZRANO TSNO CHINO R01 $EQDR01      7SKY009R02      7GAS009
0182743920146112010011017566+43900-069933FM-15+0023KNHZ V02099999999999999999N9999999N5+99999+99999999999ADDMA1101765101485MD1840244+9999REMMET10601/10/10 12:56:02 METAR KNHZ 101756Z      KT A3005 RMK AO2 SLPNO 6//// 58024 PWINO FZRANO TSNO CHINO R01 $EQDR01      7SKY009R02      7GAS009
0156743920146112010011018566+43900-069933FM-15+0023KNHZ V02099999999999999999N9999999N5+99999+99999999999ADDMA1101765101485REMMET09401/10/10 13:56:02 METAR KNHZ 101856Z      KT A3005 RMK AO2 SLPNO PWINO FZRANO TSNO CHINO R01 $EQDR01      7SKY009R02      7GAS009
0156743920146112010011019566+43900-069933FM-15+0023KNHZ V02099999999999999999N9999999N5+99999+99999999999ADDMA1101735101455REMMET09401/10/10 14:56:02 METAR KNHZ 101956Z      KT A3004 RMK AO2 SLPNO PWINO FZRANO TSNO CHINO R01 $EQDR01      7SKY009R02      7GAS009
0182743920146112010011020566+43900-069933FM-15+0023KNHZ V02099999999999999999N9999999N5+99999+99999999999ADDMA1101735101455MD1740034+9999REMMET10601/10/10 15:56:02 METAR KNHZ 102056Z      KT A3004 RMK AO2 SLPNO 6//// 57003 PWINO FZRANO TSNO CHINO R01 $EQDR01      7SKY009R02      7GAS009
0167743920146112010011021566+43900-069933FM-15+0023KNHZ V02099999999999999999N9999999N5+99999+99999999999ADDAA101000095MA1101765101485REMMET09401/10/10 16:56:02 METAR KNHZ 102156Z      KT A3005 RMK AO2 SLPNO PWINO FZRANO TSNO CHINO R01 $EQDR01      7SKY009R02      7GAS009
0174743920146112010011022566+43900-069933FM-15+0023KNHZ V02099999999999999999N9999999N5-00725-01945999999ADDMA1101765101485REMMET11201/10/10 17:56:02 METAR KNHZ 102256Z      KT M07/M19 A3005 RMK AO2 SLPNO T10721194 PWINO FZRANO TSNO CHINO R01 $EQDR01      7SKY009R02      7GAS009
0182743920146112010011023566+43900-069933FM-15+0023KNHZ V02099999999999999999N9999999N5+99999+99999999999ADDMA1101765101485MD1140034+9999REMMET10601/10/10 18:56:02 METAR KNHZ 102356Z      KT A3005 RMK AO2 SLPNO 6//// 51003 PWINO FZRANO TSNO CHINO R01 $EQDR01      7SKY009R02      7GAS009
0156743920146112010011100566+43900-069933FM-15+0023KNHZ V02099999999999999999N9999999N5+99999+99999999999ADDMA1101765101485REMMET09401/10/10 19:56:01 METAR KNHZ 110056Z      KT A3005 RMK AO2 SLPNO PWINO FZRANO TSNO CHINO R01 $EQDR01      7SKY009R02      7GAS009
0156743920146112010011101566+43900-069933FM-15+0023KNHZ V02099999999999999999N9999999N5+99999+99999999999ADDMA1101735101455REMMET09401/10/10 20:56:01 METAR KNHZ 110156Z      KT A3004 RMK AO2 SLPNO PWINO FZRANO TSNO CHINO R01 $EQDR01      7SKY009R02      7GAS009
0182743920146112010011102566+43900-069933FM-15+0023KNHZ V02099999999999999999N9999999N5+99999+99999999999ADDMA1101735101455MD1740034+9999REMMET10601/10/10 21:56:01 METAR KNHZ 110256Z      KT A3004 RMK AO2 SLPNO 6//// 57003 PWINO FZRANO TSNO CHINO R01 $EQDR01      7SKY009R02      7GAS009
0156743920146112010011103566+43900-069933FM-15+0023KNHZ V02099999999999999999N9999999N5+99999+99999999999ADDMA1101695101425REMMET09401/10/10 22:56:01 METAR KNHZ 110356Z      KT A3003 RMK AO2 SLPNO PWINO FZRANO TSNO CHINO R01 $EQDR01      7SKY009R02      7GAS009
0156743920146112010011104566+43900-069933FM-15+0023KNHZ V02099999999999999999N9999999N5+99999+99999999999ADDMA1101665101385REMMET09401/10/10 23:56:01 METAR KNHZ 110456Z      KT A3002 RMK AO2 SLPNO PWINO FZRANO TSNO CHINO R01 $EQDR01      7SKY009R02      7GAS009
0584743920146112010011104596+43900-069933SOD  +0023KNHZ V020999999999999999999999999999+99999+99999999999ADDAA124000095MG1101594101964OE11240071533011255OE22240058132011285REMSOD44124 HR PRECIPITATION (IN):0.00  AVERAGE STATION PRESSURE:30.000 MINIMUM SEA LEVEL PRESSURE:30.11 TIME OF OCCURRENCE:1143 PEAK WIND SPEED (MPH):16  PEAK WIND DIR (DEG):330 PEAK WIND TIME (LST):1125  FASTEST 2MIN SPEED (MPH):13 FASTEST 2MIN DIR (DEG):320 FASTEST 2MIN TIME (LST):1128 HOURLY INCREMENTAL PRECIPITATION VALUES (IN):.00 0.00 0.00 M    M    M    M    M    M    M    0.00 M    M    M    M    M    0.00 M    M    M    M    M    M    MEQDR01      7SKY009R02      7GAS009R03     N7GJS072R04     N7GKS075
0182743920146112010011105566+43900-069933FM-15+0023KNHZ V02099999999999999999N9999999N5+99999+99999999999ADDMA1101595101315MD1840144+9999REMMET10601/11/10 00:56:02 METAR KNHZ 110556Z      KT A3000 RMK AO2 SLPNO 6//// 58014 PWINO FZRANO TSNO CHINO R01 $EQDR01      7SKY009R02      7GAS009
0156743920146112010011106566+43900-069933FM-15+0023KNHZ V02099999999999999999N9999999N5+99999+99999999999ADDMA1101595101315REMMET09401/11/10 01:56:02 METAR KNHZ 110656Z      KT A3000 RMK AO2 SLPNO PWINO FZRANO TSNO CHINO R01 $EQDR01      7SKY009R02      7GAS009
0156743920146112010011107566+43900-069933FM-15+0023KNHZ V02099999999999999999N9999999N5+99999+99999999999ADDMA1101565101285REMMET09401/11/10 02:56:02 METAR KNHZ 110756Z      KT A2999 RMK AO2 SLPNO PWINO FZRANO TSNO CHINO R01 $EQDR01      7SKY009R02      7GAS009
0182743920146112010011108566+43900-069933FM-15+0023KNHZ V02099999999999999999N9999999N5+99999+99999999999ADDMA1101525101255MD1840074+9999REMMET10601/11/10 03:56:02 METAR KNHZ 110856Z      KT A2998 RMK AO2 SLPNO 6//// 58007 PWINO FZRANO TSNO CHINO R01 $EQDR01      7SKY009R02      7GAS009
0156743920146112010011109566+43900-069933FM-15+0023KNHZ V02099999999999999999N9999999N5+99999+99999999999ADDMA1101525101255REMMET09401/11/10 04:56:02 METAR KNHZ 110956Z      KT A2998 RMK AO2 SLPNO PWINO FZRANO TSNO CHINO R01 $EQDR01      7SKY009R02      7GAS009
0262743920146112010011110567+43900-069933FM-15+0023KNHZ V0209999V00155036585MN0160935N5-01005-01565101575ADDGA1025+022865999GA2075+036585999GA3075+060965999GD11991+0228659GD23991+0365859GD33991+0609659GF107991999999999999999999MA1101525101255REMMET11601/11/10 05:56:02 METAR KNHZ 111056Z VRB03KT 10SM FEW075 BKN120 BKN200 M10/M16 A2998 RMK AO2 SLP157 T11001156 $ (CP)
0304743920146112010011111567+43900-069933FM-15+0023KNHZ V0209999C000052200059N0160935N5-01005-01425999999ADDAJ100139599999999GA1025+022865999GA2045+036585999GA3045+060965999GD11991+0228659GD22991+0365859GD32991+0609659GF104991999999999999999999MA1101525101255MD1540014+9999REMMET12701/11/10 06:56:02 METAR KNHZ 111156Z 00000KT 10SM FEW075 SCT120 SCT200 M10/M14 A2998 RMK AO2 SLPNO 4/005 T11001142 55001 $ (CP)
0261743920146112010011112567+43900-069933FM-15+0023KNHZ V0209999C000052200059N0160935N5-01025-01565999999ADDGA1025+022865999GA2045+030485999GA3045+060965999GD11991+0228659GD22991+0304859GD32991+0609659GF104991999999999999999999MA1101565101285REMMET11501/11/10 07:56:02 METAR KNHZ 111256Z 00000KT 10SM FEW075 SCT100 SCT200 M10/M16 A2999 RMK AO2 SLPNO T11021156 $ (CP)
0276743920146112010011113567+43900-069933FM-15+0023KNHZ V0209999V00155045725MN0160935N5-00905-01285999999ADDGA1025+022865999GA2045+030485999GA3075+045725999GD11991+0228659GD22991+0304859GD33991+0457259GD43991+0600019GF107991999999999999999999MA1101495101215REMMET11501/11/10 08:56:02 METAR KNHZ 111356Z VRB03KT 10SM FEW075 SCT100 BKN150 M09/M13 A2997 RMK AO2 SLPNO T10901128 $ (CP)
0281743920146112010011114567+43900-069933FM-15+0023KNHZ V0202605N00215045725MN0160935N5-00285-01105999999ADDGA1045+030485999GA2075+045725999GA3075+060965999GD12991+0304859GD23991+0457259GD33991+0609659GF107991999999999999999999MA1101495101215MD1840044+9999REMMET12101/11/10 09:56:02 METAR KNHZ 111456Z 26004KT 10SM SCT100 BKN150 BKN200 M03/M11 A2997 RMK AO2 SLPNO T10281110 58004 $ (CP)
0261743920146112010011115567+43900-069933FM-15+0023KNHZ V0202405N00315045725MN0160935N5-00175-00975999999ADDGA1045+030485999GA2075+045725999GA3075+060965999GD12991+0304859GD23991+0457259GD33991+0609659GF107991999999999999999999MA1101425101155REMMET11501/11/10 10:56:02 METAR KNHZ 111556Z 24006KT 10SM SCT100 BKN150 BKN200 M02/M10 A2995 RMK AO2 SLPNO T10171097 $ (CP)
0261743920146112010011116567+43900-069933FM-15+0023KNHZ V0202405N00265060965MN0160935N5-00135-00965999999ADDGA1025+030485999GA2045+045725999GA3075+060965999GD11991+0304859GD22991+0457259GD33991+0609659GF107991999999999999999999MA1101395101115REMMET11501/11/10 11:56:02 METAR KNHZ 111656Z 24005KT 10SM FEW100 SCT150 BKN200 M01/M10 A2994 RMK AO2 SLPNO T10131096 $ (CP)
0359743920146112010011117567+43900-069933FM-15+0023KNHZ V0202305N00215045725MN0160935N5-00025-01025999999ADDAJ100139199999999GA1025+030485999GA2075+045725999GA3075+060965999GD11991+0304859GD23991+0457259GD33991+0609659GF107991999999999999999999KA1999M+00001KA2999N-01021MA1101325101045MD1640174+9999REMMET15601/11/10 12:56:02 METAR KNHZ 111756Z 23004KT 10SM FEW100 BKN150 BKN200 M00/M10 A2992 RMK AO2 SLPNO ACSL NW-N 4\005 933011 T10021102 10000 21102 56017 $ (CP)
0282743920146112010011118567+43900-069933FM-15+0023KNHZ V0202305N00215045725MN0160935N5-00075-00985999999ADDGA1045+030485999GA2075+045725999GA3075+060965999GD12991+0304859GD23991+0457259GD33991+0609659GF107991999999999999999999MA1101295101015REMMET13601/11/10 13:56:02 METAR KNHZ 111856Z 23004KT 10SM SCT100 BKN150 BKN200 M01/M10 A2991 RMK AO2 SLPNO VIRGA W-NE ACSL W-NW T10071098 $ (CP)
0314743920146112010011119567+43900-069933FM-15+0023KNHZ V0203305N00415045725MN0160935N5-00065-00895999999ADDAA101000095GA1025+015245999GA2045+030485999GA3075+045725999GD11991+0152459GD22991+0304859GD33991+0457259GD44991+0600019GF108991999999999999999999MA1101295101015REMMET14201/11/10 14:56:02 METAR KNHZ 111956Z 33008KT 10SM FEW050 SCT100 BKN150 M01/M09 A2991 RMK AO2 SLPNO VIRGA ALQDS ACSL DSNT W-NW T10061089 $ (CP)
0323743920146112010011120567+43900-069933FM-15+0023KNHZ V0202805N00215039625MN0160935N5-00115-00895999999ADDAA101000095GA1025+015245999GA2045+030485999GA3075+039625999GD11991+0152459GD22991+0304859GD33991+0396259GD43991+0600019GF107991999999999999999999MA1101295101015MD1640044+9999REMMET13701/11/10 15:56:02 METAR KNHZ 112056Z 28004KT 10SM FEW050 SCT100 BKN130 M01/M09 A2991 RMK AO2 SLPNO VIRGA DSNT NE-E T10111089 56004 $ (CT)
0295743920146112010011121567+43900-069933FM-15+0023KNHZ V0209999C00005030485MN0160935N5-00115-00945999999ADDAA101000095GA1025+018295999GA2075+030485999GA3075+060965999GD11991+0182959GD23991+0304859GD33991+0609659GF107991999999999999999999MA1101295101015REMMET13801/11/10 16:56:02 METAR KNHZ 112156Z 00000KT 10SM FEW060 BKN100 BKN200 M01/M09 A2991 RMK AO2 SLPNO VIRGA DSNT NE-E AND SW T10111094 $ (CT)
0273743920146112010011122567+43900-069933FM-15+0023KNHZ V0201605N00155027435MN0160935N5-00225-00895101375ADDAA101000095GA1025+018295999GA2075+027435999GA3075+060965999GD11991+0182959GD23991+0274359GD33991+0609659GF107991999999999999999999MA1101325101045REMMET11601/11/10 17:56:02 METAR KNHZ 112256Z 16003KT 10SM FEW060 BKN090 BKN200 M02/M09 A2992 RMK AO2 SLP137 T10221089 $ (CT)
0316743920146112010011123567+43900-069933FM-15+0023KNHZ V0203005N00265027435MN0160935N5-00115-00945101395ADDAA101000095AJ100139599999999GA1045+015245999GA2075+027435999GD12991+0152459GD23991+0274359GF107991999999999999999999KA1999M+00001KA2999N-00331MA1101325101045MD1340044+9999REMMET13301/11/10 18:56:02 METAR KNHZ 112356Z 30005KT 10SM SCT050 BKN090 M01/M09 A2992 RMK AO2 SLP139 4/005 T10111094 10000 21033 53004 $ (CT)
0192743920146112010011200567+43900-069933FM-15+0023KNHZ V0203105N002652200059N0160935N5-00175-00945101425ADDAA101000095GA1045+028965999GD12991+0289659GF104991999999999999999999MA1101355101085REMMET09701/11/10 19:56:01 METAR KNHZ 120056Z 31005KT 10SM SCT095 M02/M09 A2993 RMK AO2 SLP142 T10171094 $
0192743920146112010011201567+43900-069933FM-15+0023KNHZ V0203005N003652200059N0160935N5-00285-00895101395ADDAA101000095GA1025+022865999GD11991+0228659GF102991999999999999999999MA1101325101045REMMET09701/11/10 20:56:01 METAR KNHZ 120156Z 30007KT 10SM FEW075 M03/M09 A2992 RMK AO2 SLP139 T10281089 $
0250743920146112010011202567+43900-069933FM-15+0023KNHZ V0209999C00005027435MN0160935N5-00285-00835101415ADDAA101000095GA1045+022865999GA2075+027435999GD12991+0228659GD23991+0274359GF107991999999999999999999MA1101355101085MD1140014+9999REMMET11001/11/10 21:56:01 METAR KNHZ 120256Z 00000KT 10SM SCT075 BKN090 M03/M08 A2993 RMK AO2 SLP141 T10281083 51001 $
0199743920146112010011203567+43900-069933FM-15+0023KNHZ V0203405N00155033535MN9999999N5-00225-00785101415ADDAA101000095GA1025+027435999GA2085+033535999GD11991+0274359GD24991+0335359MA1101355101085REMMET09901/11/10 22:56:01 METAR KNHZ 120356Z 34003KT FEW090 OVC110 M02/M08 A2993 RMK AO2 SLP141 T10221078 $
0161743920146112010011204567+43900-069933FM-15+0023KNHZ V0203305N00465033535MN9999999N5-00285-00835101395ADDAA101000095GA1085+033535999GD14991+0335359MA1101325101045REMMET09201/11/10 23:56:01 METAR KNHZ 120456Z 33009KT OVC110 M03/M08 A2992 RMK AO2 SLP139 T10281083 $
0604743920146112010011204596+43900-069933SOD  +0023KNHZ V020999999999999999999999999999+99999+99999999999ADDAA124000095MG1101174101354OE11240062630020055OE22240044732014545OE33240018399999995REMSOD47424 HR PRECIPITATION (IN):0.00  AVERAGE STATION PRESSURE:29.875 MINIMUM SEA LEVEL PRESSURE:29.93 TIME OF OCCURRENCE:1800 PEAK WIND SPEED (MPH):14  PEAK WIND DIR (DEG):300 PEAK WIND TIME (LST):2005  FASTEST 2MIN SPEED (MPH):10 FASTEST 2MIN DIR (DEG):320 FASTEST 2MIN TIME (LST):1454 AVERAGE WIND SPEED (MPH):4.1  HOURLY INCREMENTAL PRECIPITATION VALUES (IN):    M    M    M    M    M    M    M    M    M    M    M    M    M    0.00 0.00 0.00 0.00 0.00 0.00 0.00 0.00 0.00 0.00EQDR01     N7GJS072R02     N7GKS075
0219743920146112010011205567+43900-069933FM-15+0023KNHZ V0200105N00265033535MN9999999N5-00285-00835101365ADDAA101000095GA1085+033535999GD14991+0335359KA1999M-00111KA2999N-00331MA1101295101015MD1840054+9999REMMET11001/12/10 00:56:02 METAR KNHZ 120556Z 01005KT OVC110 M03/M08 A2991 RMK AO2 SLP136 T10281083 11011 21033 58005 $
0161743920146112010011206567+43900-069933FM-15+0023KNHZ V0203605N00365030485MN9999999N5-00285-00895101375ADDAA101000095GA1085+030485999GD14991+0304859MA1101325101045REMMET09201/12/10 01:56:02 METAR KNHZ 120656Z 36007KT OVC100 M03/M09 A2992 RMK AO2 SLP137 T10281089 $
0161743920146112010011207567+43900-069933FM-15+0023KNHZ V0203505N00215030485MN9999999N5-00285-00895101375ADDAA101000095GA1085+030485999GD14991+0304859MA1101325101045REMMET09201/12/10 02:56:02 METAR KNHZ 120756Z 35004KT OVC100 M03/M09 A2992 RMK AO2 SLP137 T10281089 $
0181743920146112010011208567+43900-069933FM-15+0023KNHZ V0203405N00365030485MN9999999N5-00285-00895101345ADDAA101000095GA1085+030485999GD14991+0304859MA1101295101015MD1840024+9999REMMET09801/12/10 03:56:02 METAR KNHZ 120856Z 34007KT OVC100 M03/M09 A2991 RMK AO2 SLP134 T10281089 58002 $
0161743920146112010011209567+43900-069933FM-15+0023KNHZ V0203105N00465024385MN9999999N5-00225-00895101335ADDAA101000095GA1085+024385999GD14991+0243859MA1101295101015REMMET09201/12/10 04:56:02 METAR KNHZ 120956Z 31009KT OVC080 M02/M09 A2991 RMK AO2 SLP133 T10221089 $
0197743920146112010011210567+43900-069933FM-15+0023KNHZ V0203105N00315024385MN0160935N5-00285-00895101355ADDAA101000095GA1085+024385999GD14991+0243859GF108991999999999999999999MA1101295101015REMMET10201/12/10 05:56:02 METAR KNHZ 121056Z 31006KT 10SM OVC080 M03/M09 A2991 RMK AO2 SLP135 T10281089 $ (CP)
0278743920146112010011211567+43900-069933FM-15+0023KNHZ V0203605N00155025915MN0160935N5-00335-00895101355ADDAA101000095AJ100139599999999GA1075+025915999GD13991+0259159GF107991999999999999999999KA1999M-00221KA2999N-00331MA1101295101015MD1340014+9999REMMET12601/12/10 06:56:02 METAR KNHZ 121156Z 36003KT 10SM BKN085 M03/M09 A2991 RMK AO2 SLP135 4/005 T10331089 11022 21033 53001 $ (CP)
0197743920146112010011212567+43900-069933FM-15+0023KNHZ V0203505N00515024385MN0160935N5-00395-01065101365ADDAA101000095GA1075+024385999GD13991+0243859GF107991999999999999999999MA1101295101015REMMET10201/12/10 07:56:02 METAR KNHZ 121256Z 35010KT 10SM BKN080 M04/M11 A2991 RMK AO2 SLP136 T10391106 $ (CP)
0235743920146112010011213567+43900-069933FM-15+0023KNHZ V0203605N00515025915MN0160935N5-00565-01285101405ADDAA101000095GA1025+015245999GA2075+025915999GD11991+0152459GD23991+0259159GF107991999999999999999999MA1101325101045REMMET10901/12/10 08:56:02 METAR KNHZ 121356Z 36010KT 10SM FEW050 BKN085 M06/M13 A2992 RMK AO2 SLP140 T10561128 $ (CP)
0255743920146112010011214567+43900-069933FM-15+0023KNHZ V0203205N004152200059N0160935N5-00505-01335101415ADDAA101000095GA1045+024385999GA2045+045725999GD12991+0243859GD22991+0457259GF104991999999999999999999MA1101355101085MD1340064+9999REMMET11501/12/10 09:56:02 METAR KNHZ 121456Z 32008KT 10SM SCT080 SCT150 M05/M13 A2993 RMK AO2 SLP141 T10501133 53006 $ (CP)
0273743920146112010011215567+43900-069933FM-15+0023KNHZ V0203305N006252200059N0160935N5-00445-01335101325ADDAA101000095GA1025+015245999GA2045+024385999GA3045+060965999GD11991+0152459GD22991+0243859GD32991+0609659GF104991999999999999999999MA1101255100985REMMET11601/12/10 10:56:02 METAR KNHZ 121556Z 33012KT 10SM FEW050 SCT080 SCT200 M04/M13 A2990 RMK AO2 SLP132 T10441133 $ (CP)
0273743920146112010011216567+43900-069933FM-15+0023KNHZ V0203305N006752200059N0160935N5-00395-01395101235ADDAA101000095GA1025+015245999GA2045+024385999GA3045+060965999GD11991+0152459GD22991+0243859GD32991+0609659GF104991999999999999999999MA1101155100885REMMET11601/12/10 11:56:02 METAR KNHZ 121656Z 33013KT 10SM FEW050 SCT080 SCT200 M04/M14 A2987 RMK AO2 SLP123 T10391139 $ (CP)
0372743920146112010011217567+43900-069933FM-15+0023KNHZ V0203405N006752200059N0160935N5-00445-01505101125ADDAA101000095AJ100139599999999GA1025+015245999GA2045+024385999GA3045+060965999GD11991+0152459GD22991+0243859GD32991+0609659GF104991999999999999999999KA1999M-00331KA2999N-00611MA1101055100775MD1840294+9999OC101185REMMET15001/12/10 12:56:02 METAR KNHZ 121756Z 34013G23KT 10SM FEW050 SCT080 SCT200 M04/M15 A2984 RMK AO2 SLP112 4/005 933012 T10441150 11033 21061 58029 $ (CP)
0284743920146112010011218567+43900-069933FM-15+0023KNHZ V0203505N00725030485MN0160935N5-00445-01445101095ADDAA101000095GA1025+022865999GA2075+030485999GA3075+060965999GD11991+0228659GD23991+0304859GD33991+0609659GF107991999999999999999999MA1101025100745OC100935REMMET11901/12/10 13:56:02 METAR KNHZ 121856Z 35014G18KT 10SM FEW075 BKN100 BKN200 M04/M14 A2983 RMK AO2 SLP109 T10441144 $ (CP)
0296743920146112010011219567+43900-069933FM-15+0023KNHZ V0203305N007752200059N0160935N5-00565-01565101125ADDAA101000095GA1025+022865999GA2045+030485999GA3045+060965999GD11991+0228659GD22991+0304859GD32991+0609659GF104991999999999999999999MA1101055100775OC100935REMMET13101/12/10 14:56:02 METAR KNHZ 121956Z 33015G18KT 10SM FEW075 SCT100 SCT200 M06/M16 A2984 RMK AO2 SLP112 ACSL DSNT N T10561156 $ (CP)
0334743920146112010011220567+43900-069933FM-15+0023KNHZ V0203505N00885036585MN0160935N5-00725-01615101205ADDAA101000095GA1025+015245999GA2075+036585999GA3075+060965999GD11991+0152459GD23991+0365859GD33991+0609659GF107991999999999999999999MA1101155100885MD1340084+9999OC101185REMMET15501/12/10 15:56:02 METAR KNHZ 122056Z 35017G23KT 10SM FEW050 BKN120 BKN200 M07/M16 A2987 RMK AO2 PK WND 35028/2038 SLP120 ACSL DSNT N T10721161 53008 $ (CT)
0284743920146112010011221567+43900-069933FM-15+0023KNHZ V0203405N005752200059N0160935N5-00835-01675101255ADDAA101000095GA1045+021345999GA2045+036585999GA3045+060965999GD12991+0213459GD22991+0365859GD32991+0609659GF104991999999999999999999MA1101195100915OC101035REMMET11901/12/10 16:56:02 METAR KNHZ 122156Z 34011G20KT 10SM SCT070 SCT120 SCT200 M08/M17 A2988 RMK AO2 SLP125 T10831167 $ (CT)
0235743920146112010011222567+43900-069933FM-15+0023KNHZ V0203305N005752200059N0160935N5-00945-01675101315ADDAA101000095GA1025+021345999GA2045+036585999GD11991+0213459GD22991+0365859GF104991999999999999999999MA1101255100985REMMET10901/12/10 17:56:02 METAR KNHZ 122256Z 33011KT 10SM FEW070 SCT120 M09/M17 A2990 RMK AO2 SLP131 T10941167 $ (CT)
0289743920146112010011223567+43900-069933FM-15+0023KNHZ V0203305N006252200059N0160935N5-01005-01725101405ADDAA101000095AJ100139599999999GA1025+036585999GD11991+0365859GF102991999999999999999999KA1999M-00391KA2999N-01061MA1101325101045MD1340204+9999OC101135REMMET12901/12/10 18:56:02 METAR KNHZ 122356Z 33012G22KT 10SM FEW120 M10/M17 A2992 RMK AO2 SLP140 4/005 T11001172 11039 21106 53020 $ (CT)
0192743920146112010011300567+43900-069933FM-15+0023KNHZ V0203305N005752200059N0160935N5-01065-01835101445ADDAA101000095GA1025+025915999GD11991+0259159GF102991999999999999999999MA1101395101115REMMET09701/12/10 19:56:01 METAR KNHZ 130056Z 33011KT 10SM FEW085 M11/M18 A2994 RMK AO2 SLP144 T11061183 $
0192743920146112010011301567+43900-069933FM-15+0023KNHZ V0203505N002652200059N0160935N5-01175-01835101455ADDAA101000095GA1045+024385999GD12991+0243859GF104991999999999999999999MA1101395101115REMMET09701/12/10 20:56:01 METAR KNHZ 130156Z 35005KT 10SM SCT080 M12/M18 A2994 RMK AO2 SLP145 T11171183 $
0178743920146112010011302567+43900-069933FM-15+0023KNHZ V0203205N003652200059N0160935N5-01285-01895101495ADDAA101000095GF100991999999999999999999MA1101425101155MD1140094+9999REMMET10001/12/10 21:56:01 METAR KNHZ 130256Z 32007KT 10SM CLR M13/M19 A2995 RMK AO2 SLP149 T11281189 51009 $
0158743920146112010011303567+43900-069933FM-15+0023KNHZ V0203405N003152200059N9999999N5-01335-01895101535ADDAA101000095GA1005+999999999GD10991+9999999MA1101465101185REMMET08901/12/10 22:56:01 METAR KNHZ 130356Z 34006KT CLR M13/M19 A2996 RMK AO2 SLP153 T11331189 $
0168743920146112010011304567+43900-069933FM-15+0023KNHZ V0203405N002152200059N9999999N5-01285-01835101535ADDAA101000095GA1005+999999999GD10991+9999999MA1101465101185REMMET09901/12/10 23:56:01 METAR KNHZ 130456Z 34004KT CLR M13/M18 A2996 RMK AO2 SLP153 T11281183 410221133 $
0910743920146112010011304596+43900-069933SOD  +0023KNHZ V020999999999999999999999999999+99999+99999999999ADDAA124000095KA1240M-00215KA2240N-01325MG1100974101084OE11240143135015385OE22240111835015385OE33240046999999995REMSOD75424 HR PRECIPITATION (IN):0.00  24 HR MAX TEMP (F):28 24 HR MAX TEMP TIME (LST):0511 24 HR MIN TEMP (F):8  24 HR MIN TEMP TIME (LST):2349 AVERAGE STATION PRESSURE:29.815 MINIMUM SEA LEVEL PRESSURE:29.85 TIME OF OCCURRENCE:1450 PEAK WIND SPEED (MPH):32  PEAK WIND DIR (DEG):350 PEAK WIND TIME (LST):1538  FASTEST 2MIN SPEED (MPH):25 FASTEST 2MIN DIR (DEG):350 FASTEST 2MIN TIME (LST):1538 AVERAGE WIND SPEED (MPH):10.5 24 HR AVG TEMP (F):18 DEPART FROM NORMAL: 0   HEATING DEGREE DAYS:47  COOLING DEGREE DAYS:0   LATEST DAY MAX TEMP (0700-1900 LST):26  LATEST NIGHT MIN TEMP(1900-0800 LST):25 HOURLY INCREMENTAL PRECIPITATION VALUES (IN):.00 0.00 0.00 0.00 0.00 0.00 0.00 0.00 0.00 0.00 0.00 0.00 0.00 0.00 0.00 0.00 0.00 0.00 0.00 0.00 0.00 0.00 0.00 0.00EQDR01     N7GJS072R02     N7GKS075
0216743920146112010011305567+43900-069933FM-15+0023KNHZ V0203605N001552200059N9999999N5-01395-01895101515ADDAA101000095GA1005+999999999GD10991+9999999KA1999M-01001KA2999N-01391MA1101465101185MD1040024+9999REMMET10701/13/10 00:56:02 METAR KNHZ 130556Z 36003KT CLR M14/M19 A2996 RMK AO2 SLP151 T11391189 11100 21139 50002 $
0158743920146112010011306567+43900-069933FM-15+0023KNHZ V0203505N003152200059N9999999N5-01395-01945101525ADDAA101000095GA1005+999999999GD10991+9999999MA1101465101185REMMET08901/13/10 01:56:02 METAR KNHZ 130656Z 35006KT CLR M14/M19 A2996 RMK AO2 SLP152 T11391194 $
0158743920146112010011307567+43900-069933FM-15+0023KNHZ V0202405N001552200059N9999999N5-01505-01895101535ADDAA101000095GA1005+999999999GD10991+9999999MA1101465101185REMMET08901/13/10 02:56:02 METAR KNHZ 130756Z 24003KT CLR M15/M19 A2996 RMK AO2 SLP153 T11501189 $
0178743920146112010011308567+43900-069933FM-15+0023KNHZ V0209999C000052200059N9999999N5-01615-01945101535ADDAA101000095GA1005+999999999GD10991+9999999MA1101465101185MD1140024+9999REMMET09501/13/10 03:56:02 METAR KNHZ 130856Z 00000KT CLR M16/M19 A2996 RMK AO2 SLP153 T11611194 51002 $
0158743920146112010011309567+43900-069933FM-15+0023KNHZ V0202805N001552200059N9999999N5-01335-02005101555ADDAA101000095GA1005+999999999GD10991+9999999MA1101495101215REMMET08901/13/10 04:56:02 METAR KNHZ 130956Z 28003KT CLR M13/M20 A2997 RMK AO2 SLP155 T11331200 $
0235743920146112010011310567+43900-069933FM-15+0023KNHZ V0202505N001552200059N0160935N5-01725-02115101615ADDAA101000095GA1025+030485999GA2045+060965999GD11991+0304859GD22991+0609659GF104991999999999999999999MA1101565101285REMMET10901/13/10 05:56:02 METAR KNHZ 131056Z 25003KT 10SM FEW100 SCT200 M17/M21 A2999 RMK AO2 SLP161 T11721211 $ (CP)
0329743920146112010011311567+43900-069933FM-15+0023KNHZ V0201405N001552200059N0160935N5-01565-02065101675ADDAA101000095AJ100139599999999GA1025+030485999GA2045+060965999GD11991+0304859GD22991+0609659GF104991999999999999999999KA1999M-01221KA2999N-01781MA1101595101315MD1340144+9999REMMET14601/13/10 06:56:02 METAR KNHZ 131156Z 14003KT 10SM FEW100 SCT200 M16/M21 A3000 RMK AO2 SLP167 ACSL DSNT NW 4/005 T11561206 11122 21178 53014 $ (CP)
0250743920146112010011312567+43900-069933FM-15+0023KNHZ V0209999C000052200059N0160935N5-01615-02065101705ADDAA101000095GA1025+027435999GA2045+060965999GD11991+0274359GD22991+0609659GF104991999999999999999999MA1101635101355REMMET12401/13/10 07:56:02 METAR KNHZ 131256Z 00000KT 10SM FEW090 SCT200 M16/M21 A3001 RMK AO2 SLP170 ACSL DSNT W-NW T11611206 $ (CP)
0248743920146112010011313567+43900-069933FM-15+0023KNHZ V0209999C000052200059N0160935N5-01175-02065101755ADDAA101000095GA1025+027435999GA2045+060965999GD11991+0274359GD22991+0609659GF104991999999999999999999MA1101695101425REMMET12201/13/10 08:56:02 METAR KNHZ 131356Z 00000KT 10SM FEW090 SCT200 M12/M21 A3003 RMK AO2 SLP175 ACSL DSNT NW T11171206 $ (CP)
0255743920146112010011314567+43900-069933FM-15+0023KNHZ V0203205N002652200059N0160935N5-00895-02115101795ADDAA101000095GA1025+030485999GA2045+060965999GD11991+0304859GD22991+0609659GF104991999999999999999999MA1101735101455MD1340124+9999REMMET11501/13/10 09:56:02 METAR KNHZ 131456Z 32005KT 10SM FEW100 SCT200 M09/M21 A3004 RMK AO2 SLP179 T10891211 53012 $ (CP)
0273743920146112010011315567+43900-069933FM-15+0023KNHZ V0203305N00465060965MN0160935N5-00675-02115101735ADDAA101000095GA1025+030485999GA2045+045725999GA3075+060965999GD11991+0304859GD22991+0457259GD33991+0609659GF107991999999999999999999MA1101665101385REMMET11601/13/10 10:56:02 METAR KNHZ 131556Z 33009KT 10SM FEW100 SCT150 BKN200 M07/M21 A3002 RMK AO2 SLP173 T10671211 $ (CP)
0273743920146112010011316567+43900-069933FM-15+0023KNHZ V0203205N00265060965MN0160935N5-00615-02175101645ADDAA101000095GA1025+030485999GA2045+045725999GA3075+060965999GD11991+0304859GD22991+0457259GD33991+0609659GF107991999999999999999999MA1101595101315REMMET11601/13/10 11:56:02 METAR KNHZ 131656Z 32005KT 10SM FEW100 SCT150 BKN200 M06/M22 A3000 RMK AO2 SLP164 T10611217 $ (CP)
0375743920146112010011317567+43900-069933FM-15+0023KNHZ V0203205N005752200059N0160935N5-00505-02225101605ADDAA101000095AJ100139599999999GA1025+027435999GA2045+045725999GA3045+060965999GD11991+0274359GD22991+0457259GD32991+0609659GF104991999999999999999999KA1999M-00501KA2999N-01611MA1101565101285MD1640184+9999REMMET16101/13/10 12:56:02 METAR KNHZ 131756Z 32011KT 10SM FEW090 SCT150 SCT200 M05/M22 A2999 RMK AO2 SLP160 ACSL DSNT W-N 4/005 933014 T10501222 11050 21161 56018 $ (CP)
0299743920146112010011318567+43900-069933FM-15+0023KNHZ V0203505N006252200059N0160935N5-00335-02225101595ADDAA101000095GA1025+027435999GA2045+045725999GA3045+060965999GD11991+0274359GD22991+0457259GD32991+0609659GF104991999999999999999999MA1101525101255OC100935REMMET13401/13/10 13:56:02 METAR KNHZ 131856Z 35012G18KT 10SM FEW090 SCT150 SCT200 M03/M22 A2998 RMK AO2 SLP159 ACSL DSNT NW-N T10331222 $ (CP)
0288743920146112010011319567+43900-069933FM-15+0023KNHZ V0203205N007252200059N0160935N5-00395-02175101605ADDAA101000095GA1025+027435999GA2045+045725999GA3045+060965999GD11991+0274359GD22991+0457259GD32991+0609659GF104991999999999999999999MA1101525101255REMMET13101/13/10 14:56:02 METAR KNHZ 131956Z 32014KT 10SM FEW090 SCT150 SCT200 M04/M22 A2998 RMK AO2 SLP160 ACSL DSNT NW-N T10391217 $ (CP)
0256743920146112010011320567+43900-069933FM-15+0023KNHZ V0203305N004152200059N0160935N5-00445-02175101645ADDAA101000095GA1025+030485999GA2045+060965999GD11991+0304859GD22991+0609659GF104991999999999999999999MA1101595101315MD1340034+9999REMMET11601/13/10 15:56:02 METAR KNHZ 132056Z 33008KT 10SM FEW100 SCT200 M04/M22 A3000 RMK AO2 SLP164 T10441217 53003 $ (RDG)
0236743920146112010011321567+43900-069933FM-15+0023KNHZ V0203005N005152200059N0160935N5-00565-02175101725ADDAA101000095GA1025+030485999GA2045+060965999GD11991+0304859GD22991+0609659GF104991999999999999999999MA1101665101385REMMET11001/13/10 16:56:02 METAR KNHZ 132156Z 30010KT 10SM FEW100 SCT200 M06/M22 A3002 RMK AO2 SLP172 T10561217 $ (RDG)
0236743920146112010011322567+43900-069933FM-15+0023KNHZ V0203005N005752200059N0160935N5-00675-02065101765ADDAA101000095GA1025+030485999GA2045+060965999GD11991+0304859GD22991+0609659GF104991999999999999999999MA1101695101425REMMET11001/13/10 17:56:02 METAR KNHZ 132256Z 30011KT 10SM FEW100 SCT200 M07/M21 A3003 RMK AO2 SLP176 T10671206 $ (RDG)
0317743920146112010011323567+43900-069933FM-15+0023KNHZ V0203205N00365060965MN0160935N5-00725-02065101835ADDAA101000095AJ100139599999999GA1045+030485999GA2075+060965999GD12991+0304859GD23991+0609659GF107991999999999999999999KA1999M-00281KA2999N-00721MA1101765101485MD1140194+9999REMMET13401/13/10 18:56:02 METAR KNHZ 132356Z 32007KT 10SM SCT100 BKN200 M07/M21 A3005 RMK AO2 SLP183 4/005 T10721206 11028 21072 51019 $ (RDG)
0230743920146112010011400567+43900-069933FM-15+0023KNHZ V0203205N00315060965MN0160935N5-00945-02005101875ADDAA101000095GA1045+030485999GA2075+060965999GD12991+0304859GD23991+0609659GF107991999999999999999999MA1101795101525REMMET10401/13/10 19:56:01 METAR KNHZ 140056Z 32006KT 10SM SCT100 BKN200 M09/M20 A3006 RMK AO2 SLP187 T10941200 $
0192743920146112010011401567+43900-069933FM-15+0023KNHZ V0203305N00265060965MN0160935N5-01065-02065101915ADDAA101000095GA1075+060965999GD13991+0609659GF107991999999999999999999MA1101835101555REMMET09701/13/10 20:56:01 METAR KNHZ 140156Z 33005KT 10SM BKN200 M11/M21 A3007 RMK AO2 SLP191 T11061206 $
0212743920146112010011402567+43900-069933FM-15+0023KNHZ V0200205N002152200059N0160935N5-01005-02005101955ADDAA101000095GA1045+060965999GD12991+0609659GF104991999999999999999999MA1101905101625MD1340134+9999REMMET10301/13/10 21:56:01 METAR KNHZ 140256Z 02004KT 10SM SCT200 M10/M20 A3009 RMK AO2 SLP195 T11001200 53013 $
0158743920146112010011403567+43900-069933FM-15+0023KNHZ V0209999C000052200059N9999999N5-01225-02065102025ADDAA101000095GA1005+999999999GD10991+9999999MA1101965101695REMMET08901/13/10 22:56:03 METAR KNHZ 140356Z 00000KT CLR M12/M21 A3011 RMK AO2 SLP202 T11221206 $
0168743920146112010011404567+43900-069933FM-15+0023KNHZ V0209999C000052200059N9999999N5-01505-02005102075ADDAA101000095GA1005+999999999GD10991+9999999MA1102005101725REMMET09901/13/10 23:56:01 METAR KNHZ 140456Z 00000KT CLR M15/M20 A3012 RMK AO2 SLP207 T11501200 410281178 $
0910743920146112010011404596+43900-069933SOD  +0023KNHZ V020999999999999999999999999999+99999+99999999999ADDAA124000095KA1240M-00275KA2240N-01775MG1101304101494OE11240102832014065OE22240080533014065OE33240027399999995REMSOD75424 HR PRECIPITATION (IN):0.00  24 HR MAX TEMP (F):27 24 HR MAX TEMP TIME (LST):1433 24 HR MIN TEMP (F):0  24 HR MIN TEMP TIME (LST):0606 AVERAGE STATION PRESSURE:29.915 MINIMUM SEA LEVEL PRESSURE:29.97 TIME OF OCCURRENCE:0120 PEAK WIND SPEED (MPH):23  PEAK WIND DIR (DEG):320 PEAK WIND TIME (LST):1406  FASTEST 2MIN SPEED (MPH):18 FASTEST 2MIN DIR (DEG):330 FASTEST 2MIN TIME (LST):1406 AVERAGE WIND SPEED (MPH):6.1  24 HR AVG TEMP (F):14 DEPART FROM NORMAL: -5  HEATING DEGREE DAYS:51  COOLING DEGREE DAYS:0   LATEST DAY MAX TEMP (0700-1900 LST):27  LATEST NIGHT MIN TEMP(1900-0800 LST):0  HOURLY INCREMENTAL PRECIPITATION VALUES (IN):.00 0.00 0.00 0.00 0.00 0.00 0.00 0.00 0.00 0.00 0.00 0.00 0.00 0.00 0.00 0.00 0.00 0.00 0.00 0.00 0.00 0.00 0.00 0.00EQDR01     N7GJS072R02     N7GKS075
0205743920146112010011405567+43900-069933FM-15+0023KNHZ V0209999C000052200059N9999999N5-01335-01945102145ADDGA1005+999999999GD10991+9999999KA1999M-00721KA2999N-01561MA1102075101795MD1240184+9999REMMET10701/14/10 00:56:02 METAR KNHZ 140556Z 00000KT CLR M13/M19 A3014 RMK AO2 SLP214 T11331194 11072 21156 52018 $
0147743920146112010011406567+43900-069933FM-15+0023KNHZ V0209999C000052200059N9999999N5-01565-01895102225ADDGA1005+999999999GD10991+9999999MA1102175101895REMMET08901/14/10 01:56:02 METAR KNHZ 140656Z 00000KT CLR M16/M19 A3017 RMK AO2 SLP222 T11561189 $
0147743920146112010011407567+43900-069933FM-15+0023KNHZ V0209999C000052200059N9999999N5-01615-02005102275ADDGA1005+999999999GD10991+9999999MA1102205101925REMMET08901/14/10 02:56:02 METAR KNHZ 140756Z 00000KT CLR M16/M20 A3018 RMK AO2 SLP227 T11611200 $
0167743920146112010011408567+43900-069933FM-15+0023KNHZ V0209999C000052200059N9999999N5-01565-01835102285ADDGA1005+999999999GD10991+9999999MA1102245101965MD1140144+9999REMMET09501/14/10 03:56:02 METAR KNHZ 140856Z 00000KT CLR M16/M18 A3019 RMK AO2 SLP228 T11561183 51014 $
0147743920146112010011409567+43900-069933FM-15+0023KNHZ V0209999C000052200059N9999999N5-01785-01945102335ADDGA1005+999999999GD10991+9999999MA1102275101995REMMET08901/14/10 04:56:02 METAR KNHZ 140956Z 00000KT CLR M18/M19 A3020 RMK AO2 SLP233 T11781194 $
0152743920146112010011410567+43900-069933FM-15+0023KNHZ V0209999C000052200059N0160935N5-01725-01945102395ADDGF100991999999999999999999MA1102345102065REMMET09901/14/10 05:56:02 METAR KNHZ 141056Z 00000KT 10SM CLR M17/M19 A3022 RMK AO2 SLP239 T11721194 $ (CP)
0233743920146112010011411567+43900-069933FM-15+0023KNHZ V0209999C000052200059N0160935N5-01945-02115102495ADDAJ100139599999999GF100991999999999999999999KA1999M-01331KA2999N-01941MA1102445102165MD1340214+9999REMMET12301/14/10 06:56:02 METAR KNHZ 141156Z 00000KT 10SM CLR M19/M21 A3025 RMK AO2 SLP249 4/005 T11941211 11133 21194 53021 $ (CP)
0186743920146112010011412567+43900-069933FM-15+0023KNHZ V0209999C000052200059N0160935N5-01785-02005102545ADDGA1025+060965999GD11991+0609659GF102991999999999999999999MA1102475102195REMMET10201/14/10 07:56:02 METAR KNHZ 141256Z 00000KT 10SM FEW200 M18/M20 A3026 RMK AO2 SLP254 T11781200 $ (CP)
0186743920146112010011413567+43900-069933FM-15+0023KNHZ V0200505N001552200059N0160935N5-01445-01835102575ADDGA1025+060965999GD11991+0609659GF102991999999999999999999MA1102515102235REMMET10201/14/10 08:56:02 METAR KNHZ 141356Z 05003KT 10SM FEW200 M14/M18 A3027 RMK AO2 SLP257 T11441183 $ (CP)
0206743920146112010011414567+43900-069933FM-15+0023KNHZ V0209999C000052200059N0160935N5-01005-01725102605ADDGA1025+060965999GD11991+0609659GF102991999999999999999999MA1102545102265MD1140114+9999REMMET10801/14/10 09:56:02 METAR KNHZ 141456Z 00000KT 10SM FEW200 M10/M17 A3028 RMK AO2 SLP260 T11001172 51011 $ (CP)
0186743920146112010011415567+43900-069933FM-15+0023KNHZ V0209999C000052200059N0160935N5-00785-01835102565ADDGA1025+060965999GD11991+0609659GF102991999999999999999999MA1102515102235REMMET10201/14/10 10:56:02 METAR KNHZ 141556Z 00000KT 10SM FEW200 M08/M18 A3027 RMK AO2 SLP256 T10781183 $ (CP)
0174743920146112010011416567+43900-069933FM-15+0023KNHZ V0209999C000052200059N0160935N5-00445-01665999999ADDGA1045+060965999GD12991+0609659GF104991999999999999999999MA1102575102295REMMET09001/14/10 11:56:01 METAR KNHZ 141656Z 00000KT 10SM SCT200 M04/M17 A3029 RMK SLPNO T10441166
0254743920146112010011417567+43900-069933FM-15+0023KNHZ V0202305N002652200059N0160935N5-00345-02015102415ADDAJ100139599999999GA1045+060965999GD12991+0609659GF104991999999999999999999KA1999M-00341KA2999N-01781MA1102345102065REMMET12701/14/10 12:56:02 METAR KNHZ 141756Z 23005KT 10SM SCT200 M03/M20 A3022 RMK AO2 SLP241 4/005 933017 T10341201 11034 21178 $ (CP)
0186743920146112010011418567+43900-069933FM-15+0023KNHZ V0202205N003652200059N0160935N5-00265-01985102415ADDGA1025+060965999GD11991+0609659GF102991999999999999999999MA1102345102065REMMET10201/14/10 13:56:02 METAR KNHZ 141856Z 22007KT 10SM FEW200 M03/M20 A3022 RMK AO2 SLP241 T10261198 $ (CP)
0197743920146112010011419567+43900-069933FM-15+0023KNHZ V0202005N003652200059N0160935N5-00265-01445102375ADDAA101000095GA1025+060965999GD11991+0609659GF102991999999999999999999MA1102305102025REMMET10201/14/10 14:56:02 METAR KNHZ 141956Z 20007KT 10SM FEW200 M03/M14 A3021 RMK AO2 SLP237 T10261144 $ (CP)
0184743920146112010011420567+43900-069933FM-15+0023KNHZ V0201705N002652200019N9999999N5-00335-01175102325ADDAA101000095MA1102275101995MD1840094+9999REMMET09701/14/10 15:56:02 METAR KNHZ 142056Z 17005KT M03/M12 A3020 RMK AO2 SLP232 T10331117 58009 $ (RDG)EQDR01      7SKY009R02      7GAS009
0164743920146112010011421567+43900-069933FM-15+0023KNHZ V0201505N001552200059N0160935N5-00395-01115102275ADDAA101000095GF100991999999999999999999MA1102205101925REMMET10001/14/10 16:56:02 METAR KNHZ 142156Z 15003KT 10SM CLR M04/M11 A3018 RMK AO2 SLP227 T10391111 $ (RDG)
0164743920146112010011422567+43900-069933FM-15+0023KNHZ V0209999C000052200059N0160935N5-00675-01175102235ADDAA101000095GF100991999999999999999999MA1102175101895REMMET10001/14/10 17:56:02 METAR KNHZ 142256Z 00000KT 10SM CLR M07/M12 A3017 RMK AO2 SLP223 T10671117 $ (RDG)
0245743920146112010011423567+43900-069933FM-15+0023KNHZ V0209999C000052200059N0160935N5-00895-01285102205ADDAA101000095AJ100139599999999GF100991999999999999999999KA1999M-00281KA2999N-00891MA1102135101865MD1640124+9999REMMET12401/14/10 18:56:02 METAR KNHZ 142356Z 00000KT 10SM CLR M09/M13 A3016 RMK AO2 SLP220 4/005 T10891128 11028 21089 56012 $ (RDG)
0158743920146112010011500567+43900-069933FM-15+0023KNHZ V0201705N001552200059N0160935N5-00835-01175102135ADDAA101000095GF100991999999999999999999MA1102075101795REMMET09401/14/10 19:56:01 METAR KNHZ 150056Z 17003KT 10SM CLR M08/M12 A3014 RMK AO2 SLP213 T10831117 $
0192743920146112010011501567+43900-069933FM-15+0023KNHZ V0201805N00155010675MN0160935N5-00335-00675102055ADDAA101000095GA1085+010675999GD14991+0106759GF108991999999999999999999MA1102005101725REMMET09701/14/10 20:56:01 METAR KNHZ 150156Z 18003KT 10SM OVC035 M03/M07 A3012 RMK AO2 SLP205 T10331067 $
0212743920146112010011502567+43900-069933FM-15+0023KNHZ V0202005N005752200059N0160935N5-00065-00565101985ADDAA101000095GA1045+010675999GD12991+0106759GF104991999999999999999999MA1101905101625MD1840224+9999REMMET10301/14/10 21:56:01 METAR KNHZ 150256Z 20011KT 10SM SCT035 M01/M06 A3009 RMK AO2 SLP198 T10061056 58022 $
0157743920146112010011503567+43900-069933FM-15+0023KNHZ V0202005N007252200059N9999999N5+00005-00445101875ADDAA101000095GA1005+999999999GD10991+9999999MA1101795101525REMMET08801/14/10 22:56:01 METAR KNHZ 150356Z 20014KT CLR 00/M04 A3006 RMK AO2 SLP187 T00001044 $
0167743920146112010011504567+43900-069933FM-15+0023KNHZ V0202105N005752200059N9999999N5+00065-00335101805ADDAA101000095GA1005+999999999GD10991+9999999MA1101735101455REMMET09801/14/10 23:56:01 METAR KNHZ 150456Z 21011KT CLR 01/M03 A3004 RMK AO2 SLP180 T00061033 400061194 $
0870743920146112010011504596+43900-069933SOD  +0023KNHZ V020999999999999999999999999999+99999+99999999999ADDAA124000095KA1240M+00065KA2240N-01935MG1101964101794OE11240111820022195OE22240093920022215OE33240015699999995REMSOD71424 HR PRECIPITATION (IN):0.00  24 HR MAX TEMP (F):33 24 HR MAX TEMP TIME (LST):2357 24 HR MIN TEMP (F):-3 24 HR MIN TEMP TIME (LST):0659 AVERAGE STATION PRESSURE:30.110 MINIMUM SEA LEVEL PRESSURE:30.06 TIME OF OCCURRENCE:2359 PEAK WIND SPEED (MPH):25  PEAK WIND DIR (DEG):200 PEAK WIND TIME (LST):2219  FASTEST 2MIN SPEED (MPH):21 FASTEST 2MIN DIR (DEG):200 FASTEST 2MIN TIME (LST):2221 AVERAGE WIND SPEED (MPH):3.5  24 HR AVG TEMP (F):15 DEPART FROM NORMAL: -3  HEATING DEGREE DAYS:50  COOLING DEGREE DAYS:0   LATEST NIGHT MIN TEMP(1900-0800 LST):-3 HOURLY INCREMENTAL PRECIPITATION VALUES (IN):    M    M    M    M    M    M    M    M    M    M    M    M    M    0.00 0.00 0.00 0.00 0.00 0.00 0.00 0.00 0.00 0.00EQDR01     N7GJS072R02     N7GKS075
0222743920146112010011505567+43900-069933FM-15+0023KNHZ V0202205N004652200059N9999999N5-00115-00565101765ADDAA101000095GA1005+999999999GD10991+9999999KA1999M+00061KA2999N-00891MA1101695101425MD1640224+9999REMMET11301/15/10 00:56:02 METAR KNHZ 150556Z 22009KT CLR M01/M06 A3003 RMK AO2 SLP176 T10111056 10006 21089 56022 $ (RDG)
0164743920146112010011506567+43900-069933FM-15+0023KNHZ V0209999C000052200059N9999999N5-00225-00615101765ADDAA101000095GA1005+999999999GD10991+9999999MA1101695101425REMMET09501/15/10 01:56:02 METAR KNHZ 150656Z 00000KT CLR M02/M06 A3003 RMK AO2 SLP176 T10221061 $ (RDG)
0164743920146112010011507567+43900-069933FM-15+0023KNHZ V0201905N003652200059N9999999N5-00285-00615101685ADDAA101000095GA1005+999999999GD10991+9999999MA1101635101355REMMET09501/15/10 02:56:02 METAR KNHZ 150756Z 19007KT CLR M03/M06 A3001 RMK AO2 SLP168 T10281061 $ (RDG)
0184743920146112010011508567+43900-069933FM-15+0023KNHZ V0202105N003652200059N9999999N5-00285-00615101565ADDAA101000095GA1005+999999999GD10991+9999999MA1101495101215MD1840194+9999REMMET10101/15/10 03:56:02 METAR KNHZ 150856Z 21007KT CLR M03/M06 A2997 RMK AO2 SLP156 T10281061 58019 $ (RDG)
0164743920146112010011509567+43900-069933FM-15+0023KNHZ V0201705N001552200059N9999999N5-00225-00565101485ADDAA101000095GA1005+999999999GD10991+9999999MA1101425101155REMMET09501/15/10 04:56:02 METAR KNHZ 150956Z 17003KT CLR M02/M06 A2995 RMK AO2 SLP148 T10221056 $ (RDG)
0235743920146112010011510567+43900-069933FM-15+0023KNHZ V0209999C000052200059N0160935N5-00505-00675101495ADDAA101000095GA1045+060965999GA2045+076205999GD12991+0609659GD22991+0762059GF104991999999999999999999MA1101425101155REMMET10901/15/10 05:56:02 METAR KNHZ 151056Z 00000KT 10SM SCT200 SCT250 M05/M07 A2995 RMK AO2 SLP149 T10501067 $ (CT)
0354743920146112010011511567+43900-069933FM-15+0023KNHZ V0209999C00005060965MN0160935N5-00675-00725101445ADDAA101000095AJ100139599999999GA1045+018295999GA2075+060965999GA3075+076205999GD12991+0182959GD23991+0609659GD33991+0762059GF107991999999999999999999KA1999M-00111KA2999N-00671MA1101395101115MD1640124+9999REMMET14001/15/10 06:56:02 METAR KNHZ 151156Z 00000KT 10SM SCT060 BKN200 BKN250 M07/M07 A2994 RMK AO2 SLP144 4/005 T10671072 11011 21067 56012 $ (CT)
0235743920146112010011512567+43900-069933FM-15+0023KNHZ V0209999C00005018295MN0160935N5-00335-00565101425ADDAA101000095GA1075+018295999GA2085+060965999GD13991+0182959GD24991+0609659GF108991999999999999999999MA1101355101085REMMET10901/15/10 07:56:02 METAR KNHZ 151256Z 00000KT 10SM BKN060 OVC200 M03/M06 A2993 RMK AO2 SLP142 T10331056 $ (CT)
0196743920146112010011513567+43900-069933FM-15+0023KNHZ V0209999C00005018295MN0112655N5-00285-00505101495ADDAA101000095GA1085+018295999GD14991+0182959GF108991999999999999999999MA1101425101155REMMET10101/15/10 08:56:02 METAR KNHZ 151356Z 00000KT 7SM OVC060 M03/M05 A2995 RMK AO2 SLP149 T10281050 $ (CT)
0216743920146112010011514567+43900-069933FM-15+0023KNHZ V0209999C00005018295MN0112655N5-00175-00505101515ADDAA101000095GA1085+018295999GD14991+0182959GF108991999999999999999999MA1101465101185MD1340074+9999REMMET10701/15/10 09:56:02 METAR KNHZ 151456Z 00000KT 7SM OVC060 M02/M05 A2996 RMK AO2 SLP151 T10171050 53007 $ (CT)
0233743920146112010011515567+43900-069933FM-15+0023KNHZ V0209999C00005016765MN0128755N5+00005-00445101435ADDAA101000095GA1075+016765999GA2075+060965999GD13991+0167659GD23991+0609659GF107991999999999999999999MA1101395101115REMMET10701/15/10 10:56:02 METAR KNHZ 151556Z 00000KT 8SM BKN055 BKN200 00/M04 A2994 RMK AO2 SLP143 T00001044 $ (CT)
0233743920146112010011516567+43900-069933FM-15+0023KNHZ V0202705N00155016765MN0144845N5+00225-00285101325ADDAA101000095GA1075+016765999GA2075+060965999GD13991+0167659GD23991+0609659GF107991999999999999999999MA1101255100985REMMET10701/15/10 11:56:02 METAR KNHZ 151656Z 27003KT 9SM BKN055 BKN200 02/M03 A2990 RMK AO2 SLP132 T00221028 $ (CT)
0321743920146112010011517567+43900-069933FM-15+0023KNHZ V0209999C00005016765MN0144845N5+00445-00335101285ADDAA101000095AJ100139599999999GA1075+016765999GA2075+060965999GD13991+0167659GD23991+0609659GF107991999999999999999999KA1999M+00441KA2999N-00611MA1101225100945MD1640224+9999REMMET13801/15/10 12:56:02 METAR KNHZ 151756Z 00000KT 9SM BKN055 BKN200 04/M03 A2989 RMK AO2 SLP128 4/005 933015 T00441033 10044 21061 56022 $ (CT)
0197743920146112010011518567+43900-069933FM-15+0023KNHZ V0202705N00215013415MN0160935N5+00445-00225101285ADDAA101000095GA1085+013415999GD14991+0134159GF108991999999999999999999MA1101225100945REMMET10201/15/10 13:56:02 METAR KNHZ 151856Z 27004KT 10SM OVC044 04/M02 A2989 RMK AO2 SLP128 T00441022 $ (RDG)
0197743920146112010011519567+43900-069933FM-15+0023KNHZ V0202505N00215014025MN0160935N5+00445-00225101305ADDAA101000095GA1085+014025999GD14991+0140259GF108991999999999999999999MA1101255100985REMMET10201/15/10 14:56:02 METAR KNHZ 151956Z 25004KT 10SM OVC046 04/M02 A2990 RMK AO2 SLP130 T00441022 $ (RDG)
0217743920146112010011520567+43900-069933FM-15+0023KNHZ V0202205N00215013415MN0160935N5+00285-00175101405ADDAA101000095GA1085+013415999GD14991+0134159GF108991999999999999999999MA1101355101085MD1340114+9999REMMET10801/15/10 15:56:02 METAR KNHZ 152056Z 22004KT 10SM OVC044 03/M02 A2993 RMK AO2 SLP140 T00281017 53011 $ (RDG)
0197743920146112010011521567+43900-069933FM-15+0023KNHZ V0202605N00215015245MN0160935N5+00225-00175101485ADDAA101000095GA1085+015245999GD14991+0152459GF108991999999999999999999MA1101425101155REMMET10201/15/10 16:56:02 METAR KNHZ 152156Z 26004KT 10SM OVC050 02/M02 A2995 RMK AO2 SLP148 T00221017 $ (RDG)
0197743920146112010011522567+43900-069933FM-15+0023KNHZ V0203005N003152200059N0160935N5+00335-00175101515ADDAA101000095GA1025+018295999GD11991+0182959GF102991999999999999999999MA1101465101185REMMET10201/15/10 17:56:02 METAR KNHZ 152256Z 30006KT 10SM FEW060 03/M02 A2996 RMK AO2 SLP151 T00331017 $ (RDG)
0278743920146112010011523567+43900-069933FM-15+0023KNHZ V0203105N002652200059N0160935N5+00395-00175101565ADDAA101000095AJ100109599999999GA1045+013415999GD12991+0134159GF104991999999999999999999KA1999M+00501KA2999N+00221MA1101495101215MD1140164+9999REMMET12601/15/10 18:56:02 METAR KNHZ 152356Z 31005KT 10SM SCT044 04/M02 A2997 RMK AO2 SLP156 4/004 T00391017 10050 20022 51016 $ (RDG)
0191743920146112010011600567+43900-069933FM-15+0023KNHZ V0202805N002652200059N0160935N5+00285-00225101595ADDAA101000095GA1045+013115999GD12991+0131159GF104991999999999999999999MA1101525101255REMMET09601/15/10 19:56:01 METAR KNHZ 160056Z 28005KT 10SM SCT043 03/M02 A2998 RMK AO2 SLP159 T00281022 $
0191743920146112010011601567+43900-069933FM-15+0023KNHZ V0202605N00315011285MN0160935N5+00225-00225101635ADDAA101000095GA1085+011285999GD14991+0112859GF108991999999999999999999MA1101565101285REMMET09601/15/10 20:56:01 METAR KNHZ 160156Z 26006KT 10SM OVC037 02/M02 A2999 RMK AO2 SLP163 T00221022 $
0211743920146112010011602567+43900-069933FM-15+0023KNHZ V0203005N00365010675MN0160935N5+00335-00225101695ADDAA101000095GA1085+010675999GD14991+0106759GF108991999999999999999999MA1101635101355MD1340144+9999REMMET10201/15/10 21:56:01 METAR KNHZ 160256Z 30007KT 10SM OVC035 03/M02 A3001 RMK AO2 SLP169 T00331022 53014 $
0157743920146112010011603567+43900-069933FM-15+0023KNHZ V0209999C000052200059N9999999N5+00005-00335101725ADDAA101000095GA1005+999999999GD10991+9999999MA1101665101385REMMET08801/15/10 22:56:01 METAR KNHZ 160356Z 00000KT CLR 00/M03 A3002 RMK AO2 SLP172 T00001033 $
0168743920146112010011604567+43900-069933FM-15+0023KNHZ V0202105N003152200059N9999999N5-00115-00395101715ADDAA101000095GA1005+999999999GD10991+9999999MA1101665101385REMMET09901/15/10 23:56:01 METAR KNHZ 160456Z 21006KT CLR M01/M04 A3002 RMK AO2 SLP171 T10111039 400501067 $
0910743920146112010011604596+43900-069933SOD  +0023KNHZ V020999999999999999999999999999+99999+99999999999ADDAA124000095KA1240M+00505KA2240N-00665MG1101174101254OE11240089429018475OE22240071530018455OE33240017099999995REMSOD75424 HR PRECIPITATION (IN):0.00  24 HR MAX TEMP (F):41 24 HR MAX TEMP TIME (LST):1428 24 HR MIN TEMP (F):20 24 HR MIN TEMP TIME (LST):0656 AVERAGE STATION PRESSURE:29.875 MINIMUM SEA LEVEL PRESSURE:29.90 TIME OF OCCURRENCE:1324 PEAK WIND SPEED (MPH):20  PEAK WIND DIR (DEG):290 PEAK WIND TIME (LST):1847  FASTEST 2MIN SPEED (MPH):16 FASTEST 2MIN DIR (DEG):300 FASTEST 2MIN TIME (LST):1845 AVERAGE WIND SPEED (MPH):3.8  24 HR AVG TEMP (F):31 DEPART FROM NORMAL:+11  HEATING DEGREE DAYS:34  COOLING DEGREE DAYS:0   LATEST DAY MAX TEMP (0700-1900 LST):41  LATEST NIGHT MIN TEMP(1900-0800 LST):16 HOURLY INCREMENTAL PRECIPITATION VALUES (IN):.00 0.00 0.00 0.00 0.00 0.00 0.00 0.00 0.00 0.00 0.00 0.00 0.00 0.00 0.00 0.00 0.00 0.00 0.00 0.00 0.00 0.00 0.00 0.00EQDR01     N7GJS072R02     N7GKS075
0216743920146112010011605567+43900-069933FM-15+0023KNHZ V0202405N002152200059N9999999N5-00225-00445101725ADDAA101000095GA1005+999999999GD10991+9999999KA1999M+00391KA2999N-00221MA1101665101385MD1140034+9999REMMET10701/16/10 00:56:02 METAR KNHZ 160556Z 24004KT CLR M02/M04 A3002 RMK AO2 SLP172 T10221044 10039 21022 51003 $
0158743920146112010011606567+43900-069933FM-15+0023KNHZ V0202105N002652200059N9999999N5-00225-00395101725ADDAA101000095GA1005+999999999GD10991+9999999MA1101665101385REMMET08901/16/10 01:56:02 METAR KNHZ 160656Z 21005KT CLR M02/M04 A3002 RMK AO2 SLP172 T10221039 $
0158743920146112010011607567+43900-069933FM-15+0023KNHZ V0209999C000052200059N9999999N5-00065-00335101665ADDAA101000095GA1005+999999999GD10991+9999999MA1101595101315REMMET08901/16/10 02:56:02 METAR KNHZ 160756Z 00000KT CLR M01/M03 A3000 RMK AO2 SLP166 T10061033 $
0178743920146112010011608567+43900-069933FM-15+0023KNHZ V0202505N003152200059N9999999N5-00445-00565101655ADDAA101000095GA1005+999999999GD10991+9999999MA1101595101315MD1840074+9999REMMET09501/16/10 03:56:02 METAR KNHZ 160856Z 25006KT CLR M04/M06 A3000 RMK AO2 SLP165 T10441056 58007 $
0158743920146112010011609567+43900-069933FM-15+0023KNHZ V0202305N003652200059N9999999N5-00285-00395101645ADDAA101000095GA1005+999999999GD10991+9999999MA1101595101315REMMET08901/16/10 04:56:02 METAR KNHZ 160956Z 23007KT CLR M03/M04 A3000 RMK AO2 SLP164 T10281039 $
0158743920146112010011610567+43900-069933FM-15+0023KNHZ V0202405N001552200059N9999999N5-00285-00395101605ADDAA101000095GA1005+999999999GD10991+9999999MA1101565101285REMMET08901/16/10 05:56:02 METAR KNHZ 161056Z 24003KT CLR M03/M04 A2999 RMK AO2 SLP160 T10281039 $
0190743920146112010011611567+43900-069933FM-15+0023KNHZ V0202005N001552200059N9999999N5-00335-00445101645ADDAA101000095GA1005+999999999GD10991+9999999MA1101595101315MD1540004+9999REMMET10701/16/10 06:56:02 METAR KNHZ 161156Z 20003KT CLR M03/M04 A3000 RMK AO2 SLP164 T10331044 11006 21044 55000 $
0158743920146112010011612567+43900-069933FM-15+0023KNHZ V0202105N002152200059N9999999N5-00335-00505101605ADDAA101000095GA1005+999999999GD10991+9999999MA1101525101255REMMET08901/16/10 07:56:02 METAR KNHZ 161256Z 21004KT CLR M03/M05 A2998 RMK AO2 SLP160 T10331050 $
0158743920146112010011613567+43900-069933FM-15+0023KNHZ V0202405N002652200059N9999999N5-00115-00335101595ADDAA101000095GA1005+999999999GD10991+9999999MA1101525101255REMMET08901/16/10 08:56:02 METAR KNHZ 161356Z 24005KT CLR M01/M03 A2998 RMK AO2 SLP159 T10111033 $
0177743920146112010011614567+43900-069933FM-15+0023KNHZ V0209999C000052200059N9999999N5+00115-00335101575ADDAA101000095GA1005+999999999GD10991+9999999MA1101525101255MD1640064+9999REMMET09401/16/10 09:56:02 METAR KNHZ 161456Z 00000KT CLR 01/M03 A2998 RMK AO2 SLP157 T00111033 56006 $
0157743920146112010011615567+43900-069933FM-15+0023KNHZ V0202705N002652200019N9999999N5+00335-00335101505ADDAA101000095MA1101465101185REMMET08401/16/10 10:56:02 METAR KNHZ 161556Z 27005KT 03/M03 A2996 RMK AO2 SLP150 T00331033 $EQDR01      7SKY009R02      7GAS009
0157743920146112010011616567+43900-069933FM-15+0023KNHZ V0202905N003652200059N9999999N5+00445-00335101485ADDAA101000095GA1005+999999999GD10991+9999999MA1101425101155REMMET08801/16/10 11:56:02 METAR KNHZ 161656Z 29007KT CLR 04/M03 A2995 RMK AO2 SLP148 T00441033 $
0215743920146112010011617567+43900-069933FM-15+0023KNHZ V0203105N003152200059N9999999N5+00565-00335101375ADDAA101000095GA1005+999999999GD10991+9999999KA1999M+00611KA2999N-00391MA1101325101045MD1840204+9999REMMET10601/16/10 12:56:02 METAR KNHZ 161756Z 31006KT CLR 06/M03 A2992 RMK AO2 SLP137 T00561033 10061 21039 58020 $
0157743920146112010011618567+43900-069933FM-15+0023KNHZ V0203305N004652200059N9999999N5+00615-00335101345ADDAA101000095GA1005+999999999GD10991+9999999MA1101295101015REMMET08801/16/10 13:56:02 METAR KNHZ 161856Z 33009KT CLR 06/M03 A2991 RMK AO2 SLP134 T00611033 $
0157743920146112010011619567+43900-069933FM-15+0023KNHZ V0203105N005152200059N9999999N5+00615-00335101435ADDAA101000095GA1005+999999999GD10991+9999999MA1101395101115REMMET08801/16/10 14:56:02 METAR KNHZ 161956Z 31010KT CLR 06/M03 A2994 RMK AO2 SLP143 T00611033 $
0177743920146112010011620567+43900-069933FM-15+0023KNHZ V0203405N003652200059N9999999N5+00505-00335101485ADDAA101000095GA1005+999999999GD10991+9999999MA1101425101155MD1340104+9999REMMET09401/16/10 15:56:02 METAR KNHZ 162056Z 34007KT CLR 05/M03 A2995 RMK AO2 SLP148 T00501033 53010 $
0157743920146112010011621567+43900-069933FM-15+0023KNHZ V0203305N002652200059N9999999N5+00395-00335101575ADDAA101000095GA1005+999999999GD10991+9999999MA1101525101255REMMET08801/16/10 16:56:02 METAR KNHZ 162156Z 33005KT CLR 04/M03 A2998 RMK AO2 SLP157 T00391033 $
0157743920146112010011622567+43900-069933FM-15+0023KNHZ V0203405N003652200059N9999999N5+00225-00335101645ADDAA101000095GA1005+999999999GD10991+9999999MA1101565101285REMMET08801/16/10 17:56:02 METAR KNHZ 162256Z 34007KT CLR 02/M03 A2999 RMK AO2 SLP164 T00221033 $
0215743920146112010011623567+43900-069933FM-15+0023KNHZ V0200205N001552200059N9999999N5+00225-00335101735ADDAA101000095GA1005+999999999GD10991+9999999KA1999M+00671KA2999N+00111MA1101665101385MD1240244+9999REMMET10601/16/10 18:56:02 METAR KNHZ 162356Z 02003KT CLR 02/M03 A3002 RMK AO2 SLP173 T00221033 10067 20011 52024 $
0157743920146112010011700567+43900-069933FM-15+0023KNHZ V0203205N004152200059N9999999N5+00285-00335101815ADDAA101000095GA1005+999999999GD10991+9999999MA1101735101455REMMET08801/16/10 19:56:01 METAR KNHZ 170056Z 32008KT CLR 03/M03 A3004 RMK AO2 SLP181 T00281033 $
0160743920146112010011701567+43900-069933FM-15+0023KNHZ V0203205N006252200059N9999999N5+00225-00335101805ADDAA101000095GA1025+015245999GD11991+0152459MA1101735101455REMMET09101/16/10 20:56:01 METAR KNHZ 170156Z 32012KT FEW050 02/M03 A3004 RMK AO2 SLP180 T00221033 $
0177743920146112010011702567+43900-069933FM-15+0023KNHZ V0203205N002152200059N9999999N5+00225-00335101905ADDAA101000095GA1005+999999999GD10991+9999999MA1101865101595MD1340184+9999REMMET09401/16/10 21:56:01 METAR KNHZ 170256Z 32004KT CLR 02/M03 A3008 RMK AO2 SLP190 T00221033 53018 $
0157743920146112010011703567+43900-069933FM-15+0023KNHZ V0203305N003652200059N9999999N5+00175-00395101875ADDAA101000095GA1005+999999999GD10991+9999999MA1101835101555REMMET08801/16/10 22:56:01 METAR KNHZ 170356Z 33007KT CLR 02/M04 A3007 RMK AO2 SLP187 T00171039 $
0170743920146112010011704567+43900-069933FM-15+0023KNHZ V0209999C00005012195MN9999999N5+00115-00395101905ADDAA101000095GA1085+012195999GD14991+0121959MA1101865101595REMMET10101/16/10 23:56:01 METAR KNHZ 170456Z 00000KT OVC040 01/M04 A3008 RMK AO2 SLP190 T00111039 400671044 $
0910743920146112010011704596+43900-069933SOD  +0023KNHZ V020999999999999999999999999999+99999+99999999999ADDAA124000095KA1240M+00675KA2240N-00435MG1101294101324OE11240089435021145OE22240067134013135OE33240027399999995REMSOD75424 HR PRECIPITATION (IN):0.00  24 HR MAX TEMP (F):44 24 HR MAX TEMP TIME (LST):1445 24 HR MIN TEMP (F):24 24 HR MIN TEMP TIME (LST):0624 AVERAGE STATION PRESSURE:29.910 MINIMUM SEA LEVEL PRESSURE:29.92 TIME OF OCCURRENCE:1356 PEAK WIND SPEED (MPH):20  PEAK WIND DIR (DEG):350 PEAK WIND TIME (LST):2114  FASTEST 2MIN SPEED (MPH):15 FASTEST 2MIN DIR (DEG):340 FASTEST 2MIN TIME (LST):1313 AVERAGE WIND SPEED (MPH):6.1  24 HR AVG TEMP (F):34 DEPART FROM NORMAL:+17  HEATING DEGREE DAYS:31  COOLING DEGREE DAYS:0   LATEST DAY MAX TEMP (0700-1900 LST):44  LATEST NIGHT MIN TEMP(1900-0800 LST):24 HOURLY INCREMENTAL PRECIPITATION VALUES (IN):.00 0.00 0.00 0.00 0.00 0.00 0.00 0.00 0.00 0.00 0.00 0.00 0.00 0.00 0.00 0.00 0.00 0.00 0.00 0.00 0.00 0.00 0.00 0.00EQDR01     N7GJS072R02     N7GKS075
0218743920146112010011705567+43900-069933FM-15+0023KNHZ V0202905N00465012805MN9999999N5+00175-00335101935ADDAA101000095GA1085+012805999GD14991+0128059KA1999M+00281KA2999N+00061MA1101905101625MD1340034+9999REMMET10901/17/10 00:56:02 METAR KNHZ 170556Z 29009KT OVC042 02/M03 A3009 RMK AO2 SLP193 T00171033 10028 20006 53003 $
0160743920146112010011706567+43900-069933FM-15+0023KNHZ V0203405N00315012805MN9999999N5+00175-00335101945ADDAA101000095GA1075+012805999GD13991+0128059MA1101905101625REMMET09101/17/10 01:56:02 METAR KNHZ 170656Z 34006KT BKN042 02/M03 A3009 RMK AO2 SLP194 T00171033 $
0160743920146112010011707567+43900-069933FM-15+0023KNHZ V0202905N00265012195MN9999999N5+00225-00335101995ADDAA101000095GA1085+012195999GD14991+0121959MA1101935101655REMMET09101/17/10 02:56:02 METAR KNHZ 170756Z 29005KT OVC040 02/M03 A3010 RMK AO2 SLP199 T00221033 $
0180743920146112010011708567+43900-069933FM-15+0023KNHZ V0203005N00265013415MN9999999N5+00065-00335102075ADDAA101000095GA1085+013415999GD14991+0134159MA1102035101755MD1340144+9999REMMET09701/17/10 03:56:02 METAR KNHZ 170856Z 30005KT OVC044 01/M03 A3013 RMK AO2 SLP207 T00061033 53014 $
0157743920146112010011709567+43900-069933FM-15+0023KNHZ V0200305N001552200059N9999999N5+00115-00395102055ADDAA101000095GA1005+999999999GD10991+9999999MA1102005101725REMMET08801/17/10 04:56:02 METAR KNHZ 170956Z 03003KT CLR 01/M04 A3012 RMK AO2 SLP205 T00111039 $
0157743920146112010011710567+43900-069933FM-15+0023KNHZ V0200405N003652200059N9999999N5+00065-00335102085ADDAA101000095GA1005+999999999GD10991+9999999MA1102035101755REMMET08801/17/10 05:56:02 METAR KNHZ 171056Z 04007KT CLR 01/M03 A3013 RMK AO2 SLP208 T00061033 $
0218743920146112010011711567+43900-069933FM-15+0023KNHZ V0200605N00365011285MN9999999N5+00005-00335102145ADDAA101000095GA1085+011285999GD14991+0112859KA1999M+00221KA2999N+00001MA1102105101825MD1340074+9999REMMET10901/17/10 06:56:02 METAR KNHZ 171156Z 06007KT OVC037 00/M03 A3015 RMK AO2 SLP214 T00001033 10022 20000 53007 $
0160743920146112010011712567+43900-069933FM-15+0023KNHZ V0200705N00265011285MN9999999N5+00005-00445102265ADDAA101000095GA1085+011285999GD14991+0112859MA1102205101925REMMET09101/17/10 07:56:02 METAR KNHZ 171256Z 07005KT OVC037 00/M04 A3018 RMK AO2 SLP226 T00001044 $
0161743920146112010011713567+43900-069933FM-15+0023KNHZ V0200705N00365011285MN9999999N5-00065-00725102365ADDAA101000095GA1085+011285999GD14991+0112859MA1102305102025REMMET09201/17/10 08:56:02 METAR KNHZ 171356Z 07007KT OVC037 M01/M07 A3021 RMK AO2 SLP236 T10061072 $
0180743920146112010011714567+43900-069933FM-15+0023KNHZ V0209999C00005011285MN9999999N5+00005-00725102365ADDAA101000095GA1085+011285999GD14991+0112859MA1102305102025MD1140224+9999REMMET09701/17/10 09:56:02 METAR KNHZ 171456Z 00000KT OVC037 00/M07 A3021 RMK AO2 SLP236 T00001072 51022 $
0199743920146112010011715567+43900-069933FM-15+0023KNHZ V0209999V00215012505MN9999999N5-00065-00835102335ADDAA101000095GA1025+008845999GA2085+012505999GD11991+0088459GD24991+0125059MA1102275101995REMMET09901/17/10 10:56:02 METAR KNHZ 171556Z VRB04KT FEW029 OVC041 M01/M08 A3020 RMK AO2 SLP233 T10061083 $
0171743920146112010011716347+43900-069933FM-16+0023KNHZ V0200605N00215008235MN9999999N5-00105-00905999999ADDGA1075+008235999GA2085+012505999GD13991+0082359GD24991+0125059MA1102175101895REMMET08201/17/10 11:34:02 SPECI KNHZ 171634Z 06004KT BKN027 OVC041 M01/M09 A3017 RMK AO2 $
0161743920146112010011716567+43900-069933FM-15+0023KNHZ V0200705N00215008235MN9999999N5-00065-00945102205ADDAA101000095GA1085+008235999GD14991+0082359MA1102135101865REMMET09201/17/10 11:56:02 METAR KNHZ 171656Z 07004KT OVC027 M01/M09 A3016 RMK AO2 SLP220 T10061094 $
0219743920146112010011717567+43900-069933FM-15+0023KNHZ V0209999V00215008845MN9999999N5-00115-01065102145ADDAA101000095GA1085+008845999GD14991+0088459KA1999M+00061KA2999N-00111MA1102105101825MD1840224+9999REMMET11001/17/10 12:56:02 METAR KNHZ 171756Z VRB04KT OVC029 M01/M11 A3015 RMK AO2 SLP214 T10111106 10006 21011 58022 $
0133743920146112010011718197+43900-069933FM-16+0023KNHZ V0200705N00265010065MN9999999N5-00205-01205999999ADDGA1085+010065999GD14991+0100659MA1102075101795REMMET07501/17/10 13:19:02 SPECI KNHZ 171819Z 07005KT OVC033 M02/M12 A3014 RMK AO2 $
0199743920146112010011718567+43900-069933FM-15+0023KNHZ V0209999V00215010675MN9999999N5-00175-01115102155ADDAA101000095GA1025+008845999GA2085+010675999GD11991+0088459GD24991+0106759MA1102105101825REMMET09901/17/10 13:56:02 METAR KNHZ 171856Z VRB04KT FEW029 OVC035 M02/M11 A3015 RMK AO2 SLP215 T10171111 $
0161743920146112010011719567+43900-069933FM-15+0023KNHZ V0200705N00265009755MN9999999N5-00175-00945102135ADDAA101000095GA1085+009755999GD14991+0097559MA1102075101795REMMET09201/17/10 14:56:02 METAR KNHZ 171956Z 07005KT OVC032 M02/M09 A3014 RMK AO2 SLP213 T10171094 $
0219743920146112010011720567+43900-069933FM-15+0023KNHZ V0200705N00265010675MN9999999N5-00175-00785102125ADDAA101000095GA1025+009145999GA2085+010675999GD11991+0091459GD24991+0106759MA1102075101795MD1840034+9999REMMET10501/17/10 15:56:02 METAR KNHZ 172056Z 07005KT FEW030 OVC035 M02/M08 A3014 RMK AO2 SLP212 T10171078 58003 $
0171743920146112010011721517+43900-069933FM-16+0023KNHZ V0200605N00265008845MN9999999N5-00205-00805999999ADDGA1075+008845999GA2085+010975999GD13991+0088459GD24991+0109759MA1102075101795REMMET08201/17/10 16:51:02 SPECI KNHZ 172151Z 06005KT BKN029 OVC036 M02/M08 A3014 RMK AO2 $
0199743920146112010011721567+43900-069933FM-15+0023KNHZ V0200605N00265008845MN9999999N5-00175-00785102145ADDAA101000095GA1075+008845999GA2085+010975999GD13991+0088459GD24991+0109759MA1102075101795REMMET09901/17/10 16:56:02 METAR KNHZ 172156Z 06005KT BKN029 OVC036 M02/M08 A3014 RMK AO2 SLP214 T10171078 $
0161743920146112010011722567+43900-069933FM-15+0023KNHZ V0200405N00315007625MN9999999N5-00225-00785102055ADDAA101000095GA1085+007625999GD14991+0076259MA1102005101725REMMET09201/17/10 17:56:02 METAR KNHZ 172256Z 04006KT OVC025 M02/M08 A3012 RMK AO2 SLP205 T10221078 $
0219743920146112010011723567+43900-069933FM-15+0023KNHZ V0200305N00315007015MN9999999N5-00285-00785101995ADDAA101000095GA1085+007015999GD14991+0070159KA1999M-00111KA2999N-00281MA1101935101655MD1840164+9999REMMET11001/17/10 18:56:02 METAR KNHZ 172356Z 03006KT OVC023 M03/M08 A3010 RMK AO2 SLP199 T10281078 11011 21028 58016 $
0161743920146112010011800567+43900-069933FM-15+0023KNHZ V0200305N00365006405MN9999999N5-00285-00835101885ADDAA101000095GA1085+006405999GD14991+0064059MA1101835101555REMMET09201/17/10 19:56:01 METAR KNHZ 180056Z 03007KT OVC021 M03/M08 A3007 RMK AO2 SLP188 T10281083 $
0161743920146112010011801567+43900-069933FM-15+0023KNHZ V0200405N00365006405MN9999999N5-00285-00835101835ADDAA101000095GA1085+006405999GD14991+0064059MA1101765101485REMMET09201/17/10 20:56:01 METAR KNHZ 180156Z 04007KT OVC021 M03/M08 A3005 RMK AO2 SLP183 T10281083 $
0181743920146112010011802567+43900-069933FM-15+0023KNHZ V0200405N00365006405MN9999999N5-00285-00835101735ADDAA101000095GA1085+006405999GD14991+0064059MA1101665101385MD1640264+9999REMMET09801/17/10 21:56:01 METAR KNHZ 180256Z 04007KT OVC021 M03/M08 A3002 RMK AO2 SLP173 T10281083 56026 $
0199743920146112010011803567+43900-069933FM-15+0023KNHZ V0200305N00365006405MN9999999N5-00285-00785101685ADDAA101000095GA1075+006405999GA2085+009755999GD13991+0064059GD24991+0097559MA1101635101355REMMET09901/17/10 22:56:01 METAR KNHZ 180356Z 03007KT BKN021 OVC032 M03/M08 A3001 RMK AO2 SLP168 T10281078 $
0227743920146112010011804107+43900-069933FM-16+0023KNHZ V0200405N00315010365MN9999999N5-00305-00805999999ADDAA101000021AU110030015AW1715GA1045+006405999GA2085+010365999GD12991+0064059GD24991+0103659MA1101595101315REMMET11001/17/10 23:10:01 SPECI KNHZ 180410Z 04006KT -SN SCT021 OVC034 M03/M08 A3000 RMK AO2 SNB05 CIG 021 R01 P0000 $
0215743920146112010011804257+43900-069933FM-16+0023KNHZ V0200305N00465006405MN9999999N5-00305-00805999999ADDAA101000021AU110030015AW1715GA1075+006405999GA2085+010975999GD13991+0064059GD24991+0109759MA1101565101285REMMET09801/17/10 23:25:01 SPECI KNHZ 180425Z 03009KT -SN BKN021 OVC036 M03/M08 A2999 RMK AO2 SNB05 P0000 $
0219743920146112010011804546+43900-069933FM-16+0023KNHZ V0200305N00365004275MN9999999N5-00305-00705999999ADDAU110030015AW1715GA1075+004275999GA2085+007015999GD13991+0042759GD24991+0070159MA1101495101215REMMET11301/17/10 23:54:03 SPECI KNHZ 180454Z 03007KT -SN BKN014 OVC023 M03/M07 A2997 RMK AO2 SNB05 P0000 400221033 $ FIBI
0242743920146112010011804567+43900-069933FM-15+0023KNHZ V0200305N00415004275MN9999999N5-00335-00675101555ADDAA101000025AU110030015AW1715GA1075+004275999GA2085+007015999GD13991+0042759GD24991+0070159MA1101495101215REMMET12501/17/10 23:56:01 METAR KNHZ 180456Z 03008KT -SN BKN014 OVC023 M03/M07 A2997 RMK AO2 SNB05 SLP155 P0000 T10331067 400221033 $
0907743920146112010011804596+43900-069933SOD  +0023KNHZ V020999999999999999999999999999+99999+99999999999ADDAA124000025KA1240M+00225KA2240N-00325MG1101714101564OE11240067102023585OE22240053603023245OE33240028699999995REMSOD75124 HR PRECIPITATION (IN):T     24 HR MAX TEMP (F):36 24 HR MAX TEMP TIME (LST):0302 24 HR MIN TEMP (F):26 24 HR MIN TEMP TIME (LST):2359 AVERAGE STATION PRESSURE:30.035 MINIMUM SEA LEVEL PRESSURE:29.99 TIME OF OCCURRENCE:2359 PEAK WIND SPEED (MPH):15  PEAK WIND DIR (DEG):20  PEAK WIND TIME (LST):2358  FASTEST 2MIN SPEED (MPH):12 FASTEST 2MIN DIR (DEG):30  FASTEST 2MIN TIME (LST):2324 AVERAGE WIND SPEED (MPH):6.4  24 HR AVG TEMP (F):31 DEPART FROM NORMAL:+15  HEATING DEGREE DAYS:34  COOLING DEGREE DAYS:0   LATEST DAY MAX TEMP (0700-1900 LST):33  LATEST NIGHT MIN TEMP(1900-0800 LST):32 HOURLY INCREMENTAL PRECIPITATION VALUES (IN):.00 0.00 0.00 0.00 0.00 0.00 0.00 0.00 0.00 0.00 0.00 0.00 0.00 0.00 0.00 0.00 0.00 0.00 0.00 0.00 0.00 0.00 0.00 TEQDR01     N7GJS072R02     N7GKS075
0170743920146112010011805297+43900-069933FM-16+0023KNHZ V0200305N00465002445MN9999999N5-00405-00605999999ADDAA101000021AU120030015AW1725GA1085+002445999GD14991+0024459MA1101425101155REMMET08401/18/10 00:29:02 SPECI KNHZ 180529Z 03009KT SN OVC008 M04/M06 A2995 RMK AO2 P0000 $
0281743920146112010011805567+43900-069933FM-15+0023KNHZ V0200305N00465001835MN9999999N5-00445-00565101415ADDAA101000025AA206000021AU120030015AW1725GA1085+001835999GD14991+0018359KA1999M-00281KA2999N-00441MA1101355101085MD1840314+9999REMMET12501/18/10 00:56:02 METAR KNHZ 180556Z 03009KT SN OVC006 M04/M06 A2993 RMK AO2 SLP141 P0000 60000 T10441056 11028 21044 58031 $EQDQ01  00008PRCP06
0170743920146112010011806087+43900-069933FM-16+0023KNHZ V0200205N00415001225MN9999999N5-00405-00605999999ADDAA101000021AU120030015AW1725GA1085+001225999GD14991+0012259MA1101295101015REMMET08401/18/10 01:08:02 SPECI KNHZ 180608Z 02008KT SN OVC004 M04/M06 A2991 RMK AO2 P0000 $
0209743920146112010011806257+43900-069933FM-16+0023KNHZ V0200205N00415001835MN9999999N5-00405-00605999999ADDAA101000021AU110030015AW1715GA1075+001835999GA2085+003965999GD13991+0018359GD24991+0039659MA1101295101015REMMET09201/18/10 01:25:02 SPECI KNHZ 180625Z 02008KT -SN BKN006 OVC013 M04/M06 A2991 RMK AO2 P0000 $
0171743920146112010011806387+43900-069933FM-16+0023KNHZ V0200205N00675003355MN9999999N5-00505-00605999999ADDAA101000021AU110030015AW1715GA1085+003355999GD14991+0033559MA1101295101015REMMET08501/18/10 01:38:02 SPECI KNHZ 180638Z 02013KT -SN OVC011 M05/M06 A2991 RMK AO2 P0000 $
0171743920146112010011806527+43900-069933FM-16+0023KNHZ V0200205N00575004575MN9999999N5-00505-00705999999ADDAA101000021AU110030015AW1715GA1085+004575999GD14991+0045759MA1101295101015REMMET08501/18/10 01:52:02 SPECI KNHZ 180652Z 02011KT -SN OVC015 M05/M07 A2991 RMK AO2 P0000 $
0188743920146112010011806567+43900-069933FM-15+0023KNHZ V0200105N00575004575MN9999999N5-00505-00725101345ADDAA101000025AU110030015AW1715GA1085+004575999GD14991+0045759MA1101295101015REMMET10201/18/10 01:56:02 METAR KNHZ 180656Z 01011KT -SN OVC015 M05/M07 A2991 RMK AO2 SLP134 P0000 T10501072 $
0170743920146112010011807137+43900-069933FM-16+0023KNHZ V0200105N00625003355MN9999999N5-00605-00705999999ADDAA101000021AU120030015AW1725GA1085+003355999GD14991+0033559MA1101255100985REMMET08401/18/10 02:13:02 SPECI KNHZ 180713Z 01012KT SN OVC011 M06/M07 A2990 RMK AO2 P0000 $
0171743920146112010011807247+43900-069933FM-16+0023KNHZ V0200105N00575002135MN9999999N5-00605-00705999999ADDAA101000021AU130030015AW1735GA1085+002135999GD14991+0021359MA1101225100945REMMET08501/18/10 02:24:02 SPECI KNHZ 180724Z 01011KT +SN OVC007 M06/M07 A2989 RMK AO2 P0000 $
0171743920146112010011807457+43900-069933FM-16+0023KNHZ V0200205N00575000915MN9999999N5-00605-00705999999ADDAA101000591AU130030015AW1735GA1085+000915999GD14991+0009159MA1101155100885REMMET08501/18/10 02:45:02 SPECI KNHZ 180745Z 02011KT +SN OVC003 M06/M07 A2987 RMK AO2 P0002 $
0187743920146112010011807567+43900-069933FM-15+0023KNHZ V0200105N00575000915MN9999999N5-00565-00725101215ADDAA101000595AU120030015AW1725GA1085+000915999GD14991+0009159MA1101155100885REMMET10101/18/10 02:56:02 METAR KNHZ 180756Z 01011KT SN OVC003 M06/M07 A2987 RMK AO2 SLP121 P0002 T10561072 $
0168743920146112010011808397+43900-069933FM-16+0023KNHZ V0200205N004659999999N9999999N5-00605-00705999999ADDAA101000591AU130030015AW1735MA1101085100815REMMET07801/18/10 03:39:02 SPECI KNHZ 180839Z 02009KT +SN M06/M07 A2985 RMK AO2 P0002 $EQDR01      7SKY009R02      7GAS009
0238743920146112010011808567+43900-069933FM-15+0023KNHZ V0200205N005159999999N9999999N5-00565-00675101125ADDAA101001095AA203001591AU130030015AW1735MA1101055100775MD1840224+9999REMMET10701/18/10 03:56:02 METAR KNHZ 180856Z 02010KT +SN M06/M07 A2984 RMK AO2 SLP112 P0004 60006 T10561067 58022 $EQDQ01  00158PRCP03R01      7SKY009R02      7GAS009
0171743920146112010011809167+43900-069933FM-16+0023KNHZ V0200205N00575000615MN9999999N5-00605-00705999999ADDAA101000391AU130030015AW1735GA1085+000615999GD14991+0006159MA1101055100775REMMET08501/18/10 04:16:02 SPECI KNHZ 180916Z 02011KT +SN OVC002 M06/M07 A2984 RMK AO2 P0001 $
0188743920146112010011809567+43900-069933FM-15+0023KNHZ V0200105N00575000615MN9999999N5-00565-00725101045ADDAA101001095AU130030015AW1735GA1085+000615999GD14991+0006159MA1100985100715REMMET10201/18/10 04:56:02 METAR KNHZ 180956Z 01011KT +SN OVC002 M06/M07 A2982 RMK AO2 SLP104 P0004 T10561072 $
0166743920146112010011810397+43900-069933FM-16+0023KNHZ V0200205N005159999999N9999999N5-00605-00705999999ADDAA101000591MA1100915100645REMMET09301/18/10 05:39:02 SPECI KNHZ 181039Z 02010KT M06/M07 A2980 RMK AO2 SNEMM P0002 PWINO FZRANO $EQDR01      7SKY009R02      7GAS009
0183743920146112010011810567+43900-069933FM-15+0023KNHZ V0200205N005759999999N9999999N5-00565-00725100995ADDAA101001095MA1100915100645REMMET11001/18/10 05:56:02 METAR KNHZ 181056Z 02011KT M06/M07 A2980 RMK AO2 SNEMM SLP099 P0004 T10561072 PWINO FZRANO $EQDR01      7SKY009R02      7GAS009
0146743920146112010011811097+43900-069933FM-16+0023KNHZ V0200105N00575000615MN9999999N5-00605-00705999999ADDGA1085+000615999GD14991+0006159MA1100955100675REMMET08801/18/10 06:09:02 SPECI KNHZ 181109Z 01011KT OVC002 M06/M07 A2981 RMK AO2 PWINO FZRANO $
0160743920146112010011811487+43900-069933FM-16+0023KNHZ V0200105N005159999999N9999999N5-00605-00705999999ADDAA101000391MA1100885100615REMMET08701/18/10 06:48:02 SPECI KNHZ 181148Z 01010KT M06/M07 A2979 RMK AO2 P0001 PWINO FZRANO $EQDR01      7SKY009R02      7GAS009
0301743920146112010011811567+43900-069933FM-15+0023KNHZ V0200105N006259999999N9999999N5-00565-00675100955ADDAA101000895AA206004391AA324004391KA1999M-00391KA2999N-00611MA1100885100615MD1640164+9999REMMET13401/18/10 06:56:02 METAR KNHZ 181156Z 01012KT M06/M07 A2979 RMK AO2 SLP095 P0003 60017 70017 T10561067 11039 21061 56016 PWINO FZRANO $EQDQ01  00438PRCP06Q02  00438PRCP24R01      7SKY009R02      7GAS009
0146743920146112010011812197+43900-069933FM-16+0023KNHZ V0200105N00725001525MN9999999N5-00605-00705999999ADDGA1085+001525999GD14991+0015259MA1100915100645REMMET08801/18/10 07:19:02 SPECI KNHZ 181219Z 01014KT OVC005 M06/M07 A2980 RMK AO2 PWINO FZRANO $
0174743920146112010011812567+43900-069933FM-15+0023KNHZ V0200105N00675002135MN9999999N5-00505-00675100995ADDAA101000095GA1085+002135999GD14991+0021359MA1100915100645REMMET10501/18/10 07:56:02 METAR KNHZ 181256Z 01013KT OVC007 M05/M07 A2980 RMK AO2 SLP099 T10501067 PWINO FZRANO $
0185743920146112010011813567+43900-069933FM-15+0023KNHZ V0203605N00885001525MN9999999N5-00445-00615101025ADDAA101000095GA1085+001525999GD14991+0015259MA1100955100675OC101035REMMET10801/18/10 08:56:02 METAR KNHZ 181356Z 36017G20KT OVC005 M04/M06 A2981 RMK AO2 SLP102 T10441061 PWINO FZRANO $
0243743920146112010011814567+43900-069933FM-15+0023KNHZ V0200105N00725001525MN9999999N5-00395-00565101005ADDAA101000095GA1075+001525999GA2085+003665999GD13991+0015259GD24991+0036659MA1100955100675MD1040054+9999OC100985REMMET12101/18/10 09:56:02 METAR KNHZ 181456Z 01014G19KT BKN005 OVC012 M04/M06 A2981 RMK AO2 SLP100 T10391056 50005 PWINO FZRANO $
0231743920146112010011815567+43900-069933FM-15+0023KNHZ V0200105N00515001525MN9999999N5-00395-00565101015ADDAA101000025AU120030015AW1725GA1075+001525999GA2085+003965999GD13991+0015259GD24991+0039659MA1100955100675REMMET11401/18/10 10:56:02 METAR KNHZ 181556Z 01010KT SN BKN005 OVC013 M04/M06 A2981 RMK AO2 SNB35 SLP101 P0000 T10391056 $
0198743920146112010011816567+43900-069933FM-15+0023KNHZ V0200205N00515002745MN9999999N5-00395-00565100965ADDAA101000025AU120030015AW1725GA1085+002745999GD14991+0027459MA1100915100645OC100935REMMET10401/18/10 11:56:02 METAR KNHZ 181656Z 02010G18KT SN OVC009 M04/M06 A2980 RMK AO2 SLP096 P0000 T10391056 $
0319743920146112010011817567+43900-069933FM-15+0023KNHZ V0200105N00575002135MN9999999N5-00335-00505100955ADDAA101000025AA206000021AU120030015AW1725GA1075+002135999GA2085+004275999GD13991+0021359GD24991+0042759KA1999M-00331KA2999N-00561MA1100885100615MD1840054+9999REMMET13201/18/10 12:56:02 METAR KNHZ 181756Z 01011KT SN BKN007 OVC014 M03/M05 A2979 RMK AO2 SLP095 P0000 60000 T10331050 11033 21056 58005 $EQDQ01  00008PRCP06
0183743920146112010011818447+43900-069933FM-16+0023KNHZ V0200105N00575003355MN9999999N5-00305-00505999999ADDAA101000021AU110030015AW1715GA1085+003355999GD14991+0033559MA1100915100645REMMET09701/18/10 13:44:02 SPECI KNHZ 181844Z 01011KT -SN OVC011 M03/M05 A2980 RMK AO2 CIG 007 R01 P0000 $
0226743920146112010011818567+43900-069933FM-15+0023KNHZ V0200105N00575003355MN9999999N5-00335-00505100965ADDAA101000025AU110030015AW1715GA1075+003355999GA2085+010065999GD13991+0033559GD24991+0100659MA1100915100645REMMET10901/18/10 13:56:02 METAR KNHZ 181856Z 01011KT -SN BKN011 OVC033 M03/M05 A2980 RMK AO2 SLP096 P0000 T10331050 $
0182743920146112010011819277+43900-069933FM-16+0023KNHZ V0200105N005752200059N9999999N5-00305-00605999999ADDAA101000021AU110030015AW1715GA1045+003965999GD12991+0039659MA1100955100675OC100985REMMET08801/18/10 14:27:02 SPECI KNHZ 181927Z 01011G19KT -SN SCT013 M03/M06 A2981 RMK AO2 P0000 $
0226743920146112010011819567+43900-069933FM-15+0023KNHZ V0200105N00675028965MN9999999N5-00285-00565101025ADDAA101000025AU110030015AW1715GA1025+004575999GA2075+028965999GD11991+0045759GD23991+0289659MA1100955100675REMMET10901/18/10 14:56:02 METAR KNHZ 181956Z 01013KT -SN FEW015 BKN095 M03/M06 A2981 RMK AO2 SLP102 P0000 T10281056 $
0229743920146112010011820567+43900-069933FM-15+0023KNHZ V0200105N00515028965MN9999999N5-00285-00565101055ADDAA101000025AA203000021GA1085+028965999GD14991+0289659MA1100985100715MD1340104+9999REMMET11601/18/10 15:56:02 METAR KNHZ 182056Z 01010KT OVC095 M03/M06 A2982 RMK AO2 SNE02 SLP105 P0000 60000 T10281056 53010 $EQDQ01  00008PRCP03
0199743920146112010011821567+43900-069933FM-15+0023KNHZ V0200105N00465027435MN9999999N5-00335-00615101095ADDAA101000095GA1025+022865999GA2085+027435999GD11991+0228659GD24991+0274359MA1101025100745REMMET09901/18/10 16:56:02 METAR KNHZ 182156Z 01009KT FEW075 OVC090 M03/M06 A2983 RMK AO2 SLP109 T10331061 $
0161743920146112010011822567+43900-069933FM-15+0023KNHZ V0203605N00415024385MN9999999N5-00335-00615101225ADDAA101000095GA1085+024385999GD14991+0243859MA1101155100885REMMET09201/18/10 17:56:02 METAR KNHZ 182256Z 36008KT OVC080 M03/M06 A2987 RMK AO2 SLP122 T10331061 $
0236743920146112010011823567+43900-069933FM-15+0023KNHZ V0200105N00365012195MN9999999N5-00285-00615101255ADDAA101000095AA206000021GA1085+012195999GD14991+0121959KA1999M-00281KA2999N-00331MA1101195100915MD1140204+9999REMMET11601/18/10 18:56:02 METAR KNHZ 182356Z 01007KT OVC040 M03/M06 A2988 RMK AO2 SLP125 60000 T10281061 11028 21033 51020 $
0161743920146112010011900567+43900-069933FM-15+0023KNHZ V0200105N00315010975MN9999999N5-00285-00675101325ADDAA101000095GA1085+010975999GD14991+0109759MA1101255100985REMMET09201/18/10 19:56:01 METAR KNHZ 190056Z 01006KT OVC036 M03/M07 A2990 RMK AO2 SLP132 T10281067 $
0226743920146112010011901567+43900-069933FM-15+0023KNHZ V0203605N00365014945MN9999999N5-00335-00675101415ADDAA101000025GA1045+011585999GA2085+014945999GD12991+0115859GD24991+0149459MA1101355101085REMMET12601/18/10 20:56:01 METAR KNHZ 190156Z 36007KT SCT038 OVC049 M03/M07 A2993 RMK AO2 SNB10E44 CIG 035 R01 SLP141 P0000 T10331067 $
0286743920146112010011902567+43900-069933FM-15+0023KNHZ V0200205N00265021345MN9999999N5-00335-00785101395ADDAA101000095AA203000021GA1025+013725999GA2045+015245999GA3085+021345999GD11991+0137259GD22991+0152459GD34991+0213459MA1101325101045MD1040144+9999REMMET13001/18/10 21:56:01 METAR KNHZ 190256Z 02005KT FEW045 SCT050 OVC070 M03/M08 A2992 RMK AO2 CIG 055 R01 SLP139 60000 T10331078 50014 $
0249743920146112010011903567+43900-069933FM-15+0023KNHZ V0200105N00315021345MN9999999N5-00335-00785101445ADDAA101000095GA1025+014335999GA2045+016765999GA3085+021345999GD11991+0143359GD22991+0167659GD34991+0213459MA1101395101115REMMET11801/18/10 22:56:01 METAR KNHZ 190356Z 01006KT FEW047 SCT055 OVC070 M03/M08 A2994 RMK AO2 CIG 046 R01 SLP144 T10331078 $
0209743920146112010011904117+43900-069933FM-16+0023KNHZ V0203605N00265006405MN9999999N5-00305-00805999999ADDGA1075+006405999GA2075+013725999GA3085+021345999GD13991+0064059GD23991+0137259GD34991+0213459MA1101395101115REMMET08901/18/10 23:11:01 SPECI KNHZ 190411Z 36005KT BKN021 BKN045 OVC070 M03/M08 A2994 RMK AO2 $
0219743920146112010011904517+43900-069933FM-16+0023KNHZ V0200205N00265009145MN9999999N5-00405-00705999999ADDGA1045+006405999GA2075+009145999GA3085+011895999GD12991+0064059GD23991+0091459GD34991+0118959MA1101395101115REMMET09901/18/10 23:51:01 SPECI KNHZ 190451Z 02005KT SCT021 BKN030 OVC039 M04/M07 A2994 RMK AO2 410281061 $
0259743920146112010011904567+43900-069933FM-15+0023KNHZ V0200205N00215009145MN9999999N5-00395-00725101465ADDAA101000095GA1045+006405999GA2075+009145999GA3085+011895999GD12991+0064059GD23991+0091459GD34991+0118959MA1101395101115REMMET12801/18/10 23:56:01 METAR KNHZ 190456Z 02004KT SCT021 BKN030 OVC039 M04/M07 A2994 RMK AO2 CIG 021 R01 SLP146 T10391072 410281061 $
0910743920146112010011904596+43900-069933SOD  +0023KNHZ V020999999999999999999999999999+99999+99999999999ADDAA124004395KA1240M-00275KA2240N-00605MG1100804100954OE11240116201009265OE22240093901009265OE33240050599999995REMSOD75424 HR PRECIPITATION (IN):0.17  24 HR MAX TEMP (F):27 24 HR MAX TEMP TIME (LST):2028 24 HR MIN TEMP (F):21 24 HR MIN TEMP TIME (LST):0554 AVERAGE STATION PRESSURE:29.765 MINIMUM SEA LEVEL PRESSURE:29.81 TIME OF OCCURRENCE:1357 PEAK WIND SPEED (MPH):26  PEAK WIND DIR (DEG):10  PEAK WIND TIME (LST):0926  FASTEST 2MIN SPEED (MPH):21 FASTEST 2MIN DIR (DEG):10  FASTEST 2MIN TIME (LST):0926 AVERAGE WIND SPEED (MPH):11.3 24 HR AVG TEMP (F):24 DEPART FROM NORMAL: +8  HEATING DEGREE DAYS:41  COOLING DEGREE DAYS:0   LATEST DAY MAX TEMP (0700-1900 LST):27  LATEST NIGHT MIN TEMP(1900-0800 LST):21 HOURLY INCREMENTAL PRECIPITATION VALUES (IN):    T    0.02 0.04 0.04 0.04 0.03 0.00 0.00 0.00 T    T    T    T    T    T    0.00 0.00 0.00 0.00 T    0.00 0.00 0.00EQDR01     N7GJS072R02     N7GKS075
0209743920146112010011905077+43900-069933FM-16+0023KNHZ V0200205N00215006405MN9999999N5-00405-00705999999ADDGA1075+006405999GA2075+009145999GA3085+011895999GD13991+0064059GD23991+0091459GD34991+0118959MA1101395101115REMMET08901/19/10 00:07:02 SPECI KNHZ 190507Z 02004KT BKN021 BKN030 OVC039 M04/M07 A2994 RMK AO2 $
0171743920146112010011905157+43900-069933FM-16+0023KNHZ V0200205N00265009755MN9999999N5-00405-00705999999ADDGA1045+006405999GA2085+009755999GD12991+0064059GD24991+0097559MA1101395101115REMMET08201/19/10 00:15:02 SPECI KNHZ 190515Z 02005KT SCT021 OVC032 M04/M07 A2994 RMK AO2 $
0209743920146112010011905337+43900-069933FM-16+0023KNHZ V0200105N00215008535MN9999999N5-00405-00705999999ADDGA1045+006405999GA2075+008535999GA3085+010365999GD12991+0064059GD23991+0085359GD34991+0103659MA1101425101155REMMET08901/19/10 00:33:02 SPECI KNHZ 190533Z 01004KT SCT021 BKN028 OVC034 M04/M07 A2995 RMK AO2 $
0274743920146112010011905567+43900-069933FM-15+0023KNHZ V0200105N00265006405MN9999999N5-00395-00675101475ADDAA101000095AA206000021GA1075+006405999GA2085+008535999GD13991+0064059GD24991+0085359KA1999M-00281KA2999N-00391MA1101395101115MD1140024+9999REMMET12301/19/10 00:56:02 METAR KNHZ 190556Z 01005KT BKN021 OVC028 M04/M07 A2994 RMK AO2 SLP147 60000 T10391067 11028 21039 51002 $
0171743920146112010011906107+43900-069933FM-16+0023KNHZ V0200205N00265009145MN9999999N5-00405-00705999999ADDGA1045+006405999GA2085+009145999GD12991+0064059GD24991+0091459MA1101395101115REMMET08201/19/10 01:10:02 SPECI KNHZ 190610Z 02005KT SCT021 OVC030 M04/M07 A2994 RMK AO2 $
0161743920146112010011906567+43900-069933FM-15+0023KNHZ V0200405N00215009755MN9999999N5-00395-00675101495ADDAA101000095GA1085+009755999GD14991+0097559MA1101425101155REMMET09201/19/10 01:56:02 METAR KNHZ 190656Z 04004KT OVC032 M04/M07 A2995 RMK AO2 SLP149 T10391067 $
0133743920146112010011907247+43900-069933FM-16+0023KNHZ V0200305N00155008535MN9999999N5-00405-00705999999ADDGA1085+008535999GD14991+0085359MA1101465101185REMMET07501/19/10 02:24:02 SPECI KNHZ 190724Z 03003KT OVC028 M04/M07 A2996 RMK AO2 $
0199743920146112010011907567+43900-069933FM-15+0023KNHZ V0200105N00155007925MN9999999N5-00395-00675101535ADDAA101000095GA1045+006715999GA2085+007925999GD12991+0067159GD24991+0079259MA1101465101185REMMET09901/19/10 02:56:02 METAR KNHZ 190756Z 01003KT SCT022 OVC026 M04/M07 A2996 RMK AO2 SLP153 T10391067 $
0181743920146112010011908567+43900-069933FM-15+0023KNHZ V0203605N00215006715MN9999999N5-00445-00675101545ADDAA101000095GA1085+006715999GD14991+0067159MA1101495101215MD1140074+9999REMMET09801/19/10 03:56:02 METAR KNHZ 190856Z 36004KT OVC022 M04/M07 A2997 RMK AO2 SLP154 T10441067 51007 $
0161743920146112010011909567+43900-069933FM-15+0023KNHZ V0209999C00005006105MN9999999N5-00395-00615101555ADDAA101000095GA1085+006105999GD14991+0061059MA1101495101215REMMET09201/19/10 04:56:02 METAR KNHZ 190956Z 00000KT OVC020 M04/M06 A2997 RMK AO2 SLP155 T10391061 $
0235743920146112010011910567+43900-069933FM-15+0023KNHZ V0209999C00005004885MN0160935N5-00445-00615101545ADDAA101000095GA1075+004885999GA2085+007625999GD13991+0048859GD24991+0076259GF108991999999999999999999MA1101495101215REMMET10901/19/10 05:56:02 METAR KNHZ 191056Z 00000KT 10SM BKN016 OVC025 M04/M06 A2997 RMK AO2 SLP154 T10441061 $ (CP)
0278743920146112010011911567+43900-069933FM-15+0023KNHZ V0200205N00155005495MN0160935N5-00445-00615101565ADDAA101000095AJ100289599999999GA1085+005495999GD14991+0054959GF108991999999999999999999KA1999M-00391KA2999N-00441MA1101495101215MD1340014+9999REMMET12601/19/10 06:56:02 METAR KNHZ 191156Z 02003KT 10SM OVC018 M04/M06 A2997 RMK AO2 SLP156 4/011 T10441061 11039 21044 53001 $ (CP)
0218743920146112010011912187+43900-069933FM-16+0023KNHZ V0200305N00155004885MN0144845N5-00405-00605999999ADDAA101000021AU110030015AW1715GA1085+004885999GD14991+0048859GF108991999999999999999999MA1101495101215MW1711REMMET10001/19/10 07:18:02 SPECI KNHZ 191218Z 03003KT 9SM -SN OVC016 M04/M06 A2997 RMK AO2 SNB18 P0000 $ (CP)
0299743920146112010011912567+43900-069933FM-15+0023KNHZ V0200205N00215001835MN0016095N5-00445-00565101585ADDAA101000025AU110030015AU200001015AW1105AW2715GA1075+001835999GA2085+005185999GD13991+0018359GD24991+0051859GF108991999999999999999999MA1101525101255MW1101MW2711REMMET12701/19/10 07:56:02 METAR KNHZ 191256Z 02004KT 1SM -SN BR BKN006 OVC017 M04/M06 A2998 RMK AO2 SNB18 SLP158 P0000 T10441056 $ (CP)
0254743920146112010011913567+43900-069933FM-15+0023KNHZ V0200205N00155001835WN0016095N5-00395-00505101615ADDAA101000025AU110030015AU200001015AW1105AW2715GA1095+001835999GD15991+0018359GF109991999999000251999999MA1101565101285MW1101MW2711REMMET11301/19/10 08:56:02 METAR KNHZ 191356Z 02003KT 1SM -SN BR VV006 M04/M05 A2999 RMK AO2 SLP161 P0000 T10391050 $ (CP)
0280743920146112010011914297+43900-069933FM-16+0023KNHZ V0200305N00155003055MN0024145N5-00405-00505999999ADDAA101000391AU110030015AU200001015AW1105AW2715GA1075+003055999GA2085+006405999GD13991+0030559GD24991+0064059GF108991999999999999999999MA1101525101255MW1101MW2711REMMET10801/19/10 09:29:02 SPECI KNHZ 191429Z 03003KT 1 1/2SM -SN BR BKN010 OVC021 M04/M05 A2998 RMK AO2 P0001 $ (CP)
0349743920146112010011914567+43900-069933FM-15+0023KNHZ V0200405N00215002745MN0016095N5-00395-00505101595ADDAA101000395AA203000391AU110030015AU200001015AW1105AW2715GA1075+002745999GA2085+006105999GD13991+0027459GD24991+0061059GF108991999999999999999999MA1101525101255MD1040034+9999MW1101MW2711REMMET13301/19/10 09:56:02 METAR KNHZ 191456Z 04004KT 1SM -SN BR BKN009 OVC020 M04/M05 A2998 RMK AO2 SLP159 P0001 60001 T10391050 50003 $ (CP)EQDQ01  00038PRCP03
0272743920146112010011915567+43900-069933FM-15+0023KNHZ V0200305N00155001225WN0016095N5-00285-00445101555ADDAA101000395AU110030015AU200001015AW1105AW2715GA1095+001225999GD15991+0012259GF109991999999000251999999MA1101495101215MW1101MW2711REMMET13101/19/10 10:56:02 METAR KNHZ 191556Z 03003KT 1SM -SN BR VV004 M03/M04 A2997 RMK AO2 SLP155 SNINCR 1/13 LSR05 P0000 T10281044 $ (CP)
0311743920146112010011916567+43900-069933FM-15+0023KNHZ V0200105N00215004275MN0016095N5-00285-00395101515ADDAA101000395AU110030015AU200001015AW1105AW2715GA1045+001225999GA2085+004275999GD12991+0012259GD24991+0042759GF108991999999999999999999MA1101465101185MW1101MW2711REMMET13901/19/10 11:56:02 METAR KNHZ 191656Z 01004KT 1SM -SN BR SCT004 OVC014 M03/M04 A2996 RMK AO2 SLP151 SNINCR 1/13 LSR05 P0002 T10281039 $ (CP)
0232743920146112010011917546+43900-069933FM-16+0023KNHZ V0200305N00155001835MN0016095N5-00205-00305999999ADDAU110030015AU200001015AW1105AW2715GA1075+001835999GA2085+004275999GD13991+0018359GD24991+0042759MA1101395101115REMMET10901/19/10 12:54:02 SPECI KNHZ 191754Z 03003KT 1SM -SN BR BKN006 OVC014 M02/M03 A2994 RMK AO2 P0000 $ FIBI (CP)
0423743920146112010011917567+43900-069933FM-15+0023KNHZ V0200405N00215001835MN0016095N5-00225-00335101435ADDAA101000025AA206000891AJ100369599999999AU110030015AU200001015AW1105AW2715GA1075+001835999GA2085+004275999GD13991+0018359GD24991+0042759GF108991999999999999999999KA1999M-00221KA2999N-00441MA1101355101085MD1840154+9999MW1101MW2711REMMET16401/19/10 12:56:02 METAR KNHZ 191756Z 04004KT 1SM -SN BR BKN006 OVC014 M02/M03 A2993 RMK AO2 SLP143 LSR05 4/014 933022 P0000 60003 T10221033 11022 21044 58015 $ (CP)EQDQ01  00088PRCP06
0282743920146112010011918427+43900-069933FM-16+0023KNHZ V0200405N00155004275MN0016095N5-00205-00305999999ADDAA101000391AU110030015AU200001015AW1105AW2715GA1045+001835999GA2085+004275999GD12991+0018359GD24991+0042759GF108991999999999999999999MA1101355101085MW1101MW2711REMMET11001/19/10 13:42:02 SPECI KNHZ 191842Z 04003KT 1SM -SN BR SCT006 OVC014 M02/M03 A2993 RMK AO2 LSR05 P0001 $ (CT)
0299743920146112010011918567+43900-069933FM-15+0023KNHZ V0200505N00215004275MN0016095N5-00225-00335101395ADDAA101000395AU110030015AU200001015AW1105AW2715GA1025+001525999GA2085+004275999GD11991+0015259GD24991+0042759GF108991999999999999999999MA1101325101045MW1101MW2711REMMET12701/19/10 13:56:02 METAR KNHZ 191856Z 05004KT 1SM -SN BR FEW005 OVC014 M02/M03 A2992 RMK AO2 SLP139 LSR05 P0001 T10221033 $ (CT)
0303743920146112010011919567+43900-069933FM-15+0023KNHZ V0200305N00265004275MN0024145N5-00225-00285101375ADDAA101000025AU110030015AU200001015AW1105AW2715GA1025+001525999GA2085+004275999GD11991+0015259GD24991+0042759GF108991999999999999999999MA1101325101045MW1101MW2711REMMET13101/19/10 14:56:02 METAR KNHZ 191956Z 03005KT 1 1/2SM -SN BR FEW005 OVC014 M02/M03 A2992 RMK AO2 SLP137 LSR05 P0000 T10221028 $ (CT)
0284743920146112010011920127+43900-069933FM-16+0023KNHZ V0200305N00365002135MN0012075N5-00205-00305999999ADDAA101000021AU110030015AU200001015AW1105AW2715GA1075+002135999GA2085+004275999GD13991+0021359GD24991+0042759GF108991999999999999999999MA1101295101015MW1101MW2711REMMET11201/19/10 15:12:02 SPECI KNHZ 192012Z 03007KT 3/4SM -SN BR BKN007 OVC014 M02/M03 A2991 RMK AO2 LSR05 P0000 $ (CT)
0318743920146112010011920567+43900-069933FM-15+0023KNHZ V0200305N00315001835WN0012075N5-00225-00285101345ADDAA101000025AA203000391AU110030015AU200001015AW1105AW2715GA1095+001835999GD15991+0018359GF109991999999000251999999MA1101295101015MD1640094+9999MW1101MW2711REMMET13301/19/10 15:56:02 METAR KNHZ 192056Z 03006KT 3/4SM -SN BR VV006 M02/M03 A2991 RMK AO2 SLP134 LSR05 P0000 60001 T10221028 56009 $ (CT)EQDQ01  00038PRCP03
0262743920146112010011921567+43900-069933FM-15+0023KNHZ V0200305N00315002135WN0012075N5-00225-00285101325ADDAA101000395AU110030015AU200001015AW1105AW2715GA1095+002135999GD15991+0021359GF109991999999000251999999MA1101255100985MW1101MW2711REMMET12101/19/10 16:56:02 METAR KNHZ 192156Z 03006KT 3/4SM -SN BR VV007 M02/M03 A2990 RMK AO2 SLP132 LSR05 P0001 T10221028 $ (CT)
0262743920146112010011922567+43900-069933FM-15+0023KNHZ V0200305N00265002445WN0012075N5-00225-00335101315ADDAA101000025AU110030015AU200001015AW1105AW2715GA1095+002445999GD15991+0024459GF109991999999000251999999MA1101255100985MW1101MW2711REMMET12101/19/10 17:56:02 METAR KNHZ 192256Z 03005KT 3/4SM -SN BR VV008 M02/M03 A2990 RMK AO2 SLP131 LSR05 P0000 T10221033 $ (CT)
0243743920146112010011923097+43900-069933FM-16+0023KNHZ V0200205N00365003055WN0016095N5-00205-00305999999ADDAA101000021AU110030015AU200001015AW1105AW2715GA1095+003055999GD15991+0030559GF109991999999000251999999MA1101255100985MW1101MW2711REMMET10201/19/10 18:09:02 SPECI KNHZ 192309Z 02007KT 1SM -SN BR VV010 M02/M03 A2990 RMK AO2 LSR05 P0000 $ (CT)
0282743920146112010011923207+43900-069933FM-16+0023KNHZ V0200205N00265003355MN0016095N5-00205-00305999999ADDAA101000021AU110030015AU200001015AW1105AW2715GA1075+003355999GA2085+008535999GD13991+0033559GD24991+0085359GF108991999999999999999999MA1101225100945MW1101MW2711REMMET11001/19/10 18:20:02 SPECI KNHZ 192320Z 02005KT 1SM -SN BR BKN011 OVC028 M02/M03 A2989 RMK AO2 PSR07 P0000 $ (CT)
0282743920146112010011923327+43900-069933FM-16+0023KNHZ V0200205N00315008535MN0032195N5-00205-00305999999ADDAA101000021AU110030015AU200001015AW1105AW2715GA1045+003355999GA2085+008535999GD12991+0033559GD24991+0085359GF108991999999999999999999MA1101225100945MW1101MW2711REMMET11001/19/10 18:32:02 SPECI KNHZ 192332Z 02006KT 2SM -SN BR SCT011 OVC028 M02/M03 A2989 RMK AO2 PSR07 P0000 $ (CT)
0320743920146112010011923477+43900-069933FM-16+0023KNHZ V0200105N00315003355MN0032195N5-00205-00305999999ADDAA101000021AU110030015AU200001015AW1105AW2715GA1025+001835999GA2075+003355999GA3085+008535999GD11991+0018359GD23991+0033559GD34991+0085359GF108991999999999999999999MA1101225100945MW1101MW2711REMMET11701/19/10 18:47:02 SPECI KNHZ 192347Z 01006KT 2SM -SN BR FEW006 BKN011 OVC028 M02/M03 A2989 RMK AO2 PSR07 P0000 $ (CT)
0416743920146112010011923567+43900-069933FM-15+0023KNHZ V0203605N00215002745MN0032195N5-00225-00285101285ADDAA101000025AA206000591AJ100389599999999AU110030015AU200001015AW1105AW2715GA1075+002745999GA2085+008535999GD13991+0027459GD24991+0085359GF108991999999999999999999KA1999M-00171KA2999N-00221MA1101225100945MD1740064+9999MW1101MW2711REMMET15701/19/10 18:56:02 METAR KNHZ 192356Z 36004KT 2SM -SN BR BKN009 OVC028 M02/M03 A2989 RMK AO2 SLP128 PSR07 4/015 P0000 60002 T10221028 11017 21022 57006 $ (CT)EQDQ01  00058PRCP06
0277743920146112010012000277+43900-069933FM-16+0023KNHZ V0200105N00315003355MN0048285N5-00205-00305999999ADDAA101000021AU110030015AU200001015AW1105AW2715GA1045+001835999GA2085+003355999GD12991+0018359GD24991+0033559GF108991999999999999999999MA1101195100915MW1101MW2711REMMET10501/19/10 19:27:01 SPECI KNHZ 200027Z 01006KT 3SM -SN BR SCT006 OVC011 M02/M03 A2988 RMK AO2 PSR07 P0000 $
0260743920146112010012000567+43900-069933FM-15+0023KNHZ V0203605N00315003355MN0028165N5-00225-00285101245ADDAA101000025AU110030015AU200001015AW1105AW2715GA1085+003355999GD14991+0033559GF108991999999999999999999MA1101195100915MW1101MW2711REMMET11901/19/10 19:56:01 METAR KNHZ 200056Z 36006KT 1 3/4SM -SN BR OVC011 M02/M03 A2988 RMK AO2 SLP124 PSR07 P0000 T10221028 $
0294743920146112010012001567+43900-069933FM-15+0023KNHZ V0200105N00365003355MN0032195N5-00225-00335101175ADDAA101000025AU110030015AU200001015AW1105AW2715GA1075+003355999GA2085+006715999GD13991+0033559GD24991+0067159GF108991999999999999999999MA1101125100845MW1101MW2711REMMET12201/19/10 20:56:01 METAR KNHZ 200156Z 01007KT 2SM -SN BR BKN011 OVC022 M02/M03 A2986 RMK AO2 SLP117 PSR07 P0000 T10221033 $
0239743920146112010012002447+43900-069933FM-16+0023KNHZ V0203505N00315002745MN0032195N5-00205-00305999999ADDAA101000021AU110030015AU200001015AW1105AW2715GA1085+002745999GD14991+0027459GF108991999999999999999999MA1101085100815MW1101MW2711REMMET09801/19/10 21:44:01 SPECI KNHZ 200244Z 35006KT 2SM -SN BR OVC009 M02/M03 A2985 RMK AO2 PSR07 P0000 $
0312743920146112010012002567+43900-069933FM-15+0023KNHZ V0203505N00315002745MN0032195N5-00225-00335101155ADDAA101000025AA203000021AU110030015AU200001015AW1105AW2715GA1085+002745999GD14991+0027459GF108991999999999999999999MA1101085100815MD1640144+9999MW1101MW2711REMMET12701/19/10 21:56:01 METAR KNHZ 200256Z 35006KT 2SM -SN BR OVC009 M02/M03 A2985 RMK AO2 SLP115 PSR07 P0000 60000 T10221033 56014 $EQDQ01  00008PRCP03
0170743920146112010012003067+43900-069933FM-16+0023KNHZ V0203605N00365002745MN9999999N5-00205-00305999999ADDAA101000021AU120030015AW1725GA1085+002745999GD14991+0027459MA1101085100815REMMET08401/19/10 22:06:01 SPECI KNHZ 200306Z 36007KT SN OVC009 M02/M03 A2985 RMK AO2 P0000 $
0171743920146112010012003167+43900-069933FM-16+0023KNHZ V0203605N00365003355MN9999999N5-00205-00305999999ADDAA101000021AU110030015AW1715GA1085+003355999GD14991+0033559MA1101085100815REMMET08501/19/10 22:16:01 SPECI KNHZ 200316Z 36007KT -SN OVC011 M02/M03 A2985 RMK AO2 P0000 $
0225743920146112010012003567+43900-069933FM-15+0023KNHZ V0203605N00365002745MN9999999N5-00225-00285101115ADDAA101000025AU120030015AW1725GA1075+002745999GA2085+007325999GD13991+0027459GD24991+0073259MA1101055100775REMMET10801/19/10 22:56:01 METAR KNHZ 200356Z 36007KT SN BKN009 OVC024 M02/M03 A2984 RMK AO2 SLP111 P0000 T10221028 $
0171743920146112010012004317+43900-069933FM-16+0023KNHZ V0203505N00315003355MN9999999N5-00205-00305999999ADDAA101000391AU110030015AW1715GA1085+003355999GD14991+0033559MA1101025100745REMMET08501/19/10 23:31:01 SPECI KNHZ 200431Z 35006KT -SN OVC011 M02/M03 A2983 RMK AO2 P0001 $
0236743920146112010012004567+43900-069933FM-15+0023KNHZ V0203505N00315003355MN9999999N5-00225-00335101055ADDAA101000395AU110030015AW1715GA1075+003355999GA2085+006105999GD13991+0033559GD24991+0061059MA1100985100715REMMET11901/19/10 23:56:01 METAR KNHZ 200456Z 35006KT -SN BKN011 OVC020 M02/M03 A2982 RMK AO2 SLP105 P0001 T10221033 410171044 $
0936743920146112010012004596+43900-069933SOD  +0023KNHZ V020999999999999999999999999999+99999+99999999999ADDAA124001595AX1015245KA1240M-00165KA2240N-00435MG1101104101054OE11240053636023445OE22240040235023475OE33240021999999995REMSOD77124 HR PRECIPITATION (IN):0.06  WEATHER(CODE):1  24 HR MAX TEMP (F):29 24 HR MAX TEMP TIME (LST):1507 24 HR MIN TEMP (F):24 24 HR MIN TEMP TIME (LST):0843 AVERAGE STATION PRESSURE:29.855 MINIMUM SEA LEVEL PRESSURE:29.84 TIME OF OCCURRENCE:2359 PEAK WIND SPEED (MPH):12  PEAK WIND DIR (DEG):360 PEAK WIND TIME (LST):2344  FASTEST 2MIN SPEED (MPH):9  FASTEST 2MIN DIR (DEG):350 FASTEST 2MIN TIME (LST):2347 AVERAGE WIND SPEED (MPH):4.9  24 HR AVG TEMP (F):27 DEPART FROM NORMAL: +8  HEATING DEGREE DAYS:38  COOLING DEGREE DAYS:0   LATEST DAY MAX TEMP (0700-1900 LST):29  LATEST NIGHT MIN TEMP(1900-0800 LST):24 HOURLY INCREMENTAL PRECIPITATION VALUES (IN):.00 0.00 0.00 0.00 0.00 0.00 0.00 T    T    0.01 0.01 0.01 T    0.01 T    T    0.01 T    T    T    T    T    T    0.01EQDR01     N7GJS072R02     N7GKS075
0247743920146112010012005257+43900-069933FM-16+0023KNHZ V0203505N00365004885MN9999999N5-00205-00305999999ADDAA101000021AU110030015AW1715GA1025+003355999GA2075+004885999GA3085+008535999GD11991+0033559GD23991+0048859GD34991+0085359MA1100955100675REMMET09901/20/10 00:25:02 SPECI KNHZ 200525Z 35007KT -SN FEW011 BKN016 OVC028 M02/M03 A2981 RMK AO2 P0000 $
0241743920146112010012005546+43900-069933FM-16+0023KNHZ V0203605N00365003355MN9999999N5-00205-00305999999ADDAU110030015AW1715GA1075+003355999GA2075+004885999GA3085+007925999GD13991+0033559GD23991+0048859GD34991+0079259MA1100915100645REMMET10401/20/10 00:54:02 SPECI KNHZ 200554Z 36007KT -SN BKN011 BKN016 OVC026 M02/M03 A2980 RMK AO2 P0000 $ FIBI
0320743920146112010012005567+43900-069933FM-15+0023KNHZ V0203605N00365003355MN9999999N5-00225-00335100985ADDAA101000025AA206000391AU110030015AW1715GA1075+003355999GA2085+007925999GD13991+0033559GD24991+0079259KA1999M-00221KA2999N-00221MA1100915100645MD1840174+9999REMMET13301/20/10 00:56:02 METAR KNHZ 200556Z 36007KT -SN BKN011 OVC026 M02/M03 A2980 RMK AO2 SLP098 P0000 60001 T10221033 11022 21022 58017 $EQDQ01  00038PRCP06
0240743920146112010012006546+43900-069933FM-16+0023KNHZ V0203605N00315002445MN9999999N5-00205-00305999999ADDAU120030015AW1725GA1075+002445999GA2075+003355999GA3085+006105999GD13991+0024459GD23991+0033559GD34991+0061059MA1100915100645REMMET10301/20/10 01:54:02 SPECI KNHZ 200654Z 36006KT SN BKN008 BKN011 OVC020 M02/M03 A2980 RMK AO2 P0000 $ FIBI
0263743920146112010012006567+43900-069933FM-15+0023KNHZ V0203605N00365001835MN9999999N5-00225-00335100985ADDAA101000025AU120030015AW1725GA1075+001835999GA2075+003355999GA3085+006105999GD13991+0018359GD23991+0033559GD34991+0061059MA1100915100645REMMET11501/20/10 01:56:02 METAR KNHZ 200656Z 36007KT SN BKN006 BKN011 OVC020 M02/M03 A2980 RMK AO2 SLP098 P0000 T10221033 $
0246743920146112010012007317+43900-069933FM-16+0023KNHZ V0203505N00365003665MN9999999N5-00205-00305999999ADDAA101000021AU120030015AW1725GA1075+003665999GA2075+008235999GA3085+010065999GD13991+0036659GD23991+0082359GD34991+0100659MA1100885100615REMMET09801/20/10 02:31:02 SPECI KNHZ 200731Z 35007KT SN BKN012 BKN027 OVC033 M02/M03 A2979 RMK AO2 P0000 $
0208743920146112010012007447+43900-069933FM-16+0023KNHZ V0203505N00365005495MN9999999N5-00205-00305999999ADDAA101000021AU120030015AW1725GA1075+005495999GA2085+010065999GD13991+0054959GD24991+0100659MA1100885100615REMMET09101/20/10 02:44:02 SPECI KNHZ 200744Z 35007KT SN BKN018 OVC033 M02/M03 A2979 RMK AO2 P0000 $
0226743920146112010012007567+43900-069933FM-15+0023KNHZ V0203605N00365006105MN9999999N5-00225-00335100945ADDAA101000025AU110030015AW1715GA1075+006105999GA2085+012195999GD13991+0061059GD24991+0121959MA1100885100615REMMET10901/20/10 02:56:02 METAR KNHZ 200756Z 36007KT -SN BKN020 OVC040 M02/M03 A2979 RMK AO2 SLP094 P0000 T10221033 $
0220743920146112010012008037+43900-069933FM-16+0023KNHZ V0203605N00415011585MN9999999N5-00205-00305999999ADDAA101000021AU120030015AW1725GA1045+006105999GA2085+011585999GD12991+0061059GD24991+0115859MA1100885100615REMMET10301/20/10 03:03:02 SPECI KNHZ 200803Z 36008KT SN SCT020 OVC038 M02/M03 A2979 RMK AO2 CIG 030 R01 P0000 $
0208743920146112010012008127+43900-069933FM-16+0023KNHZ V0203605N00415006715MN9999999N5-00205-00305999999ADDAA101000021AU120030015AW1725GA1075+006715999GA2085+011585999GD13991+0067159GD24991+0115859MA1100855100575REMMET09101/20/10 03:12:02 SPECI KNHZ 200812Z 36008KT SN BKN022 OVC038 M02/M03 A2978 RMK AO2 P0000 $
0281743920146112010012008567+43900-069933FM-15+0023KNHZ V0203605N00365005495MN9999999N5-00225-00285100875ADDAA101000025AA203000021AU120030015AW1725GA1025+003055999GA2085+005495999GD11991+0030559GD24991+0054959MA1100815100545MD1840104+9999REMMET12001/20/10 03:56:02 METAR KNHZ 200856Z 36007KT SN FEW010 OVC018 M02/M03 A2977 RMK AO2 SLP087 P0000 60000 T10221028 58010 $EQDQ01  00008PRCP03
0170743920146112010012009137+43900-069933FM-16+0023KNHZ V0203405N00365003055MN9999999N5-00205-00305999999ADDAA101000021AU120030015AW1725GA1085+003055999GD14991+0030559MA1100815100545REMMET08401/20/10 04:13:02 SPECI KNHZ 200913Z 34007KT SN OVC010 M02/M03 A2977 RMK AO2 P0000 $
0171743920146112010012009407+43900-069933FM-16+0023KNHZ V0203405N00415002445MN9999999N5-00205-00305999999ADDAA101000021AU110030015AW1715GA1085+002445999GD14991+0024459MA1100815100545REMMET08501/20/10 04:40:02 SPECI KNHZ 200940Z 34008KT -SN OVC008 M02/M03 A2977 RMK AO2 P0000 $
0188743920146112010012009567+43900-069933FM-15+0023KNHZ V0203405N00365002445MN9999999N5-00175-00285100895ADDAA101000025AU110030015AW1715GA1085+002445999GD14991+0024459MA1100815100545REMMET10201/20/10 04:56:02 METAR KNHZ 200956Z 34007KT -SN OVC008 M02/M03 A2977 RMK AO2 SLP089 P0000 T10171028 $
0242743920146112010012010037+43900-069933FM-16+0023KNHZ V0203405N00315002445MN0024145N5-00205-00305999999ADDAA101000021AU110030015AU200001015AW1105AW2715GA1085+002445999GD14991+0024459GF108991999999999999999999MA1100855100575MW1101MW2711REMMET10101/20/10 05:03:02 SPECI KNHZ 201003Z 34006KT 1 1/2SM -SN BR OVC008 M02/M03 A2978 RMK AO2 P0000 $ (CP)
0259743920146112010012010567+43900-069933FM-15+0023KNHZ V0203505N00365002135MN0024145N5-00175-00285100895ADDAA101000025AU110030015AU200001015AW1105AW2715GA1085+002135999GD14991+0021359GF108991999999999999999999MA1100855100575MW1101MW2711REMMET11801/20/10 05:56:02 METAR KNHZ 201056Z 35007KT 1 1/2SM -SN BR OVC007 M02/M03 A2978 RMK AO2 SLP089 P0000 T10171028 $ (CP)
0447743920146112010012011567+43900-069933FM-15+0023KNHZ V0203505N00315003055MN0020125N5-00175-00285100925ADDAA101000395AA206000391AA324001891AJ100469599999999AU110030015AU200001015AW1105AW2715GA1075+003055999GA2085+009755999GD13991+0030559GD24991+0097559GF108991999999999999999999KA1999M-00171KA2999N-00221MA1100855100575MD1340054+9999MW1101MW2711REMMET16101/20/10 06:56:02 METAR KNHZ 201156Z 35006KT 1 1/4SM -SN BR BKN010 OVC032 M02/M03 A2978 RMK AO2 SLP092 4/018 P0001 60001 70007 T10171028 11017 21022 53005 $ (CP)EQDQ01  00038PRCP06Q02  00188PRCP24
0303743920146112010012012567+43900-069933FM-15+0023KNHZ V0203605N00465003055MN0024145N5-00115-00225100955ADDAA101000025AU110030015AU200001015AW1105AW2715GA1075+003055999GA2085+004275999GD13991+0030559GD24991+0042759GF108991999999999999999999MA1100885100615MW1101MW2711REMMET13101/20/10 07:56:02 METAR KNHZ 201256Z 36009KT 1 1/2SM -SN BR BKN010 OVC014 M01/M02 A2979 RMK AO2 SLP095 PSR18 P0000 T10111022 $ (CP)
0318743920146112010012013567+43900-069933FM-15+0023KNHZ V0203605N00415004275MN0032195N5-00065-00225100985ADDAA101000025GA1045+003055999GA2075+004275999GA3075+010365999GD12991+0030559GD23991+0042759GD33991+0103659GD43991+0450019GF107991999999999999999999MA1100915100645MW1101MW2711REMMET13401/20/10 08:56:02 METAR KNHZ 201356Z 36008KT 2SM -SN BR SCT010 BKN014 BKN034 M01/M02 A2980 RMK AO2 SLP098 PSR18 P0000 T10061022 $ (CP)
0301743920146112010012014157+43900-069933FM-16+0023KNHZ V0200105N00415004885MN0048285N5-00105-00205999999ADDAA101000021GA1045+003055999GA2075+004885999GA3075+011285999GD12991+0030559GD23991+0048859GD33991+0112859GD43991+0390019GF107991999999999999999999MA1100915100645MW1101MW2711REMMET11701/20/10 09:15:02 SPECI KNHZ 201415Z 01008KT 3SM -SN BR SCT010 BKN016 BKN037 M01/M02 A2980 RMK AO2 PSR18 P0000 $ (CP)
0272743920146112010012014417+43900-069933FM-16+0023KNHZ V0200105N00415004885MN0112655N5+00005-00205999999ADDAA101000021GA1045+003055999GA2075+004885999GA3075+011285999GD12991+0030559GD23991+0048859GD33991+0112859GF107991999999999999999999MA1100915100645REMMET11501/20/10 09:41:02 SPECI KNHZ 201441Z 01008KT 7SM SCT010 BKN016 BKN037 00/M02 A2980 RMK AO2 SNE41 PSR18 P0000 $ (CP)
0307743920146112010012014567+43900-069933FM-15+0023KNHZ V0203605N00415003055MN0112655N5+00005-00175101005ADDAA101000025AA203000021GA1075+003055999GA2075+004885999GD13991+0030559GD23991+0048859GF107991999999999999999999MA1100955100675MD1140084+9999REMMET13701/20/10 09:56:02 METAR KNHZ 201456Z 36008KT 7SM BKN010 BKN016 00/M02 A2981 RMK AO2 SNE41 SLP100 PSR18 P0000 60000 T00001017 51008 $ (CP)EQDQ01  00008PRCP03
0201743920146112010012015567+43900-069933FM-15+0023KNHZ V0203605N00415003665MN0112655N5+00065-00225100995ADDAA101000095GA1085+003665999GD14991+0036659GF108991999999999999999999MA1100915100645REMMET10601/20/10 10:56:02 METAR KNHZ 201556Z 36008KT 7SM OVC012 01/M02 A2980 RMK AO2 SLP099 PSR18 T00061022 $ (CP)
0240743920146112010012016567+43900-069933FM-15+0023KNHZ V0200205N00415003965MN0112655N5+00065-00225100915ADDAA101000025AU110030015AW1715GA1085+003965999GD14991+0039659GF108991999999999999999999MA1100855100575MW1711REMMET12201/20/10 11:56:02 METAR KNHZ 201656Z 02008KT 7SM -SN OVC013 01/M02 A2978 RMK AO2 SNB55 SLP091 PSR18 P0000 T00061022 $ (CP)
0217743920146112010012017037+43900-069933FM-16+0023KNHZ V0200105N00575004575MN0112655N5+00105-00205999999ADDAA101000021AU110030015AW1715GA1085+004575999GD14991+0045759GF108991999999999999999999MA1100855100575MW1711REMMET09901/20/10 12:03:02 SPECI KNHZ 201703Z 01011KT 7SM -SN OVC015 01/M02 A2978 RMK AO2 PSR18 P0000 $ (CP)
0363743920146112010012017567+43900-069933FM-15+0023KNHZ V0200105N00515004575MN0112655N5+00005-00225100875ADDAA101000025AA206000021AJ100489599999999AU110030015AW1715GA1085+004575999GD14991+0045759GF108991999999999999999999KA1999M+00061KA2999N-00171MA1100815100545MD1840134+9999MW1711REMMET15801/20/10 12:56:02 METAR KNHZ 201756Z 01010KT 7SM -SN OVC015 00/M02 A2977 RMK AO2 SLP087 PSR18P WET 4/019 933031 P0000 60000 T00001022 10006 21017 58013 $ (CP)EQDQ01  00008PRCP06
0195743920146112010012018157+43900-069933FM-16+0023KNHZ V0203605N00465004575MN0128755N5+00005-00205999999ADDAA101000021GA1085+004575999GD14991+0045759GF108991999999999999999999MA1100815100545REMMET10001/20/10 13:15:02 SPECI KNHZ 201815Z 36009KT 8SM OVC015 00/M02 A2977 RMK AO2 SNE15 WR// P0000 $ (CT)
0288743920146112010012018567+43900-069933FM-15+0023KNHZ V0203505N00415006105MN0128755N5+00005-00285100905ADDAA101000025GA1025+004575999GA2075+006105999GA3085+009145999GD11991+0045759GD23991+0061059GD34991+0091459GF108991999999999999999999MA1100855100575REMMET13101/20/10 13:56:02 METAR KNHZ 201856Z 35008KT 8SM FEW015 BKN020 OVC030 00/M03 A2978 RMK AO2 SNE15 SLP090 WR// P0000 T00001028 $ (CT)
0238743920146112010012019567+43900-069933FM-15+0023KNHZ V0203505N00415006715MN0128755N5+00065-00285100995ADDAA101000095GA1075+006715999GA2085+007925999GD13991+0067159GD24991+0079259GF108991999999999999999999MA1100915100645REMMET11201/20/10 14:56:02 METAR KNHZ 201956Z 35008KT 8SM BKN022 OVC026 01/M03 A2980 RMK AO2 SLP099 WR// T00061028 $ (CT)
0260743920146112010012020307+43900-069933FM-16+0023KNHZ V0200105N00315007325MN0112655N5+00005-00305999999ADDAA101000021AU110030015AW1715GA1075+007325999GA2085+008845999GD13991+0073259GD24991+0088459GF108991999999999999999999MA1100955100675MW1711REMMET11101/20/10 15:30:02 SPECI KNHZ 202030Z 01006KT 7SM -SN BKN024 OVC029 00/M03 A2981 RMK AO2 SNB30 WR// P0000 $ (CT)
0295743920146112010012020567+43900-069933FM-15+0023KNHZ V0203605N00315007325MN0112655N5+00005-00285101045ADDAA101000025AA203000021AU110030015AW1715GA1085+007325999GD14991+0073259GF108991999999999999999999MA1100985100715MD1340174+9999MW1711REMMET13301/20/10 15:56:02 METAR KNHZ 202056Z 36006KT 7SM -SN OVC024 00/M03 A2982 RMK AO2 SNB30 SLP104 WR// P0000 60000 T00001028 53017 $ (CT)EQDQ01  00008PRCP03
0284743920146112010012021377+43900-069933FM-16+0023KNHZ V0203505N00415007325MN0040235N5+00005-00205999999ADDAA101000021AU110030015AU200001015AW1105AW2715GA1075+007325999GA2085+010365999GD13991+0073259GD24991+0103659GF108991999999999999999999MA1101025100745MW1101MW2711REMMET11201/20/10 16:37:02 SPECI KNHZ 202137Z 35008KT 2 1/2SM -SN BR BKN024 OVC034 00/M02 A2983 RMK AO2 WR// P0000 $ (CT)
0298743920146112010012021567+43900-069933FM-15+0023KNHZ V0203505N00465004885MN0016095N5-00065-00225101115ADDAA101000025AU110030015AU200001015AW1105AW2715GA1075+004885999GA2085+010365999GD13991+0048859GD24991+0103659GF108991999999999999999999MA1101055100775MW1101MW2711REMMET12601/20/10 16:56:02 METAR KNHZ 202156Z 35009KT 1SM -SN BR BKN016 OVC034 M01/M02 A2984 RMK AO2 SLP111 WR// P0000 T10061022 $ (CT)
0243743920146112010012022127+43900-069933FM-16+0023KNHZ V0203405N00365007015MN0032195N5-00105-00205999999ADDAA101000021AU110030015AU200001015AW1105AW2715GA1085+007015999GD14991+0070159GF108991999999999999999999MA1101085100815MW1101MW2711REMMET10201/20/10 17:12:02 SPECI KNHZ 202212Z 34007KT 2SM -SN BR OVC023 M01/M02 A2985 RMK AO2 WR// P0000 $ (CT)
0319743920146112010012022327+43900-069933FM-16+0023KNHZ V0203405N00515004575MN0016095N5-00105-00205999999ADDAA101000021AU110030015AU200001015AW1105AW2715GA1075+004575999GA2075+009145999GA3085+010975999GD13991+0045759GD23991+0091459GD34991+0109759GF108991999999999999999999MA1101085100815MW1101MW2711REMMET11601/20/10 17:32:02 SPECI KNHZ 202232Z 34010KT 1SM -SN BR BKN015 BKN030 OVC036 M01/M02 A2985 RMK AO2 WR// P0000 $ (CT)
0341743920146112010012022567+43900-069933FM-15+0023KNHZ V0203405N00515006715MN0028165N5-00065-00175101175ADDAA101000025AU110030015AU200001015AW1105AW2715GA1045+004575999GA2075+006715999GA3085+010975999GD12991+0045759GD23991+0067159GD34991+0109759GF108991999999999999999999MA1101125100845MW1101MW2711REMMET13801/20/10 17:56:02 METAR KNHZ 202256Z 34010KT 1 3/4SM -SN BR SCT015 BKN022 OVC036 M01/M02 A2986 RMK AO2 SLP117 PSR09 P0000 T10061017 $ (CT)
0320743920146112010012023107+43900-069933FM-16+0023KNHZ V0203405N00575010975MN0064375N5-00105-00205999999ADDAA101000021AU110030015AU200001015AW1105AW2715GA1045+005185999GA2075+010975999GA3075+021345999GD12991+0051859GD23991+0109759GD33991+0213459GF107991999999999999999999MA1101125100845MW1101MW2711REMMET11701/20/10 18:10:02 SPECI KNHZ 202310Z 34011KT 4SM -SN BR SCT017 BKN036 BKN070 M01/M02 A2986 RMK AO2 PSR09 P0000 $ (CT)
0235743920146112010012023497+43900-069933FM-16+0023KNHZ V0203405N00625011585MN0112655N5-00105-00305999999ADDAA101000021GA1075+011585999GA2085+024385999GD13991+0115859GD24991+0243859GF108991999999999999999999MA1101155100885REMMET10901/20/10 18:49:02 SPECI KNHZ 202349Z 34012KT 7SM BKN038 OVC080 M01/M03 A2987 RMK AO2 SNE34 PSR09 P0000 $ (CT)
0369743920146112010012023567+43900-069933FM-15+0023KNHZ V0203405N00625015245MN0112655N5-00065-00285101245ADDAA101000025AA206000021AJ100489599999999GA1075+015245999GA2085+039625999GD13991+0152459GD24991+0396259GF108991999999999999999999KA1999M+00061KA2999N-00061MA1101195100915MD1140204+9999REMMET15601/20/10 18:56:02 METAR KNHZ 202356Z 34012KT 7SM BKN050 OVC130 M01/M03 A2988 RMK AO2 SNE34 SLP124 PSR09 4/019 P0000 60000 T10061028 10006 21006 51020 $ (CT)EQDQ01  00008PRCP06
0284743920146112010012100567+43900-069933FM-15+0023KNHZ V0203505N00515039625MN0128755N5-00065-00285101305ADDAA101000095GA1025+003055999GA2045+021345999GA3075+039625999GD11991+0030559GD22991+0213459GD33991+0396259GF107991999999999999999999MA1101255100985OC100935REMMET11901/20/10 19:56:01 METAR KNHZ 210056Z 35010G18KT 8SM FEW010 SCT070 BKN130 M01/M03 A2990 RMK AO2 SLP130 PSR09 T10061028 $
0197743920146112010012101567+43900-069933FM-15+0023KNHZ V0203505N004652200059N0128755N5-00115-00395101375ADDAA101000095GA1025+039625999GD11991+0396259GF102991999999999999999999MA1101325101045REMMET10201/20/10 20:56:01 METAR KNHZ 210156Z 35009KT 8SM FEW130 M01/M04 A2992 RMK AO2 SLP137 PSR09 T10111039 $
0218743920146112010012102567+43900-069933FM-15+0023KNHZ V0203505N004152200059N0160935N5-00225-00445101405ADDAA101000095GA1025+039625999GD11991+0396259GF102991999999999999999999MA1101355101085MD1140164+9999REMMET10901/20/10 21:56:01 METAR KNHZ 210256Z 35008KT 10SM FEW130 M02/M04 A2993 RMK AO2 SLP140 PSR09 T10221044 51016 $
0158743920146112010012103567+43900-069933FM-15+0023KNHZ V0203405N004152200059N9999999N5-00335-00565101465ADDAA101000095GA1005+999999999GD10991+9999999MA1101395101115REMMET08901/20/10 22:56:01 METAR KNHZ 210356Z 34008KT CLR M03/M06 A2994 RMK AO2 SLP146 T10331056 $
0168743920146112010012104567+43900-069933FM-15+0023KNHZ V0203105N001552200059N9999999N5-00395-00615101525ADDAA101000095GA1005+999999999GD10991+9999999MA1101465101185REMMET09901/20/10 23:56:01 METAR KNHZ 210456Z 31003KT CLR M04/M06 A2996 RMK AO2 SLP152 T10391061 400061039 $
0936743920146112010012104596+43900-069933SOD  +0023KNHZ V020999999999999999999999999999+99999+99999999999ADDAA124000395AX1015245KA1240M+00065KA2240N-00435MG1100664100884OE11240107334020225OE22240076035020235OE33240040799999995REMSOD77124 HR PRECIPITATION (IN):0.01  WEATHER(CODE):1  24 HR MAX TEMP (F):33 24 HR MAX TEMP TIME (LST):1525 24 HR MIN TEMP (F):24 24 HR MIN TEMP TIME (LST):2359 AVERAGE STATION PRESSURE:29.725 MINIMUM SEA LEVEL PRESSURE:29.79 TIME OF OCCURRENCE:1354 PEAK WIND SPEED (MPH):24  PEAK WIND DIR (DEG):340 PEAK WIND TIME (LST):2022  FASTEST 2MIN SPEED (MPH):17 FASTEST 2MIN DIR (DEG):350 FASTEST 2MIN TIME (LST):2023 AVERAGE WIND SPEED (MPH):9.1  24 HR AVG TEMP (F):29 DEPART FROM NORMAL: +9  HEATING DEGREE DAYS:36  COOLING DEGREE DAYS:0   LATEST DAY MAX TEMP (0700-1900 LST):33  LATEST NIGHT MIN TEMP(1900-0800 LST):28 HOURLY INCREMENTAL PRECIPITATION VALUES (IN):    T    T    T    T    T    0.01 T    T    T    0.00 T    T    T    0.00 T    T    T    T    0.00 0.00 0.00 0.00 0.00EQDR01     N7GJS072R02     N7GKS075
0216743920146112010012105567+43900-069933FM-15+0023KNHZ V0203205N003152200059N9999999N5-00395-00725101555ADDAA101000095GA1005+999999999GD10991+9999999KA1999M-00061KA2999N-00441MA1101495101215MD1140154+9999REMMET10701/21/10 00:56:02 METAR KNHZ 210556Z 32006KT CLR M04/M07 A2997 RMK AO2 SLP155 T10391072 11006 21044 51015 $
0158743920146112010012106567+43900-069933FM-15+0023KNHZ V0203105N003152200059N9999999N5-00395-00725101655ADDAA101000095GA1005+999999999GD10991+9999999MA1101595101315REMMET08901/21/10 01:56:02 METAR KNHZ 210656Z 31006KT CLR M04/M07 A3000 RMK AO2 SLP165 T10391072 $
0158743920146112010012107567+43900-069933FM-15+0023KNHZ V0203205N002152200059N9999999N5-00445-00725101685ADDAA101000095GA1005+999999999GD10991+9999999MA1101635101355REMMET08901/21/10 02:56:02 METAR KNHZ 210756Z 32004KT CLR M04/M07 A3001 RMK AO2 SLP168 T10441072 $
0178743920146112010012108567+43900-069933FM-15+0023KNHZ V0209999C000052200059N9999999N5-00615-00785101755ADDAA101000095GA1005+999999999GD10991+9999999MA1101695101425MD1140204+9999REMMET09501/21/10 03:56:02 METAR KNHZ 210856Z 00000KT CLR M06/M08 A3003 RMK AO2 SLP175 T10611078 51020 $
0158743920146112010012109567+43900-069933FM-15+0023KNHZ V0209999C000052200059N9999999N5-00945-01065101785ADDAA101000095GA1005+999999999GD10991+9999999MA1101735101455REMMET08901/21/10 04:56:02 METAR KNHZ 210956Z 00000KT CLR M09/M11 A3004 RMK AO2 SLP178 T10941106 $
0197743920146112010012110567+43900-069933FM-15+0023KNHZ V0209999C000052200059N0160935N5-00945-01065101825ADDAA101000095GA1025+030485999GD11991+0304859GF102991999999999999999999MA1101765101485REMMET10201/21/10 05:56:02 METAR KNHZ 211056Z 00000KT 10SM FEW100 M09/M11 A3005 RMK AO2 SLP182 T10941106 $ (CP)
0278743920146112010012111567+43900-069933FM-15+0023KNHZ V0209999C000052200059N0160935N5-00895-01065101885ADDAA101000095AJ100469599999999GA1025+022865999GD11991+0228659GF102991999999999999999999KA1999M-00331KA2999N-01221MA1101835101555MD1340134+9999REMMET12601/21/10 06:56:02 METAR KNHZ 211156Z 00000KT 10SM FEW075 M09/M11 A3007 RMK AO2 SLP188 4/018 T10891106 11033 21122 53013 $ (CP)
0235743920146112010012112567+43900-069933FM-15+0023KNHZ V0202305N002152200059N0160935N5-01005-01065101925ADDAA101000095GA1045+012805999GA2045+027435999GD12991+0128059GD22991+0274359GF104991999999999999999999MA1101865101595REMMET10901/21/10 07:56:02 METAR KNHZ 211256Z 23004KT 10SM SCT042 SCT090 M10/M11 A3008 RMK AO2 SLP192 T11001106 $ (CP)
0235743920146112010012113567+43900-069933FM-15+0023KNHZ V0203005N003152200059N0160935N5-00175-00565102005ADDAA101000095GA1045+014025999GA2045+060965999GD12991+0140259GD22991+0609659GF104991999999999999999999MA1101935101655REMMET10901/21/10 08:56:02 METAR KNHZ 211356Z 30006KT 10SM SCT046 SCT200 M02/M06 A3010 RMK AO2 SLP200 T10171056 $ (CP)
0216743920146112010012114567+43900-069933FM-15+0023KNHZ V0203305N005752200059N0160935N5+00065-00505102015ADDAA101000095GA1045+012805999GD12991+0128059GF104991999999999999999999MA1101935101655MD1140134+9999REMMET10701/21/10 09:56:02 METAR KNHZ 211456Z 33011KT 10SM SCT042 01/M05 A3010 RMK AO2 SLP201 T00061050 51013 $ (CP)
0196743920146112010012115567+43900-069933FM-15+0023KNHZ V0203405N006252200059N0160935N5+00005-00445101945ADDAA101000095GA1045+014635999GD12991+0146359GF104991999999999999999999MA1101905101625REMMET10101/21/10 10:56:02 METAR KNHZ 211556Z 34012KT 10SM SCT048 00/M04 A3009 RMK AO2 SLP194 T00001044 $ (CP)
0207743920146112010012116567+43900-069933FM-15+0023KNHZ V0203205N006752200059N0160935N5+00115-00565101925ADDAA101000095GA1045+010365999GD12991+0103659GF104991999999999999999999MA1101865101595OC101135REMMET10401/21/10 11:56:02 METAR KNHZ 211656Z 32013G22KT 10SM SCT034 01/M06 A3008 RMK AO2 SLP192 T00111056 $ (CP)
0284743920146112010012117567+43900-069933FM-15+0023KNHZ V0203005N005752200059N0160935N5+00065-00615101935ADDAA101000095AJ100469599999999GA1025+009145999GD11991+0091459GF102991999999999999999999KA1999M+00111KA2999N-01061MA1101865101595MD1540084+9999REMMET13201/21/10 12:56:02 METAR KNHZ 211756Z 30011KT 10SM FEW030 01/M06 A3008 RMK AO2 SLP193 4/018 933030 T00061061 10011 21106 55008 $ (CP)
0197743920146112010012118567+43900-069933FM-15+0023KNHZ V0203105N006752200059N0160935N5+00115-00725101865ADDAA101000095GA1025+009145999GD11991+0091459GF102991999999999999999999MA1101795101525REMMET10201/21/10 13:56:02 METAR KNHZ 211856Z 31013KT 10SM FEW030 01/M07 A3006 RMK AO2 SLP186 T00111072 $ (RDG)
0197743920146112010012119567+43900-069933FM-15+0023KNHZ V0203005N005152200059N0160935N5+00115-00725101955ADDAA101000095GA1025+009145999GD11991+0091459GF102991999999999999999999MA1101905101625REMMET10201/21/10 14:56:02 METAR KNHZ 211956Z 30010KT 10SM FEW030 01/M07 A3009 RMK AO2 SLP195 T00111072 $ (RDG)
0183743920146112010012120567+43900-069933FM-15+0023KNHZ V0202905N002152200059N0160935N5+00005-00725101985ADDAA101000095GF100991999999999999999999MA1101935101655MD1340054+9999REMMET10501/21/10 15:56:02 METAR KNHZ 212056Z 29004KT 10SM CLR 00/M07 A3010 RMK AO2 SLP198 T00001072 53005 $ (RDG)
0164743920146112010012121567+43900-069933FM-15+0023KNHZ V0202805N002652200059N0160935N5-00335-00835101995ADDAA101000095GF100991999999999999999999MA1101935101655REMMET10001/21/10 16:56:02 METAR KNHZ 212156Z 28005KT 10SM CLR M03/M08 A3010 RMK AO2 SLP199 T10331083 $ (RDG)
0164743920146112010012122567+43900-069933FM-15+0023KNHZ V0202705N003152200059N0160935N5-00335-00785102005ADDAA101000095GF100991999999999999999999MA1101935101655REMMET10001/21/10 17:56:02 METAR KNHZ 212256Z 27006KT 10SM CLR M03/M08 A3010 RMK AO2 SLP200 T10331078 $ (RDG)
0245743920146112010012123567+43900-069933FM-15+0023KNHZ V0209999C000052200059N0160935N5-00225-00785101985ADDAA101000095AJ100469599999999GF100991999999999999999999KA1999M+00111KA2999N-00501MA1101935101655MD1040004+9999REMMET12401/21/10 18:56:02 METAR KNHZ 212356Z 00000KT 10SM CLR M02/M08 A3010 RMK AO2 SLP198 4/018 T10221078 10011 21050 50000 $ (RDG)
0158743920146112010012200567+43900-069933FM-15+0023KNHZ V0203305N002152200059N0160935N5-00335-00835101945ADDAA101000095GF100991999999999999999999MA1101905101625REMMET09401/21/10 19:56:01 METAR KNHZ 220056Z 33004KT 10SM CLR M03/M08 A3009 RMK AO2 SLP194 T10331083 $
0158743920146112010012201567+43900-069933FM-15+0023KNHZ V0203305N002152200059N0160935N5-00505-00895101885ADDAA101000095GF100991999999999999999999MA1101835101555REMMET09401/21/10 20:56:01 METAR KNHZ 220156Z 33004KT 10SM CLR M05/M09 A3007 RMK AO2 SLP188 T10501089 $
0178743920146112010012202567+43900-069933FM-15+0023KNHZ V0209999C000052200059N0160935N5-00445-00835101815ADDAA101000095GF100991999999999999999999MA1101765101485MD1840174+9999REMMET10001/21/10 21:56:01 METAR KNHZ 220256Z 00000KT 10SM CLR M04/M08 A3005 RMK AO2 SLP181 T10441083 58017 $
0158743920146112010012203567+43900-069933FM-15+0023KNHZ V0202705N002652200059N9999999N5-00725-01065101785ADDAA101000095GA1005+999999999GD10991+9999999MA1101735101455REMMET08901/21/10 22:56:01 METAR KNHZ 220356Z 27005KT CLR M07/M11 A3004 RMK AO2 SLP178 T10721106 $
0168743920146112010012204567+43900-069933FM-15+0023KNHZ V0202505N002652200059N9999999N5-00785-01065101765ADDAA101000095GA1005+999999999GD10991+9999999MA1101695101425REMMET09901/21/10 23:56:01 METAR KNHZ 220456Z 25005KT CLR M08/M11 A3003 RMK AO2 SLP176 T10781106 400111122 $
0910743920146112010012204596+43900-069933SOD  +0023KNHZ V020999999999999999999999999999+99999+99999999999ADDAA124000095KA1240M+00115KA2240N-01215MG1101494101524OE11240111832011545OE22240089431011545OE33240027799999995REMSOD75424 HR PRECIPITATION (IN):0.00  24 HR MAX TEMP (F):34 24 HR MAX TEMP TIME (LST):1529 24 HR MIN TEMP (F):10 24 HR MIN TEMP TIME (LST):0645 AVERAGE STATION PRESSURE:29.970 MINIMUM SEA LEVEL PRESSURE:29.98 TIME OF OCCURRENCE:0029 PEAK WIND SPEED (MPH):25  PEAK WIND DIR (DEG):320 PEAK WIND TIME (LST):1154  FASTEST 2MIN SPEED (MPH):20 FASTEST 2MIN DIR (DEG):310 FASTEST 2MIN TIME (LST):1154 AVERAGE WIND SPEED (MPH):6.2  24 HR AVG TEMP (F):22 DEPART FROM NORMAL: +1  HEATING DEGREE DAYS:43  COOLING DEGREE DAYS:0   LATEST DAY MAX TEMP (0700-1900 LST):34  LATEST NIGHT MIN TEMP(1900-0800 LST):10 HOURLY INCREMENTAL PRECIPITATION VALUES (IN):.00 0.00 0.00 0.00 0.00 0.00 0.00 0.00 0.00 0.00 0.00 0.00 0.00 0.00 0.00 0.00 0.00 0.00 0.00 0.00 0.00 0.00 0.00 0.00EQDR01     N7GJS072R02     N7GKS075
0216743920146112010012205567+43900-069933FM-15+0023KNHZ V0202505N003152200059N9999999N5-00675-00945101795ADDAA101000095GA1005+999999999GD10991+9999999KA1999M-00221KA2999N-01111MA1101735101455MD1540034+9999REMMET10701/22/10 00:56:02 METAR KNHZ 220556Z 25006KT CLR M07/M09 A3004 RMK AO2 SLP179 T10671094 11022 21111 55003 $
0158743920146112010012206567+43900-069933FM-15+0023KNHZ V0209999C000052200059N9999999N5-00565-00835101805ADDAA101000095GA1005+999999999GD10991+9999999MA1101735101455REMMET08901/22/10 01:56:02 METAR KNHZ 220656Z 00000KT CLR M06/M08 A3004 RMK AO2 SLP180 T10561083 $
0158743920146112010012207567+43900-069933FM-15+0023KNHZ V0209999C000052200059N9999999N5-00785-00945101765ADDAA101000095GA1005+999999999GD10991+9999999MA1101695101425REMMET08901/22/10 02:56:02 METAR KNHZ 220756Z 00000KT CLR M08/M09 A3003 RMK AO2 SLP176 T10781094 $
0178743920146112010012208567+43900-069933FM-15+0023KNHZ V0203205N001552200059N9999999N5-00725-00895101735ADDAA101000095GA1005+999999999GD10991+9999999MA1101665101385MD1840064+9999REMMET09501/22/10 03:56:02 METAR KNHZ 220856Z 32003KT CLR M07/M09 A3002 RMK AO2 SLP173 T10721089 58006 $
0158743920146112010012209567+43900-069933FM-15+0023KNHZ V0200105N003652200059N9999999N5-00785-01005101635ADDAA101000095GA1005+999999999GD10991+9999999MA1101565101285REMMET08901/22/10 04:56:02 METAR KNHZ 220956Z 01007KT CLR M08/M10 A2999 RMK AO2 SLP163 T10781100 $
0197743920146112010012210567+43900-069933FM-15+0023KNHZ V0200405N003152200059N0160935N5-01005-01175101555ADDAA101000095GA1025+060965999GD11991+0609659GF102991999999999999999999MA1101495101215REMMET10201/22/10 05:56:02 METAR KNHZ 221056Z 04006KT 10SM FEW200 M10/M12 A2997 RMK AO2 SLP155 T11001117 $ (CP)
0316743920146112010012211567+43900-069933FM-15+0023KNHZ V0209999V00155060965MN0160935N5-01335-01565101685ADDAA101000095AJ100469599999999GA1025+045725999GA2075+060965999GD11991+0457259GD23991+0609659GF107991999999999999999999KA1999M-00561KA2999N-01391MA1101635101355MD1540044+9999REMMET13301/22/10 06:56:02 METAR KNHZ 221156Z VRB03KT 10SM FEW150 BKN200 M13/M16 A3001 RMK AO2 SLP168 4/018 T11331156 11056 21139 55004 $ (CP)
0235743920146112010012212567+43900-069933FM-15+0023KNHZ V0201705N00215060965MN0160935N5-01005-01175101845ADDAA101000095GA1025+045725999GA2075+060965999GD11991+0457259GD23991+0609659GF107991999999999999999999MA1101765101485REMMET10901/22/10 07:56:02 METAR KNHZ 221256Z 17004KT 10SM FEW150 BKN200 M10/M12 A3005 RMK AO2 SLP184 T11001117 $ (CP)
0273743920146112010012213567+43900-069933FM-15+0023KNHZ V0200205N00215060965MN0160935N5-00725-01115101825ADDAA101000095GA1025+015245999GA2045+045725999GA3075+060965999GD11991+0152459GD22991+0457259GD33991+0609659GF107991999999999999999999MA1101765101485REMMET11601/22/10 08:56:02 METAR KNHZ 221356Z 02004KT 10SM FEW050 SCT150 BKN200 M07/M11 A3005 RMK AO2 SLP182 T10721111 $ (CP)
0293743920146112010012214567+43900-069933FM-15+0023KNHZ V0200405N00365060965MN0160935N5-00445-00945101765ADDAA101000095GA1025+015245999GA2045+039625999GA3075+060965999GD11991+0152459GD22991+0396259GD33991+0609659GF107991999999999999999999MA1101695101425MD1040084+9999REMMET12201/22/10 09:56:02 METAR KNHZ 221456Z 04007KT 10SM FEW050 SCT130 BKN200 M04/M09 A3003 RMK AO2 SLP176 T10441094 50008 $ (CP)
0235743920146112010012215567+43900-069933FM-15+0023KNHZ V0200505N00365060965MN0160935N5-00225-00895101745ADDAA101000095GA1025+039625999GA2075+060965999GD11991+0396259GD23991+0609659GF107991999999999999999999MA1101665101385REMMET10901/22/10 10:56:02 METAR KNHZ 221556Z 05007KT 10SM FEW130 BKN200 M02/M09 A3002 RMK AO2 SLP174 T10221089 $ (CP)
0197743920146112010012216567+43900-069933FM-15+0023KNHZ V0200405N00365060965MN0160935N5-00065-00785101655ADDAA101000095GA1075+060965999GD13991+0609659GF107991999999999999999999MA1101595101315REMMET10201/22/10 11:56:02 METAR KNHZ 221656Z 04007KT 10SM BKN200 M01/M08 A3000 RMK AO2 SLP165 T10061078 $ (CP)
0323743920146112010012217567+43900-069933FM-15+0023KNHZ V0200505N00415060965MN0160935N5-00065-00785101635ADDAA101000095AJ100469599999999GA1025+009145999GA2075+060965999GD11991+0091459GD23991+0609659GF107991999999999999999999KA1999M+00001KA2999N-01331MA1101565101285MD1840134+9999REMMET14001/22/10 12:56:02 METAR KNHZ 221756Z 05008KT 10SM FEW030 BKN200 M01/M08 A2999 RMK AO2 SLP163 4/018 933030 T10061078 10000 21133 58013 $ (CP)
0235743920146112010012218567+43900-069933FM-15+0023KNHZ V0200505N00315060965MN0160935N5+00005-00785101635ADDAA101000095GA1025+015245999GA2075+060965999GD11991+0152459GD23991+0609659GF107991999999999999999999MA1101565101285REMMET10901/22/10 13:56:02 METAR KNHZ 221856Z 05006KT 10SM FEW050 BKN200 00/M08 A2999 RMK AO2 SLP163 T00001078 $ (RDG)
0236743920146112010012219567+43900-069933FM-15+0023KNHZ V0200605N00265060965MN0160935N5-00065-00785101675ADDAA101000095GA1025+015245999GA2075+060965999GD11991+0152459GD23991+0609659GF107991999999999999999999MA1101635101355REMMET11001/22/10 14:56:02 METAR KNHZ 221956Z 06005KT 10SM FEW050 BKN200 M01/M08 A3001 RMK AO2 SLP167 T10061078 $ (RDG)
0256743920146112010012220567+43900-069933FM-15+0023KNHZ V0200505N00155060965MN0160935N5-00115-00785101725ADDAA101000095GA1025+024385999GA2075+060965999GD11991+0243859GD23991+0609659GF107991999999999999999999MA1101665101385MD1340094+9999REMMET11601/22/10 15:56:02 METAR KNHZ 222056Z 05003KT 10SM FEW080 BKN200 M01/M08 A3002 RMK AO2 SLP172 T10111078 53009 $ (RDG)
0236743920146112010012221567+43900-069933FM-15+0023KNHZ V0200205N00265060965MN0160935N5-00225-00785101755ADDAA101000095GA1025+030485999GA2085+060965999GD11991+0304859GD24991+0609659GF108991999999999999999999MA1101695101425REMMET11001/22/10 16:56:02 METAR KNHZ 222156Z 02005KT 10SM FEW100 OVC200 M02/M08 A3003 RMK AO2 SLP175 T10221078 $ (RDG)
0198743920146112010012222567+43900-069933FM-15+0023KNHZ V0200205N00265060965MN0160935N5-00395-00895101805ADDAA101000095GA1085+060965999GD14991+0609659GF108991999999999999999999MA1101735101455REMMET10301/22/10 17:56:02 METAR KNHZ 222256Z 02005KT 10SM OVC200 M04/M09 A3004 RMK AO2 SLP180 T10391089 $ (RDG)
0279743920146112010012223567+43900-069933FM-15+0023KNHZ V0209999C00005060965MN0160935N5-00395-00945101885ADDAA101000095AJ100469599999999GA1085+060965999GD14991+0609659GF108991999999999999999999KA1999M+00001KA2999N-00391MA1101835101555MD1340164+9999REMMET12701/22/10 18:56:02 METAR KNHZ 222356Z 00000KT 10SM OVC200 M04/M09 A3007 RMK AO2 SLP188 4/018 T10391094 10000 21039 53016 $ (RDG)
0192743920146112010012300567+43900-069933FM-15+0023KNHZ V0209999C00005060965MN0160935N5-00505-01005101945ADDAA101000095GA1085+060965999GD14991+0609659GF108991999999999999999999MA1101905101625REMMET09701/22/10 19:56:01 METAR KNHZ 230056Z 00000KT 10SM OVC200 M05/M10 A3009 RMK AO2 SLP194 T10501100 $
0192743920146112010012301567+43900-069933FM-15+0023KNHZ V0200205N00155060965MN0160935N5-00615-01115101995ADDAA101000095GA1085+060965999GD14991+0609659GF108991999999999999999999MA1101935101655REMMET09701/22/10 20:56:01 METAR KNHZ 230156Z 02003KT 10SM OVC200 M06/M11 A3010 RMK AO2 SLP199 T10611111 $
0212743920146112010012302567+43900-069933FM-15+0023KNHZ V0200205N00155060965MN0160935N5-00675-01115102055ADDAA101000095GA1085+060965999GD14991+0609659GF108991999999999999999999MA1102005101725MD1340174+9999REMMET10301/22/10 21:56:01 METAR KNHZ 230256Z 02003KT 10SM OVC200 M07/M11 A3012 RMK AO2 SLP205 T10671111 53017 $
0158743920146112010012303567+43900-069933FM-15+0023KNHZ V0200205N002152200059N9999999N5-00785-01225102105ADDAA101000095GA1005+999999999GD10991+9999999MA1102035101755REMMET08901/22/10 22:56:01 METAR KNHZ 230356Z 02004KT CLR M08/M12 A3013 RMK AO2 SLP210 T10781122 $
0168743920146112010012304567+43900-069933FM-15+0023KNHZ V0200305N002152200059N9999999N5-00835-01395102125ADDAA101000095GA1005+999999999GD10991+9999999MA1102075101795REMMET09901/22/10 23:56:01 METAR KNHZ 230456Z 03004KT CLR M08/M14 A3014 RMK AO2 SLP212 T10831139 400001139 $
0910743920146112010012304596+43900-069933SOD  +0023KNHZ V020999999999999999999999999999+99999+99999999999ADDAA124000095KA1240M+00005KA2240N-01385MG1101414101564OE11240076004010035OE22240058104010035OE33240021599999995REMSOD75424 HR PRECIPITATION (IN):0.00  24 HR MAX TEMP (F):32 24 HR MAX TEMP TIME (LST):1454 24 HR MIN TEMP (F):7  24 HR MIN TEMP TIME (LST):0655 AVERAGE STATION PRESSURE:29.945 MINIMUM SEA LEVEL PRESSURE:29.99 TIME OF OCCURRENCE:0603 PEAK WIND SPEED (MPH):17  PEAK WIND DIR (DEG):40  PEAK WIND TIME (LST):1003  FASTEST 2MIN SPEED (MPH):13 FASTEST 2MIN DIR (DEG):40  FASTEST 2MIN TIME (LST):1003 AVERAGE WIND SPEED (MPH):4.8  24 HR AVG TEMP (F):20 DEPART FROM NORMAL: -2  HEATING DEGREE DAYS:45  COOLING DEGREE DAYS:0   LATEST DAY MAX TEMP (0700-1900 LST):32  LATEST NIGHT MIN TEMP(1900-0800 LST):7  HOURLY INCREMENTAL PRECIPITATION VALUES (IN):.00 0.00 0.00 0.00 0.00 0.00 0.00 0.00 0.00 0.00 0.00 0.00 0.00 0.00 0.00 0.00 0.00 0.00 0.00 0.00 0.00 0.00 0.00 0.00EQDR01     N7GJS072R02     N7GKS075
0216743920146112010012305567+43900-069933FM-15+0023KNHZ V0200205N002152200059N9999999N5-00835-01565102185ADDAA101000095GA1005+999999999GD10991+9999999KA1999M-00391KA2999N-00941MA1102135101865MD1340134+9999REMMET10701/23/10 00:56:02 METAR KNHZ 230556Z 02004KT CLR M08/M16 A3016 RMK AO2 SLP218 T10831156 11039 21094 53013 $
0158743920146112010012306567+43900-069933FM-15+0023KNHZ V0203405N001552200059N9999999N5-01115-01615102225ADDAA101000095GA1005+999999999GD10991+9999999MA1102175101895REMMET08901/23/10 01:56:02 METAR KNHZ 230656Z 34003KT CLR M11/M16 A3017 RMK AO2 SLP222 T11111161 $
0158743920146112010012307567+43900-069933FM-15+0023KNHZ V0203405N001552200059N9999999N5-01225-01565102215ADDAA101000095GA1005+999999999GD10991+9999999MA1102135101865REMMET08901/23/10 02:56:02 METAR KNHZ 230756Z 34003KT CLR M12/M16 A3016 RMK AO2 SLP221 T11221156 $
0178743920146112010012308567+43900-069933FM-15+0023KNHZ V0200205N001552200059N9999999N5-01005-01785102235ADDAA101000095GA1005+999999999GD10991+9999999MA1102175101895MD1140054+9999REMMET09501/23/10 03:56:02 METAR KNHZ 230856Z 02003KT CLR M10/M18 A3017 RMK AO2 SLP223 T11001178 51005 $
0158743920146112010012309567+43900-069933FM-15+0023KNHZ V0200305N002152200059N9999999N5-01285-01835102275ADDAA101000095GA1005+999999999GD10991+9999999MA1102205101925REMMET08901/23/10 04:56:02 METAR KNHZ 230956Z 03004KT CLR M13/M18 A3018 RMK AO2 SLP227 T11281183 $
0158743920146112010012310567+43900-069933FM-15+0023KNHZ V0209999C000052200059N9999999N5-01225-01835102345ADDAA101000095GA1005+999999999GD10991+9999999MA1102275101995REMMET08901/23/10 05:56:02 METAR KNHZ 231056Z 00000KT CLR M12/M18 A3020 RMK AO2 SLP234 T11221183 $
0190743920146112010012311566+43900-069933FM-15+0023KNHZ V0203405N001552200059N9999999N5-01445-01785102425ADDAA101000095GA1005+999999999GD10991+9999999MA1102375102095MD1340194+9999REMMET10701/23/10 06:56:02 METAR KNHZ 231156Z 34003KT CLR M14/M18 A3023 RMK AO2 SLP242 T11441178 11083 21156 53019 $
0158743920146112010012312567+43900-069933FM-15+0023KNHZ V0200105N001552200059N9999999N5-01445-01785102495ADDAA101000095GA1005+999999999GD10991+9999999MA1102445102165REMMET08901/23/10 07:56:02 METAR KNHZ 231256Z 01003KT CLR M14/M18 A3025 RMK AO2 SLP249 T11441178 $
0158743920146112010012313567+43900-069933FM-15+0023KNHZ V0200305N001552200059N9999999N5-00945-01675102535ADDAA101000095GA1005+999999999GD10991+9999999MA1102475102195REMMET08901/23/10 08:56:02 METAR KNHZ 231356Z 03003KT CLR M09/M17 A3026 RMK AO2 SLP253 T10941167 $
0178743920146112010012314567+43900-069933FM-15+0023KNHZ V0200605N002152200059N9999999N5-00785-01565102545ADDAA101000095GA1005+999999999GD10991+9999999MA1102475102195MD1140124+9999REMMET09501/23/10 09:56:02 METAR KNHZ 231456Z 06004KT CLR M08/M16 A3026 RMK AO2 SLP254 T10781156 51012 $
0158743920146112010012315567+43900-069933FM-15+0023KNHZ V0209999C000052200059N9999999N5-00565-01445102485ADDAA101000095GA1005+999999999GD10991+9999999MA1102405102135REMMET08901/23/10 10:56:02 METAR KNHZ 231556Z 00000KT CLR M06/M14 A3024 RMK AO2 SLP248 T10561144 $
0158743920146112010012316567+43900-069933FM-15+0023KNHZ V0209999C000052200059N9999999N5-00445-01395102375ADDAA101000095GA1005+999999999GD10991+9999999MA1102305102025REMMET08901/23/10 11:56:02 METAR KNHZ 231656Z 00000KT CLR M04/M14 A3021 RMK AO2 SLP237 T10441139 $
0216743920146112010012317567+43900-069933FM-15+0023KNHZ V0209999C000052200059N9999999N5-00115-01445102285ADDAA101000095GA1005+999999999GD10991+9999999KA1999M-00111KA2999N-01611MA1102245101965MD1840264+9999REMMET10701/23/10 12:56:02 METAR KNHZ 231756Z 00000KT CLR M01/M14 A3019 RMK AO2 SLP228 T10111144 11011 21161 58026 $
0158743920146112010012318567+43900-069933FM-15+0023KNHZ V0209999C000052200059N9999999N5-00065-01395102255ADDAA101000095GA1005+999999999GD10991+9999999MA1102175101895REMMET08901/23/10 13:56:02 METAR KNHZ 231856Z 00000KT CLR M01/M14 A3017 RMK AO2 SLP225 T10061139 $
0158743920146112010012319567+43900-069933FM-15+0023KNHZ V0202005N003152200059N9999999N5-00175-00945102265ADDAA101000095GA1005+999999999GD10991+9999999MA1102205101925REMMET08901/23/10 14:56:02 METAR KNHZ 231956Z 20006KT CLR M02/M09 A3018 RMK AO2 SLP226 T10171094 $
0178743920146112010012320567+43900-069933FM-15+0023KNHZ V0201705N002152200059N9999999N5-00225-00945102255ADDAA101000095GA1005+999999999GD10991+9999999MA1102205101925MD1640034+9999REMMET09501/23/10 15:56:02 METAR KNHZ 232056Z 17004KT CLR M02/M09 A3018 RMK AO2 SLP225 T10221094 56003 $
0158743920146112010012321567+43900-069933FM-15+0023KNHZ V0202005N001552200059N9999999N5-00395-01005102335ADDAA101000095GA1005+999999999GD10991+9999999MA1102275101995REMMET08901/23/10 16:56:02 METAR KNHZ 232156Z 20003KT CLR M04/M10 A3020 RMK AO2 SLP233 T10391100 $
0158743920146112010012322567+43900-069933FM-15+0023KNHZ V0209999C000052200059N9999999N5-00445-00895102405ADDAA101000095GA1005+999999999GD10991+9999999MA1102345102065REMMET08901/23/10 17:56:02 METAR KNHZ 232256Z 00000KT CLR M04/M09 A3022 RMK AO2 SLP240 T10441089 $
0216743920146112010012323567+43900-069933FM-15+0023KNHZ V0209999C000052200059N9999999N5-00565-00945102485ADDAA101000095GA1005+999999999GD10991+9999999KA1999M+00001KA2999N-01111MA1102405102135MD1140224+9999REMMET10701/23/10 18:56:02 METAR KNHZ 232356Z 00000KT CLR M06/M09 A3024 RMK AO2 SLP248 T10561094 10000 21111 51022 $
0158743920146112010012400567+43900-069933FM-15+0023KNHZ V0209999C000052200059N9999999N5-00615-00945102505ADDAA101000095GA1005+999999999GD10991+9999999MA1102445102165REMMET08901/23/10 19:56:01 METAR KNHZ 240056Z 00000KT CLR M06/M09 A3025 RMK AO2 SLP250 T10611094 $
0158743920146112010012401567+43900-069933FM-15+0023KNHZ V0209999C000052200059N9999999N5-00895-01065102505ADDAA101000095GA1005+999999999GD10991+9999999MA1102445102165REMMET08901/23/10 20:56:01 METAR KNHZ 240156Z 00000KT CLR M09/M11 A3025 RMK AO2 SLP250 T10891106 $
0178743920146112010012402567+43900-069933FM-15+0023KNHZ V0209999C000052200059N9999999N5-01115-01225102465ADDAA101000095GA1005+999999999GD10991+9999999MA1102405102135MD1840014+9999REMMET09501/23/10 21:56:01 METAR KNHZ 240256Z 00000KT CLR M11/M12 A3024 RMK AO2 SLP246 T11111122 58001 $
0158743920146112010012403567+43900-069933FM-15+0023KNHZ V0209999C000052200059N9999999N5-01225-01395102405ADDAA101000095GA1005+999999999GD10991+9999999MA1102345102065REMMET08901/23/10 22:56:01 METAR KNHZ 240356Z 00000KT CLR M12/M14 A3022 RMK AO2 SLP240 T11221139 $
0168743920146112010012404567+43900-069933FM-15+0023KNHZ V0209999C000052200059N9999999N5-01225-01395102385ADDAA101000095GA1005+999999999GD10991+9999999MA1102305102025REMMET09901/23/10 23:56:01 METAR KNHZ 240456Z 00000KT CLR M12/M14 A3021 RMK AO2 SLP238 T11221139 400001161 $
0910743920146112010012404596+43900-069933SOD  +0023KNHZ V020999999999999999999999999999+99999+99999999999ADDAA124000095KA1240M+00005KA2240N-01605MG1102004102134OE11240044702008275OE22240035818015325OE33240009499999995REMSOD75424 HR PRECIPITATION (IN):0.00  24 HR MAX TEMP (F):32 24 HR MAX TEMP TIME (LST):1401 24 HR MIN TEMP (F):3  24 HR MIN TEMP TIME (LST):0712 AVERAGE STATION PRESSURE:30.120 MINIMUM SEA LEVEL PRESSURE:30.16 TIME OF OCCURRENCE:0041 PEAK WIND SPEED (MPH):10  PEAK WIND DIR (DEG):20  PEAK WIND TIME (LST):0827  FASTEST 2MIN SPEED (MPH):8  FASTEST 2MIN DIR (DEG):180 FASTEST 2MIN TIME (LST):1532 AVERAGE WIND SPEED (MPH):2.1  24 HR AVG TEMP (F):18 DEPART FROM NORMAL: -5  HEATING DEGREE DAYS:47  COOLING DEGREE DAYS:0   LATEST DAY MAX TEMP (0700-1900 LST):32  LATEST NIGHT MIN TEMP(1900-0800 LST):3  HOURLY INCREMENTAL PRECIPITATION VALUES (IN):.00 0.00 0.00 0.00 0.00 0.00 0.00 0.00 0.00 0.00 0.00 0.00 0.00 0.00 0.00 0.00 0.00 0.00 0.00 0.00 0.00 0.00 0.00 0.00EQDR01     N7GJS072R02     N7GKS075
0216743920146112010012405567+43900-069933FM-15+0023KNHZ V0209999C000052200059N9999999N5-01065-01225102415ADDAA101000095GA1005+999999999GD10991+9999999KA1999M-00391KA2999N-01281MA1102345102065MD1540054+9999REMMET10701/24/10 00:56:02 METAR KNHZ 240556Z 00000KT CLR M11/M12 A3022 RMK AO2 SLP241 T11061122 11039 21128 55005 $
0158743920146112010012406567+43900-069933FM-15+0023KNHZ V0209999C000052200059N9999999N5-01115-01335102415ADDAA101000095GA1005+999999999GD10991+9999999MA1102345102065REMMET08901/24/10 01:56:02 METAR KNHZ 240656Z 00000KT CLR M11/M13 A3022 RMK AO2 SLP241 T11111133 $
0158743920146112010012407567+43900-069933FM-15+0023KNHZ V0209999C000052200059N9999999N5-01175-01335102415ADDAA101000095GA1005+999999999GD10991+9999999MA1102345102065REMMET08901/24/10 02:56:02 METAR KNHZ 240756Z 00000KT CLR M12/M13 A3022 RMK AO2 SLP241 T11171133 $
0178743920146112010012408567+43900-069933FM-15+0023KNHZ V0209999C000052200059N9999999N5-01115-01285102435ADDAA101000095GA1005+999999999GD10991+9999999MA1102375102095MD1340024+9999REMMET09501/24/10 03:56:02 METAR KNHZ 240856Z 00000KT CLR M11/M13 A3023 RMK AO2 SLP243 T11111128 53002 $
0158743920146112010012409567+43900-069933FM-15+0023KNHZ V0209999C000052200059N9999999N5-01175-01335102415ADDAA101000095GA1005+999999999GD10991+9999999MA1102345102065REMMET08901/24/10 04:56:02 METAR KNHZ 240956Z 00000KT CLR M12/M13 A3022 RMK AO2 SLP241 T11171133 $
0158743920146112010012410567+43900-069933FM-15+0023KNHZ V0209999C000052200059N9999999N5-01175-01285102415ADDAA101000095GA1005+999999999GD10991+9999999MA1102345102065REMMET08901/24/10 05:56:02 METAR KNHZ 241056Z 00000KT CLR M12/M13 A3022 RMK AO2 SLP241 T11171128 $
0219743920146112010012411567+43900-069933FM-15+0023KNHZ V0209999C000052200059N9999999N5-01175-01285102435ADDAA101000095GA1025+025915999GD11991+0259159KA1999M-01001KA2999N-01281MA1102375102095MD1540004+9999REMMET11001/24/10 06:56:02 METAR KNHZ 241156Z 00000KT FEW085 M12/M13 A3023 RMK AO2 SLP243 T11171128 11100 21128 55000 $
0158743920146112010012412567+43900-069933FM-15+0023KNHZ V0209999C000052200059N9999999N5-01115-01285102415ADDAA101000095GA1005+999999999GD10991+9999999MA1102345102065REMMET08901/24/10 07:56:02 METAR KNHZ 241256Z 00000KT CLR M11/M13 A3022 RMK AO2 SLP241 T11111128 $
0158743920146112010012413567+43900-069933FM-15+0023KNHZ V0209999C000052200059N9999999N5-00895-01115102435ADDAA101000095GA1005+999999999GD10991+9999999MA1102375102095REMMET08901/24/10 08:56:02 METAR KNHZ 241356Z 00000KT CLR M09/M11 A3023 RMK AO2 SLP243 T10891111 $
0178743920146112010012414567+43900-069933FM-15+0023KNHZ V0209999C000052200059N9999999N5-00725-01005102395ADDAA101000095GA1005+999999999GD10991+9999999MA1102345102065MD1840044+9999REMMET09501/24/10 09:56:02 METAR KNHZ 241456Z 00000KT CLR M07/M10 A3022 RMK AO2 SLP239 T10721100 58004 $
0158743920146112010012415567+43900-069933FM-15+0023KNHZ V0209999C000052200019N9999999N5-00445-00895102295ADDAA101000095MA1102245101965REMMET08501/24/10 10:56:02 METAR KNHZ 241556Z 00000KT M04/M09 A3019 RMK AO2 SLP229 T10441089 $EQDR01      7SKY009R02      7GAS009
0157743920146112010012416567+43900-069933FM-15+0023KNHZ V0209999C000052200019N9999999N5+00005-00725102245ADDAA101000095MA1102175101895REMMET08401/24/10 11:56:02 METAR KNHZ 241656Z 00000KT 00/M07 A3017 RMK AO2 SLP224 T00001072 $EQDR01      7SKY009R02      7GAS009
0189743920146112010012417567+43900-069933FM-15+0023KNHZ V0202005N005152200059N9999999N5+00115-00895102165ADDAA101000095GA1005+999999999GD10991+9999999MA1102105101825MD1640234+9999REMMET10601/24/10 12:56:02 METAR KNHZ 241756Z 20010KT CLR 01/M09 A3015 RMK AO2 SLP216 T00111089 10011 21117 56023 $
0157743920146112010012418567+43900-069933FM-15+0023KNHZ V0201705N003652200059N9999999N5+00175-00615102095ADDAA101000095GA1005+999999999GD10991+9999999MA1102035101755REMMET08801/24/10 13:56:02 METAR KNHZ 241856Z 17007KT CLR 02/M06 A3013 RMK AO2 SLP209 T00171061 $
0157743920146112010012419567+43900-069933FM-15+0023KNHZ V0201705N004152200059N9999999N5+00225-00675102045ADDAA101000095GA1005+999999999GD10991+9999999MA1102005101725REMMET08801/24/10 14:56:02 METAR KNHZ 241956Z 17008KT CLR 02/M07 A3012 RMK AO2 SLP204 T00221067 $
0180743920146112010012420567+43900-069933FM-15+0023KNHZ V0202005N003152200059N9999999N5+00005-00565102065ADDAA101000095GA1025+027435999GD11991+0274359MA1102005101725MD1540104+9999REMMET09701/24/10 15:56:02 METAR KNHZ 242056Z 20006KT FEW090 00/M06 A3012 RMK AO2 SLP206 T00001056 55010 $
0160743920146112010012421567+43900-069933FM-15+0023KNHZ V0201905N00365021345MN9999999N5+00175-00395102075ADDAA101000095GA1085+021345999GD14991+0213459MA1102005101725REMMET09101/24/10 16:56:02 METAR KNHZ 242156Z 19007KT OVC070 02/M04 A3012 RMK AO2 SLP207 T00171039 $
0239743920146112010012422567+43900-069933FM-15+0023KNHZ V0202005N00515008845MN9999999N5+00175-00285102135ADDAA101000025AU110020015AW1615GA1075+008845999GA2085+014335999GD13991+0088459GD24991+0143359MA1102075101795REMMET12201/24/10 17:56:02 METAR KNHZ 242256Z 20010KT -RA BKN029 OVC047 02/M03 A3014 RMK AO2 UPB35E48RAB48 SLP213 P0000 T00171028 $
0219743920146112010012423127+43900-069933FM-16+0023KNHZ V0202005N00465013115MN9999999N5+00205-00205999999ADDAA101000021AU110020015AW1615GA1045+008845999GA2085+013115999GD12991+0088459GD24991+0131159MA1102075101795REMMET10201/24/10 18:12:02 SPECI KNHZ 242312Z 20009KT -RA SCT029 OVC043 02/M02 A3014 RMK AO2 UPB2259E00 P0000 $
0276743920146112010012423567+43900-069933FM-15+0023KNHZ V0201605N00265011285MN9999999N5+00065-00065102095ADDAA101000395AA206000391GA1085+011285999GD14991+0112859KA1999M+00281KA2999N+00001MA1102035101755MD1040034+9999REMMET13701/24/10 18:56:02 METAR KNHZ 242356Z 16005KT OVC037 01/M01 A3013 RMK AO2 RAE48UPB2259E00 SLP209 P0001 60001 T00061006 10028 20000 50003 $EQDQ01  00038PRCP06
0197743920146112010012500437+43900-069933FM-16+0023KNHZ V0201605N00155007325MN9999999N5+00105+00005999999ADDAA101000021GA1075+007325999GA2085+010065999GD13991+0073259GD24991+0100659MA1102035101755REMMET09701/24/10 19:43:01 SPECI KNHZ 250043Z 16003KT BKN024 OVC033 01/00 A3013 RMK AO2 RAB2359E33 P0000 $
0194743920146112010012500567+43900-069933FM-15+0023KNHZ V0209999C00005006715MN9999999N5+00115+00005102085ADDAA101000025AU110020015AW1615GA1085+006715999GD14991+0067159MA1102005101725REMMET10801/24/10 19:56:01 METAR KNHZ 250056Z 00000KT -RA OVC022 01/00 A3012 RMK AO2 RAB2359 SLP208 P0000 T00110000 $
0207743920146112010012501097+43900-069933FM-16+0023KNHZ V0209999C00005006715MN9999999N5+00105+00105999999ADDAA101000021AU110020015AW1615GA1025+002745999GA2085+006715999GD11991+0027459GD24991+0067159MA1102005101725REMMET09001/24/10 20:09:01 SPECI KNHZ 250109Z 00000KT -RA FEW009 OVC022 01/01 A3012 RMK AO2 P0000 $
0257743920146112010012501287+43900-069933FM-16+0023KNHZ V0209999C00005002745MN9999999N5+00105+00105999999ADDAA101000021AU110020015AW1615GA1075+002745999GA2075+004885999GA3085+006105999GD13991+0027459GD23991+0048859GD34991+0061059MA1102005101725REMMET10901/24/10 20:28:01 SPECI KNHZ 250128Z 00000KT -RA BKN009 BKN016 OVC020 01/01 A3012 RMK AO2 CIG 007V012 P0000 $
0245743920146112010012501567+43900-069933FM-15+0023KNHZ V0209999C00005001525MN9999999N5+00115+00065102075ADDAA101000025AU110020015AW1615GA1075+001525999GA2085+003055999GD13991+0015259GD24991+0030559MA1102005101725REMMET12801/24/10 20:56:01 METAR KNHZ 250156Z 00000KT -RA BKN005 OVC010 01/01 A3012 RMK AO2 UPB50E55 CIG 004V009 SLP207 P0000 T00110006 $
0308743920146112010012502567+43900-069933FM-15+0023KNHZ V0209999C00005002745MN9999999N5+00115+00115102045ADDAA101000025AA203000021AU120090015AW1401AW2415GA1075+002745999GA2085+003665999GD13991+0027459GD24991+0036659MA1101965101695MD1840054+9999REMMET14101/24/10 21:56:01 METAR KNHZ 250256Z 00000KT UP BKN009 OVC012 01/01 A3011 RMK AO2 RAE54UPB54 CIG 003 R01 SLP204 P0000 60000 T00110011 58005 $EQDQ01  00008PRCP03
0256743920146112010012503197+43900-069933FM-16+0023KNHZ V0200605N00155000915MN9999999N5+00105+00105999999ADDAA101000021AU110020015AW1615GA1075+000915999GA2075+002445999GA3085+003665999GD13991+0009159GD23991+0024459GD34991+0036659MA1101965101695REMMET10801/24/10 22:19:01 SPECI KNHZ 250319Z 06003KT -RA BKN003 BKN008 OVC012 01/01 A3011 RMK AO2 UPE18RAB18 P0000 $
0197743920146112010012503567+43900-069933FM-15+0023KNHZ V0200605N00155000915MN9999999N5+00115+00065101975ADDAA101000025AU110020015AW1615GA1085+000915999GD14991+0009159MA1101905101625REMMET11101/24/10 22:56:01 METAR KNHZ 250356Z 06003KT -RA OVC003 01/01 A3009 RMK AO2 UPE18RAB18 SLP197 P0000 T00110006 $
0213743920146112010012504567+43900-069933FM-15+0023KNHZ V0209999C00005000915MN9999999N5+00115+00115101875ADDAA101000025AU110020015AW1615GA1085+000915999GD14991+0009159MA1101835101555REMMET12701/24/10 23:56:01 METAR KNHZ 250456Z 00000KT -RA OVC003 01/01 A3007 RMK AO2 RAE09B49UPB09E49 SLP187 P0000 T00110011 400281128 $
0907743920146112010012504596+43900-069933SOD  +0023KNHZ V020999999999999999999999999999+99999+99999999999ADDAA124000395KA1240M+00285KA2240N-01275MG1101934101864OE11240076020012225OE22240067120012225OE33240013999999995REMSOD75124 HR PRECIPITATION (IN):0.01  24 HR MAX TEMP (F):37 24 HR MAX TEMP TIME (LST):1452 24 HR MIN TEMP (F):9  24 HR MIN TEMP TIME (LST):0439 AVERAGE STATION PRESSURE:30.100 MINIMUM SEA LEVEL PRESSURE:30.08 TIME OF OCCURRENCE:2359 PEAK WIND SPEED (MPH):17  PEAK WIND DIR (DEG):200 PEAK WIND TIME (LST):1222  FASTEST 2MIN SPEED (MPH):15 FASTEST 2MIN DIR (DEG):200 FASTEST 2MIN TIME (LST):1222 AVERAGE WIND SPEED (MPH):3.1  24 HR AVG TEMP (F):23 DEPART FROM NORMAL: +1  HEATING DEGREE DAYS:42  COOLING DEGREE DAYS:0   LATEST DAY MAX TEMP (0700-1900 LST):37  LATEST NIGHT MIN TEMP(1900-0800 LST):9  HOURLY INCREMENTAL PRECIPITATION VALUES (IN):.00 0.00 0.00 0.00 0.00 0.00 0.00 0.00 0.00 0.00 0.00 0.00 0.00 0.00 0.00 0.00 0.00 T    0.01 T    T    T    T    TEQDR01     N7GJS072R02     N7GKS075
0307743920146112010012505567+43900-069933FM-15+0023KNHZ V0209999C00005000915MN9999999N5+00225+00175101775ADDAA101000025AA206000021AU110020015AW1615GA1085+000915999GD14991+0009159KA1999M+00221KA2999N+00061MA1101735101455MD1840264+9999REMMET15101/25/10 00:56:02 METAR KNHZ 250556Z 00000KT -RA OVC003 02/02 A3004 RMK AO2 UPB06E09B27E42 CIG 002V006 SLP177 P0000 60000 T00220017 10022 20006 58026 $EQDQ01  00008PRCP06
0192743920146112010012506387+43900-069933FM-16+0023KNHZ V0209999V00265001525MN9999999N5+00305+00305999999ADDAA101000021AU110020015AW1615GA1085+001525999GD14991+0015259MA1101665101385REMMET10601/25/10 01:38:02 SPECI KNHZ 250638Z VRB05KT -RA OVC005 03/03 A3002 RMK AO2 RAE0558B20 CIG 003V008 P0000 $
0209743920146112010012506567+43900-069933FM-15+0023KNHZ V0209999V00215001525MN9999999N5+00335+00335101705ADDAA101000025AU110020015AW1615GA1085+001525999GD14991+0015259MA1101665101385REMMET12301/25/10 01:56:02 METAR KNHZ 250656Z VRB04KT -RA OVC005 03/03 A3002 RMK AO2 RAE0558B20 CIG 003V008 SLP170 P0000 T00330033 $
0197743920146112010012507567+43900-069933FM-15+0023KNHZ V0209999V00315001525MN9999999N5+00395+00335101635ADDAA101000025AU110020015AW1615GA1085+001525999GD14991+0015259MA1101595101315OC100775REMMET10301/25/10 02:56:02 METAR KNHZ 250756Z VRB06G15KT -RA OVC005 04/03 A3000 RMK AO2 SLP163 P0000 T00390033 $
0239743920146112010012508567+43900-069933FM-15+0023KNHZ V0209999V00215002135MN9999999N5+00445+00395101545ADDAA101000025AA203000021GA1085+002135999GD14991+0021359MA1101495101215MD1840224+9999REMMET12601/25/10 03:56:02 METAR KNHZ 250856Z VRB04KT OVC007 04/04 A2997 RMK AO2 RAE19 CIG 004V010 SLP154 P0000 60000 T00440039 58022 $EQDQ01  00008PRCP03
0171743920146112010012509567+43900-069933FM-15+0023KNHZ V0209999V00155002135MN9999999N5+00445+00445101415ADDAA101000095GA1085+002135999GD14991+0021359MA1101355101085REMMET10201/25/10 04:56:02 METAR KNHZ 250956Z VRB03KT OVC007 04/04 A2993 RMK AO2 CIG 004V010 SLP141 T00440044 $
0232743920146112010012510567+43900-069933FM-15+0023KNHZ V0209999C00005002135MN0048285N5+00505+00505101385ADDAA101000095AU100001015AW1105GA1085+002135999GD14991+0021359GF108991999999999999999999MA1101325101045MW1101REMMET11401/25/10 05:56:02 METAR KNHZ 251056Z 00000KT 3SM BR OVC007 05/05 A2992 RMK AO2 CIG 004V011 SLP138 T00500050 $ (CP)
0254743920146112010012511117+43900-069933FM-16+0023KNHZ V0209999C00005002135MN0048285N5+00405+00405999999ADDAA101000021AU110020015AU200001015AW1105AW2615GA1085+002135999GD14991+0021359GF108991999999999999999999MA1101325101045MW1101MW2611REMMET11301/25/10 06:11:02 SPECI KNHZ 251111Z 00000KT 3SM -RA BR OVC007 04/04 A2992 RMK AO2 RAB09 CIG 004V010 P0000 $ (CP)
0278743920146112010012511527+43900-069933FM-16+0023KNHZ V0209999C00005002135MN0048285N5+00405+00405999999ADDAA101000021AU101002015AU200001015AW1105GA1075+002135999GA2085+009755999GD13991+0021359GD24991+0097559GF108991999999999999999999MA1101255100985MW1101MW2125REMMET11201/25/10 06:52:02 SPECI KNHZ 251152Z 00000KT 3SM MIFG BR BKN007 OVC032 04/04 A2990 RMK AO2 RAB09E52 P0000 $ (CP)
0445743920146112010012511567+43900-069933FM-15+0023KNHZ V0200605N00155002135MN0048285N5+00445+00445101295ADDAA101000025AA206000021AA324000391AJ100369599999999AU101002015AU200001015AW1105GA1075+002135999GA2085+010365999GD13991+0021359GD24991+0103659GF108991999999999999999999KA1999M+00501KA2999N+00221MA1101255100985MD1640254+9999MW1101MW2125REMMET16501/25/10 06:56:02 METAR KNHZ 251156Z 06003KT 3SM MIFG BR BKN007 OVC034 04/04 A2990 RMK AO2 RAB09E52 SLP129 4/014 P0000 60000 70001 T00440044 10050 20022 56025 $ (CP)EQDQ01  00008PRCP06Q02  00038PRCP24
0407743920146112010012512207+43900-069933FM-16+0023KNHZ V0201905N00155010365MN0048286N5+00505+00505999999ADDAA101000021AU110020016AU201002016AU300001016AW1106AW2616GA1025+002135999GA2075+010365999GA3085+018295999GD11991+0021359GD23991+0103659GD34991+0182959GF108991999999999999999999MA1101195100915MW1101MW2126MW3611REMMET12001/25/10 07:20:02 SPECI KNHZ 251220Z 19003KT 3SM -RA MIFG BR FEW007 BKN034 OVC060 05/05 A2988 RMK AO2 RAB10 P0000 $ (CP)EQDR01   3SM7VIS018R02-RA MI7AWW018R03SEERMK7MVW018R04-RA MI7MWW018
0346743920146112010012512567+43900-069933FM-15+0023KNHZ V0201705N00575010365MN0064375N5+00675+00675101185ADDAA101000025AU110020015AU200001015AW1105AW2615GA1075+010365999GA2075+013115999GA3085+019815999GD13991+0103659GD23991+0131159GD34991+0198159GF108991999999999999999999MA1101125100845MW1101MW2611OC100935REMMET13501/25/10 07:56:02 METAR KNHZ 251256Z 17011G18KT 4SM -RA BR BKN034 BKN043 OVC065 07/07 A2986 RMK AO2 RAB10 SLP118 P0000 T00670067 $ (CP)
0253743920146112010012513267+43900-069933FM-16+0023KNHZ V0201705N00775021345MN0080475N5+00805+00705999999ADDAA101000021AU100001015AW1105GA1045+010975999GA2085+021345999GD12991+0109759GD24991+0213459GF108991999999999999999999MA1101085100815MW1101REMMET10401/25/10 08:26:02 SPECI KNHZ 251326Z 17015KT 5SM BR SCT036 OVC070 08/07 A2985 RMK AO2 RAE26 P0000 $ (CP)
0273743920146112010012513567+43900-069933FM-15+0023KNHZ V0201705N00825011585MN0112655N5+00835+00675101095ADDAA101000025GA1025+009145999GA2085+011585999GD11991+0091459GD24991+0115859GF108991999999999999999999MA1101055100775OC101185REMMET13901/25/10 08:56:02 METAR KNHZ 251356Z 17016G23KT 7SM FEW030 OVC038 08/07 A2984 RMK AO2 PK WND 15026/1336 RAE26 SLP109 P0000 T00830067 $ (CP)
0298743920146112010012514567+43900-069933FM-15+0023KNHZ V0201605N01035014635MN0112655N5+00835+00615101005ADDAA101000095AA203000021GA1075+014635999GA2085+019815999GD13991+0146359GD24991+0198159GF108991999999999999999999MA1100955100675MD1640294+9999OC101445REMMET13901/25/10 09:56:02 METAR KNHZ 251456Z 16020G28KT 7SM BKN048 OVC065 08/06 A2981 RMK AO2 PK WND 15029/1446 SLP100 60000 T00830061 56029 $ (CP)
0283743920146112010012515277+43900-069933FM-16+0023KNHZ V0201605N01135015245MN0112655N5+00905+00605999999ADDAA101000021AU110020015AW1615GA1075+015245999GA2085+018295999GD13991+0152459GD24991+0182959GF108991999999999999999999MA1100885100615MW1611OC101855REMMET12601/25/10 10:27:02 SPECI KNHZ 251527Z 16022G36KT 7SM -RA BKN050 OVC060 09/06 A2979 RMK AO2 PK WND 16036/1519 RAB27 P0000 $ (CP)
0333743920146112010012515567+43900-069933FM-15+0023KNHZ V0201605N01035014025MN0064375N5+00895+00675100845ADDAA101000395AU110020015AU200001015AW1105AW2615GA1045+009145999GA2085+014025999GD12991+0091459GD24991+0140259GF108991999999999999999999MA1100785100505MW1101MW2611OC101395REMMET15301/25/10 10:56:02 METAR KNHZ 251556Z 16020G27KT 4SM -RA BR SCT030 OVC046 09/07 A2976 RMK AO2 PK WND 16036/1519 RAB27 PRESFR SLP084 P0001 T00890067 $ (CP)
0310743920146112010012516057+43900-069933FM-16+0023KNHZ V0201505N01135008535MN0064375N5+00905+00705999999ADDAA101000021AU110020015AU200001015AW1105AW2615GA1075+008535999GA2085+014025999GD13991+0085359GD24991+0140259GF108991999999999999999999MA1100755100475MW1101MW2611OC101395REMMET13001/25/10 11:05:02 SPECI KNHZ 251605Z 15022G27KT 4SM -RA BR BKN028 OVC046 09/07 A2975 RMK AO2 PK WND 15026/1605 PRESFR P0000 $ (CP)
0320743920146112010012516567+43900-069933FM-15+0023KNHZ V0201505N01185008535MN0048285N5+00835+00785100655ADDAA101000395AU110020015AU200001015AW1105AW2615GA1075+008535999GA2085+010975999GD13991+0085359GD24991+0109759GF108991999999999999999999MA1100615100345MW1101MW2611OC101605REMMET14001/25/10 11:56:02 METAR KNHZ 251656Z 15023G31KT 3SM -RA BR BKN028 OVC036 08/08 A2971 RMK AO2 PK WND 14035/1632 SLP065 P0001 T00830078 $ (CP)
0310743920146112010012517277+43900-069933FM-16+0023KNHZ V0201505N01135003665MN0016095N5+00805+00805999999ADDAA101000391AU110020015AU200001015AW1105AW2615GA1075+003665999GA2085+005795999GD13991+0036659GD24991+0057959GF108991999999999999999999MA1100475100205MW1101MW2611OC101805REMMET13001/25/10 12:27:02 SPECI KNHZ 251727Z 15022G35KT 1SM -RA BR BKN012 OVC019 08/08 A2967 RMK AO2 PK WND 15035/1722 PRESFR P0001 $ (CP)
0265743920146112010012517417+43900-069933FM-16+0023KNHZ V0201505N01035003055MN0048285N5+00805+00805999999ADDAA101000391AU110020015AU200001015AW1105AW2615GA1085+003055999GD14991+0030559GF108991999999999999999999MA1100445100175MW1101MW2611OC101705REMMET11601/25/10 12:41:02 SPECI KNHZ 251741Z 15020G33KT 3SM -RA BR OVC010 08/08 A2966 RMK AO2 PK WND 15035/1722 P0001 $ (CP)
0463743920146112010012517567+43900-069933FM-15+0023KNHZ V0201505N01185003055MN0048285N5+00835+00785100405ADDAA101000395AA206000891AJ100259599999999AU110020015AU200001015AW1105AW2615GA1075+003055999GA2085+005795999GD13991+0030559GD24991+0057959GF108991999999999999999999KA1999M+00941KA2999N+00441MA1100345100065MD1840594+9999MW1101MW2611OC101655REMMET19601/25/10 12:56:02 METAR KNHZ 251756Z 15023G32KT 3SM -RA BR BKN010 OVC019 08/08 A2963 RMK AO2 PK WND 15035/1722 CIG 007V014 PRESFR SLP040 4/010 933031 P0001 60003 T00830078 10094 20044 58059 $ (CP)EQDQ01  00088PRCP06
0320743920146112010012518567+43900-069933FM-15+0023KNHZ V0201505N01185004275MN0048285N5+00785+00725100245ADDAA101000395AU110020015AU200001015AW1105AW2615GA1075+004275999GA2085+007325999GD13991+0042759GD24991+0073259GF108991999999999999999999MA1100205099935MW1101MW2611OC101755REMMET14001/25/10 13:56:02 METAR KNHZ 251856Z 15023G34KT 3SM -RA BR BKN014 OVC024 08/07 A2959 RMK AO2 PK WND 16035/1835 SLP024 P0001 T00780072 $ (CT)
0339743920146112010012519567+43900-069933FM-15+0023KNHZ V0201505N01135003055MN0048285N5+00785+00785100015ADDAA101001095AU110020015AU200001015AW1105AW2615GA1075+003055999GA2085+004275999GD13991+0030559GD24991+0042759GF108991999999999999999999MA1099975099695MW1101MW2611OC101655REMMET15901/25/10 14:56:02 METAR KNHZ 251956Z 15022G32KT 3SM -RA BR BKN010 OVC014 08/08 A2952 RMK AO2 PK WND 15037/1924 CIG 008V012 PRESFR SLP001 P0003 T00780078 $ (CT)
0318743920146112010012520337+43900-069933FM-16+0023KNHZ V0201505N01245003055MN0040235N5+00805+00805999999ADDAA101001391AU120020015AU200001015AW1105AW2625GA1075+003055999GA2085+003965999GD13991+0030559GD24991+0039659GF108991999999999999999999MA1099865099595MW1101MW2631OC101705REMMET13801/25/10 15:33:02 SPECI KNHZ 252033Z 15024G33KT 2 1/2SM RA BR BKN010 OVC013 08/08 A2949 RMK AO2 PK WND 13040/1957 CIG 007V011 P0005 $ (CT)
0353743920146112010012520567+43900-069933FM-15+0023KNHZ V0201405N00935003055MN0028165N5+00835+00835099885ADDAA101003895AA203004691AU120020015AU200001015AW1105AW2625GA1085+003055999GD14991+0030559GF108991999999999999999999MA1099835099565MD1640524+9999MW1101MW2631OC101605REMMET16001/25/10 15:56:02 METAR KNHZ 252056Z 14018G31KT 1 3/4SM RA BR OVC010 08/08 A2948 RMK AO2 PK WND 13040/1957 CIG 006V014 SLP988 P0014 60018 T00830083 56052 $ (CT)EQDQ01  00468PRCP03
0281743920146112010012521157+43900-069933FM-16+0023KNHZ V0201405N01035002445MN0024145N5+00805+00805999999ADDAA101002091AU130020015AU200001015AW1105AW2635GA1085+002445999GD14991+0024459GF108991999999999999999999MA1099765099495MW1101MW2651OC101705REMMET13201/25/10 16:15:02 SPECI KNHZ 252115Z 14020G33KT 1 1/2SM +RA BR OVC008 08/08 A2946 RMK AO2 PK WND 14037/2105 CIG 006V012 P0008 $ (CT)
0292743920146112010012521567+43900-069933FM-15+0023KNHZ V0201405V01085002445MN0024145N5+00835+00835099655ADDAA101005895AU120020015AU200001015AW1105AW2625GA1085+002445999GD14991+0024459GF108991999999999999999999MA1099595099325MW1101MW2631OC101855REMMET14301/25/10 16:56:02 METAR KNHZ 252156Z 14021G36KT 1 1/2SM RA BR OVC008 08/08 A2941 RMK AO2 PK WND 14037/2105 PRESFR SLP965 P0024 T00830083 $ (CT)
0293743920146112010012522567+43900-069933FM-15+0023KNHZ V0201405N01295002445MN0032195N5+00895+00895099365ADDAA101005195AU120020015AU200001015AW1105AW2625GA1085+002445999GD14991+0024459GF108991999999999999999999MA1099325099055MW1101MW2631OC102115REMMET14401/25/10 17:56:02 METAR KNHZ 252256Z 14025G41KT 2SM RA BR OVC008 09/09 A2933 RMK AO2 PK WND 15043/2233 CIG 006V012 SLP936 P0021 T00890089 $ (CT)
0410743920146112010012523567+43900-069933FM-15+0023KNHZ V0201505N01295002445MN0032195N5+00945+00945099245ADDAA101001595AA206017591AJ100109599999999AU120020015AU200001015AW1105AW2625GA1085+002445999GD14991+0024459GF108991999999999999999999KA1999M+00941KA2999N+00781MA1099195098925MD1640644+9999MW1101MW2631OC102015REMMET17401/25/10 18:56:02 METAR KNHZ 252356Z 15025G39KT 2SM RA BR OVC008 09/09 A2929 RMK AO2 PK WND 14046/2339 CIG 006V011 SLP924 4/004 P0006 60069 T00940094 10094 20078 56064 $ (CT)EQDQ01  01758PRCP06
0277743920146112010012600567+43900-069933FM-15+0023KNHZ V0201705N01245001835MN0032195N5+00945+00945099225ADDAA101000895AU110020015AU200001015AW1105AW2615GA1085+001835999GD14991+0018359GF108991999999999999999999MA1099195098925MW1101MW2611OC101805REMMET12801/25/10 19:56:01 METAR KNHZ 260056Z 17024G35KT 2SM -RA BR OVC006 09/09 A2929 RMK AO2 PK WND 15044/0005 SLP922 P0002 T00940094 $
0277743920146112010012601567+43900-069933FM-15+0023KNHZ V0201705N00985001835MN0032195N5+00945+00945099135ADDAA101001095AU110020015AU200001015AW1105AW2615GA1085+001835999GD14991+0018359GF108991999999999999999999MA1099095098815MW1101MW2611OC101345REMMET12801/25/10 20:56:01 METAR KNHZ 260156Z 17019G26KT 2SM -RA BR OVC006 09/09 A2926 RMK AO2 PK WND 18033/0102 SLP913 P0005 T00940094 $
0271743920146112010012602227+43900-069933FM-16+0023KNHZ V0201805N01035001225MN0032195N5+00905+00905999999ADDAA101000391AU110010015AU200001015AW1105AW2515GA1085+001225999GD14991+0012259GF108991999999999999999999MA1099095098815MW1101MW2511OC101445REMMET12201/25/10 21:22:01 SPECI KNHZ 260222Z 18020G28KT 2SM -DZ BR OVC004 09/09 A2926 RMK AO2 PK WND 17029/0212 RAE21DZB21 P0001 $
0309743920146112010012602567+43900-069933FM-15+0023KNHZ V0201905N00775001225MN0032195N5+00895+00895099115ADDAA101000395AA203002091AU100001015AW1105GA1085+001225999GD14991+0012259GF108991999999999999999999MA1099055098785MD1740134+9999MW1101REMMET14701/25/10 21:56:01 METAR KNHZ 260256Z 19015KT 2SM BR OVC004 09/09 A2925 RMK AO2 PK WND 17029/0236 RAE21DZB21E56 SLP911 P0001 60008 T00890089 57013 $EQDQ01  00208PRCP03
0183743920146112010012603067+43900-069933FM-16+0023KNHZ V0201805N00775001225MN9999999N5+00905+99999999999ADDAA101000021AU110020015AW1615GA1085+001225999GD14991+0012259MA1099055098785OC101035REMMET08901/25/10 22:06:01 SPECI KNHZ 260306Z 18015G20KT -RA OVC004 09/A2925 RMK AO2 RAB02 P0000 $
0167743920146112010012603567+43900-069933FM-15+0023KNHZ V0202005N00625000615MN9999999N5+00835+99999099085ADDAA101000025GA1085+000615999GD14991+0006159MA1099025098755REMMET09801/25/10 22:56:01 METAR KNHZ 260356Z 20012KT OVC002 08/A2924 RMK AO2 RAB02E13 SLP908 P0000 T0083 $
0162743920146112010012604567+43900-069933FM-15+0023KNHZ V0201905N00675000615MN9999999N5+00725+99999099085ADDAA101000095GA1085+000615999GD14991+0006159MA1099025098755REMMET09301/25/10 23:56:01 METAR KNHZ 260456Z 19013KT OVC002 07/A2924 RMK AO2 SLP908 T0072 400941028 $
0995743920146112010012604596+43900-069933SOD  +0023KNHZ V020999999999999999999999999999+99999+99999999999ADDAA124020395AX1016246AX2026246KA1240M+00945KA2240N-00276MG1100364099094OE11240236914018395OE22240174315018245OE33240075199999995REMSOD77324 HR PRECIPITATION (IN):0.80  WEATHER(CODE):1,2  24 HR MAX TEMP (F):49 24 HR MAX TEMP TIME (LST):2118 24 HR MIN TEMP (F):27 24 HR MIN TEMP TIME (LST):2121 AVERAGE STATION PRESSURE:29.635 MINIMUM SEA LEVEL PRESSURE:29.26 TIME OF OCCURRENCE:2359 PEAK WIND SPEED (MPH):53  PEAK WIND DIR (DEG):140 PEAK WIND TIME (LST):1839  FASTEST 2MIN SPEED (MPH):39 FASTEST 2MIN DIR (DEG):150 FASTEST 2MIN TIME (LST):1824 AVERAGE WIND SPEED (MPH):16.8 24 HR AVG TEMP (F):38 DEPART FROM NORMAL:+13  HEATING DEGREE DAYS:27  COOLING DEGREE DAYS:0   LATEST DAY MAX TEMP (0700-1900 LST):49  LATEST NIGHT MIN TEMP(1900-0800 LST):33 HOURLY INCREMENTAL PRECIPITATION VALUES (IN):    T    T    T    0.00 0.00 T    T    T    0.00 0.01 0.01 0.01 0.01 0.04 0.15 0.23 0.20 0.06 0.03 0.04 0.01 T    0.00EQDR01   1,27AXW090R02   1,27AXW090R03     N7GJS072R04     N7GKS075R05    277KAN011
0227743920146112010012605567+43900-069933FM-15+0023KNHZ V0201805N00515000615MN9999999N5+00615+99999099035ADDAA101000095AA206002091GA1085+000615999GD14991+0006159KA1999M+00941KA2999N+00611MA1098985098715MD1840084+9999REMMET10701/26/10 00:56:02 METAR KNHZ 260556Z 18010KT OVC002 06/A2923 RMK AO2 SLP903 60008 T0061 10094 20061 58008 $
0228743920146112010012606567+43900-069933FM-15+0023KNHZ V0209999C00005000615MN9999999N5+00565+99999099145ADDAA101000095GA1075+000615999GA2075+005495999GA3085+014945999GD13991+0006159GD23991+0054959GD34991+0149459MA1099095098815REMMET09701/26/10 01:56:02 METAR KNHZ 260656Z 00000KT BKN002 BKN018 OVC049 06/A2926 RMK AO2 SLP914 T0056 $
0204743920146112010012607087+43900-069933FM-16+0023KNHZ V0201705N00215004575MN9999999N5+00605+99999999999ADDGA1045+000615999GA2075+004575999GA3085+006105999GD12991+0006159GD23991+0045759GD34991+0061059MA1099095098815REMMET08401/26/10 02:08:02 SPECI KNHZ 260708Z 17004KT SCT002 BKN015 OVC020 06/A2926 RMK AO2 $
0159743920146112010012607567+43900-069933FM-15+0023KNHZ V0203005N00215008235MN9999999N5+00675+00675099145ADDAA101000095GA1085+008235999GD14991+0082359MA1099095098815REMMET09001/26/10 02:56:02 METAR KNHZ 260756Z 30004KT OVC027 07/07 A2926 RMK AO2 SLP914 T00670067 $
0131743920146112010012608227+43900-069933FM-16+0023KNHZ V0209999C000052200059N9999999N5+00705+00705999999ADDGA1045+008845999GD12991+0088459MA1099095098815REMMET07301/26/10 03:22:02 SPECI KNHZ 260822Z 00000KT SCT029 07/07 A2926 RMK AO2 $
0188743920146112010012608567+43900-069933FM-15+0023KNHZ V0209999C00005220005CN9999999N5+00505+00505099185ADDAA101000095GA1005+999999999GD10991+9999999MA1099125098855MD1140154+9999REMMET10501/26/10 03:56:02 METAR KNHZ 260856Z 00000KT CLR 05/05 A2927 RMK AO2 CIG 008 R01 SLP918 T00500050 51015 $
0169743920146112010012609257+43900-069933FM-16+0023KNHZ V0209999C00005003055MN9999999N5+00405+00405999999ADDGA1075+003055999GA2075+004275999GD13991+0030559GD23991+0042759MA1099195098925REMMET08001/26/10 04:25:02 SPECI KNHZ 260925Z 00000KT BKN010 BKN014 04/04 A2929 RMK AO2 $
0169743920146112010012609417+43900-069933FM-16+0023KNHZ V0209999C00005003055MN9999999N5+00405+00405999999ADDGA1025+000305999GA2075+003055999GD11991+0003059GD23991+0030559MA1099225098955REMMET08001/26/10 04:41:02 SPECI KNHZ 260941Z 00000KT FEW001 BKN010 04/04 A2930 RMK AO2 $
0207743920146112010012609527+43900-069933FM-16+0023KNHZ V0202805N00155010365MN9999999N5+00205+00205999999ADDGA1025+000305999GA2045+003665999GA3075+010365999GD11991+0003059GD22991+0036659GD33991+0103659MA1099225098955REMMET08701/26/10 04:52:02 SPECI KNHZ 260952Z 28003KT FEW001 SCT012 BKN034 02/02 A2930 RMK AO2 $
0197743920146112010012609567+43900-069933FM-15+0023KNHZ V0203005N00155010365MN9999999N5+00285+00285099285ADDAA101000095GA1025+000305999GA2075+010365999GD11991+0003059GD23991+0103659MA1099225098955REMMET09701/26/10 04:56:02 METAR KNHZ 260956Z 30003KT FEW001 BKN034 03/03 A2930 RMK AO2 SLP928 T00280028 $
0201743920146112010012610567+43900-069933FM-15+0023KNHZ V0203105N00215009145MN0112655N5+00335+00335099345ADDAA101000095GA1085+009145999GD14991+0091459GF108991999999999999999999MA1099295099025REMMET10601/26/10 05:56:02 METAR KNHZ 261056Z 31004KT 7SM OVC030 03/03 A2932 RMK AO2 SLP934 VCSH S T00330033 $ (CP)
0216743920146112010012611097+43900-069933FM-16+0023KNHZ V0209999C00005009145MN0112655N5+00305+00305999999ADDAA101000021AU110020015AW1615GA1085+009145999GD14991+0091459GF108991999999999999999999MA1099295099025MW1611REMMET09801/26/10 06:09:02 SPECI KNHZ 261109Z 00000KT 7SM -RA OVC030 03/03 A2932 RMK AO2 RAB09 P0000 $ (CP)
0436743920146112010012611567+43900-069933FM-15+0023KNHZ V0202605N00265009755MN0112655N5+00285+00285099405ADDAA101000025AA206000021AA324020391AU110020015AW1615GA1045+007625999GA2075+009755999GA3085+021345999GD12991+0076259GD23991+0097559GD34991+0213459GF108991999999999999999999KA1999M+00721KA2999N+00171MA1099365099085MD1340134+9999MW1611REMMET15901/26/10 06:56:02 METAR KNHZ 261156Z 26005KT 7SM -RA SCT025 BKN032 OVC070 03/03 A2934 RMK AO2 RAB09 SLP940 P0000 60000 70080 T00280028 10072 20017 53013 $ (CP)EQDQ01  00008PRCP06Q02  02038PRCP24
0286743920146112010012612067+43900-069933FM-16+0023KNHZ V0202505N00265007625MN0112655N5+00305+00305999999ADDAA101000021AU110020015AW1615GA1075+007625999GA2075+010365999GA3085+021345999GD13991+0076259GD23991+0103659GD34991+0213459GF108991999999999999999999MA1099365099085MW1611REMMET10601/26/10 07:06:02 SPECI KNHZ 261206Z 25005KT 7SM -RA BKN025 BKN034 OVC070 03/03 A2934 RMK AO2 P0000 $ (CP)
0253743920146112010012612567+43900-069933FM-15+0023KNHZ V0201805N00415008235MN0080475N5+00285+00285099525ADDAA101001395AU110020015AU200001015AW1105AW2615GA1085+008235999GD14991+0082359GF108991999999999999999999MA1099465099195MW1101MW2611REMMET11201/26/10 07:56:02 METAR KNHZ 261256Z 18008KT 5SM -RA BR OVC027 03/03 A2937 RMK AO2 SLP952 P0005 T00280028 $ (CP)
0253743920146112010012613567+43900-069933FM-15+0023KNHZ V0202605N00365006405MN0096565N5+00225+00225099535ADDAA101000895AU110020015AU200001015AW1105AW2615GA1085+006405999GD14991+0064059GF108991999999999999999999MA1099495099225MW1101MW2611REMMET11201/26/10 08:56:02 METAR KNHZ 261356Z 26007KT 6SM -RA BR OVC021 02/02 A2938 RMK AO2 SLP953 P0003 T00220022 $ (CP)
0248743920146112010012614247+43900-069933FM-16+0023KNHZ V0203005N00315007325MN0112655N5+00305+00305999999ADDAA101000021AU110020015AW1615GA1025+002445999GA2075+007325999GD11991+0024459GD23991+0073259GF107991999999999999999999MA1099425099155MW1611REMMET09901/26/10 09:24:02 SPECI KNHZ 261424Z 30006KT 7SM -RA FEW008 BKN024 03/03 A2936 RMK AO2 P0000 $ (CP)
0248743920146112010012614467+43900-069933FM-16+0023KNHZ V0202605N00265002445MN0112655N5+00305+00305999999ADDAA101000021AU110020015AW1615GA1075+002445999GA2085+009755999GD13991+0024459GD24991+0097559GF108991999999999999999999MA1099465099195MW1611REMMET09901/26/10 09:46:02 SPECI KNHZ 261446Z 26005KT 7SM -RA BKN008 OVC032 03/03 A2937 RMK AO2 P0000 $ (CP)
0359743920146112010012614567+43900-069933FM-15+0023KNHZ V0202305N00365009755MN0112655N5+00225+00225099575ADDAA101000025AA203002091AU110020015AW1615GA1045+002445999GA2075+009755999GA3075+060965999GD12991+0024459GD23991+0097559GD33991+0609659GF107991999999999999999999MA1099535099255MD1140174+9999MW1611REMMET13501/26/10 09:56:02 METAR KNHZ 261456Z 23007KT 7SM -RA SCT008 BKN032 BKN200 02/02 A2939 RMK AO2 SLP957 P0000 60008 T00220022 51017 $ (CP)EQDQ01  00208PRCP03
0265743920146112010012615117+43900-069933FM-16+0023KNHZ V0202605N00215005495MN0112655N5+00205+00205999999ADDAA101000021GA1045+002445999GA2075+005495999GA3075+060965999GD12991+0024459GD23991+0054959GD33991+0609659GF107991999999999999999999MA1099495099225REMMET10801/26/10 10:11:02 SPECI KNHZ 261511Z 26004KT 7SM SCT008 BKN018 BKN200 02/02 A2938 RMK AO2 RAE10 P0000 $ (CP)
0228743920146112010012615346+43900-069933FM-16+0023KNHZ V0202205N00155009455MN0112655N5+00205+00205999999ADDGA1045+006105999GA2075+009455999GA3075+060965999GD12991+0061059GD23991+0094559GD33991+0609659MA1099565099295REMMET10801/26/10 10:34:02 SPECI KNHZ 261534Z 22003KT 7SM SCT020 BKN031 BKN200 02/02 A2940 RMK AO2 RAE10 P0000 $ (CP)
0305743920146112010012615567+43900-069933FM-15+0023KNHZ V0202205N00155010065MN0144845N5+00225+00225099605ADDAA101000025GA1025+006105999GA2075+010065999GA3075+012195999GD11991+0061059GD23991+0100659GD33991+0121959GD43991+0600019GF107991999999999999999999MA1099565099295REMMET13301/26/10 10:56:02 METAR KNHZ 261556Z 22003KT 9SM FEW020 BKN033 BKN040 02/02 A2940 RMK AO2 RAE10 SLP960 VCSH NE P0000 T00220022 $ (CP)
0280743920146112010012616567+43900-069933FM-15+0023KNHZ V0203405N00365010065MN0144845N5+00335+00335099625ADDAA101000025GA1025+003055999GA2075+010065999GA3075+060965999GD11991+0030559GD23991+0100659GD33991+0609659GF107991999999999999999999MA1099565099295REMMET12301/26/10 11:56:02 METAR KNHZ 261656Z 34007KT 9SM FEW010 BKN033 BKN200 03/03 A2940 RMK AO2 SLP962 VCSH NW-N T00330033 $ (CP)
0292743920146112010012617057+43900-069933FM-16+0023KNHZ V0203305N00265009455MN0144845N5+00305+00305999999ADDAA101000021GA1025+003965999GA2045+006715999GA3075+009455999GD11991+0039659GD22991+0067159GD33991+0094559GD43991+0600019GF107991999999999999999999MA1099595099325MW1611REMMET11401/26/10 12:05:02 SPECI KNHZ 261705Z 33005KT 9SM -RA FEW013 SCT022 BKN031 03/03 A2941 RMK AO2 RAB1659 P0000 $ (CP)
0285743920146112010012617187+43900-069933FM-16+0023KNHZ V0203405N00155016765MN0144845N5+00305+00305999999ADDAA101000021GA1025+003965999GA2045+009455999GA3075+016765999GD11991+0039659GD22991+0094559GD33991+0167659GD43991+0600019GF107991999999999999999999MA1099565099295REMMET11301/26/10 12:18:02 SPECI KNHZ 261718Z 34003KT 9SM FEW013 SCT031 BKN055 03/03 A2940 RMK AO2 RAB1659E11 P0000 $ (CP)
0381743920146112010012617567+43900-069933FM-15+0023KNHZ V0209999C000052200059N0144845N5+00445+00395099635ADDAA101000025AA206002091GA1025+004575999GA2045+018295999GA3045+060965999GD11991+0045759GD22991+0182959GD32991+0609659GF104991999999999999999999KA1999M+00501KA2999N+00221MA1099565099295MD1140064+9999REMMET15401/26/10 12:56:02 METAR KNHZ 261756Z 00000KT 9SM FEW015 SCT060 SCT200 04/04 A2940 RMK AO2 RAB1659E11 SLP963 P0000 60008 T00440039 10050 20022 51006 $ (CP)EQDQ01  00208PRCP06
0248743920146112010012618567+43900-069933FM-15+0023KNHZ V0202405N00365019815MN0160935N5+00505-00395099705ADDAA101000095GA1025+009145999GA2075+019815999GD11991+0091459GD23991+0198159GF107991999999999999999999MA1099665099395REMMET12201/26/10 13:56:02 METAR KNHZ 261856Z 24007KT 10SM FEW030 BKN065 05/M04 A2943 RMK AO2 SLP970 VIRGA DSNT NW T00501039 $ (CT)
0323743920146112010012619567+43900-069933FM-15+0023KNHZ V0202505N00415024385MN0160935N5+00505-00565099845ADDAA101000095GA1025+009145999GA2045+018295999GA3075+024385999GD11991+0091459GD22991+0182959GD33991+0243859GF107991999999999999999999MA1099805099525OC100935REMMET15801/26/10 14:56:02 METAR KNHZ 261956Z 25008G18KT 10SM FEW030 SCT060 BKN080 05/M06 A2947 RMK AO2 PK WND 26026/1912 SLP984 VIRGA S-NW AND DSNT N T00501056 $ (CT)
0326743920146112010012620567+43900-069933FM-15+0023KNHZ V0202405N00575027435MN0160935N5+00445-00505099975ADDAA101000095GA1025+009145999GA2045+018295999GA3075+027435999GD11991+0091459GD22991+0182959GD33991+0274359GF107991999999999999999999MA1099935099665MD1340344+9999OC100985REMMET14701/26/10 15:56:02 METAR KNHZ 262056Z 24011G19KT 10SM FEW030 SCT060 BKN090 04/M05 A2951 RMK AO2 SLP997 VIRGA SE-W AND DSNT NE T00441050 53034 $ (CT)
0196743920146112010012621567+43900-069933FM-15+0023KNHZ V0202305N003652200059N0160935N5+00395-00565100045ADDAA101000095GA1045+027435999GD12991+0274359GF104991999999999999999999MA1100005099735REMMET10101/26/10 16:56:02 METAR KNHZ 262156Z 23007KT 10SM SCT090 04/M06 A2953 RMK AO2 SLP004 T00391056 $ (CT)
0196743920146112010012622567+43900-069933FM-15+0023KNHZ V0202205N003652200059N0160935N5+00225-00505100125ADDAA101000095GA1025+027435999GD11991+0274359GF102991999999999999999999MA1100075099795REMMET10101/26/10 17:56:02 METAR KNHZ 262256Z 22007KT 10SM FEW090 02/M05 A2955 RMK AO2 SLP012 T00221050 $ (CT)
0220743920146112010012623567+43900-069933FM-15+0023KNHZ V0202105N004652200059N0160935N5+00175-00445100195ADDAA101000095GF100991999999999999999999KA1999M+00671KA2999N+00111MA1100145099865MD1240224+9999REMMET11601/26/10 18:56:02 METAR KNHZ 262356Z 21009KT 10SM CLR 02/M04 A2957 RMK AO2 SLP019 T00171044 10067 20011 52022 $ (CT)
0157743920146112010012700567+43900-069933FM-15+0023KNHZ V0202205N005152200059N0160935N5+00175-00565100265ADDAA101000095GF100991999999999999999999MA1100205099935REMMET09301/26/10 19:56:01 METAR KNHZ 270056Z 22010KT 10SM CLR 02/M06 A2959 RMK AO2 SLP026 T00171056 $
0157743920146112010012701567+43900-069933FM-15+0023KNHZ V0202205N005752200059N0160935N5+00065-00505100305ADDAA101000095GF100991999999999999999999MA1100245099965REMMET09301/26/10 20:56:01 METAR KNHZ 270156Z 22011KT 10SM CLR 01/M05 A2960 RMK AO2 SLP030 T00061050 $
0177743920146112010012702567+43900-069933FM-15+0023KNHZ V0202305N004152200059N0160935N5+00065-00565100335ADDAA101000095GF100991999999999999999999MA1100275100005MD1140154+9999REMMET09901/26/10 21:56:01 METAR KNHZ 270256Z 23008KT 10SM CLR 01/M06 A2961 RMK AO2 SLP033 T00061056 51015 $
0158743920146112010012703567+43900-069933FM-15+0023KNHZ V0202205N003652200059N9999999N5-00065-00615100395ADDAA101000095GA1005+999999999GD10991+9999999MA1100345100065REMMET08901/26/10 22:56:01 METAR KNHZ 270356Z 22007KT CLR M01/M06 A2963 RMK AO2 SLP039 T10061061 $
0171743920146112010012704567+43900-069933FM-15+0023KNHZ V0202205N003152200059N9999999N5-00065-00565100425ADDAA101000095GA1025+030485999GD11991+0304859MA1100375100105REMMET10201/26/10 23:56:01 METAR KNHZ 270456Z 22006KT FEW100 M01/M06 A2964 RMK AO2 SLP042 T10061056 400891006 $
0936743920146112010012704596+43900-069933SOD  +0023KNHZ V020999999999999999999999999999+99999+99999999999ADDAA124002095AX1015245KA1240M+00895KA2240N-00055MG1099244099024OE11240134126014125OE22240093925014125OE33240031799999995REMSOD77124 HR PRECIPITATION (IN):0.08  WEATHER(CODE):1  24 HR MAX TEMP (F):48 24 HR MAX TEMP TIME (LST):0655 24 HR MIN TEMP (F):31 24 HR MIN TEMP TIME (LST):2359 AVERAGE STATION PRESSURE:29.305 MINIMUM SEA LEVEL PRESSURE:29.24 TIME OF OCCURRENCE:0059 PEAK WIND SPEED (MPH):30  PEAK WIND DIR (DEG):260 PEAK WIND TIME (LST):1412  FASTEST 2MIN SPEED (MPH):21 FASTEST 2MIN DIR (DEG):250 FASTEST 2MIN TIME (LST):1412 AVERAGE WIND SPEED (MPH):7.1  24 HR AVG TEMP (F):40 DEPART FROM NORMAL:+15  HEATING DEGREE DAYS:25  COOLING DEGREE DAYS:0   LATEST DAY MAX TEMP (0700-1900 LST):44  LATEST NIGHT MIN TEMP(1900-0800 LST):35 HOURLY INCREMENTAL PRECIPITATION VALUES (IN):.00 0.00 0.00 0.00 0.00 0.00 T    0.05 0.03 T    T    T    T    0.00 0.00 0.00 0.00 0.00 0.00 0.00 0.00 0.00 0.00 0.00EQDR01     N7GJS072R02     N7GKS075
0219743920146112010012705567+43900-069933FM-15+0023KNHZ V0202305N001552200059N9999999N5-00115-00565100495ADDAA101000095GA1045+033535999GD12991+0335359KA1999M+00221KA2999N-00111MA1100445100175MD1340164+9999REMMET11001/27/10 00:56:02 METAR KNHZ 270556Z 23003KT SCT110 M01/M06 A2966 RMK AO2 SLP049 T10111056 10022 21011 53016 $
0158743920146112010012706567+43900-069933FM-15+0023KNHZ V0202105N002652200059N9999999N5-00175-00565100605ADDAA101000095GA1005+999999999GD10991+9999999MA1100545100275REMMET08901/27/10 01:56:02 METAR KNHZ 270656Z 21005KT CLR M02/M06 A2969 RMK AO2 SLP060 T10171056 $
0158743920146112010012707567+43900-069933FM-15+0023KNHZ V0201905N001552200059N9999999N5-00175-00565100645ADDAA101000095GA1005+999999999GD10991+9999999MA1100585100305REMMET08901/27/10 02:56:02 METAR KNHZ 270756Z 19003KT CLR M02/M06 A2970 RMK AO2 SLP064 T10171056 $
0178743920146112010012708567+43900-069933FM-15+0023KNHZ V0202005N002152200059N9999999N5-00285-00615100745ADDAA101000095GA1005+999999999GD10991+9999999MA1100685100405MD1140244+9999REMMET09501/27/10 03:56:02 METAR KNHZ 270856Z 20004KT CLR M03/M06 A2973 RMK AO2 SLP074 T10281061 51024 $
0158743920146112010012709567+43900-069933FM-15+0023KNHZ V0209999C000052200059N9999999N5-00225-00565100805ADDAA101000095GA1005+999999999GD10991+9999999MA1100755100475REMMET08901/27/10 04:56:02 METAR KNHZ 270956Z 00000KT CLR M02/M06 A2975 RMK AO2 SLP080 T10221056 $
0197743920146112010012710567+43900-069933FM-15+0023KNHZ V0201705N001552200059N0160935N5-00395-00565100905ADDAA101000095GA1025+045725999GD11991+0457259GF102991999999999999999999MA1100855100575REMMET10201/27/10 05:56:02 METAR KNHZ 271056Z 17003KT 10SM FEW150 M04/M06 A2978 RMK AO2 SLP090 T10391056 $ (CP)
0272743920146112010012711567+43900-069933FM-15+0023KNHZ V0209999C000052200059N0160935N5-00395-00505100985ADDAA101000095AA224002091GA1025+045725999GD11991+0457259GF102991999999999999999999KA1999M-00111KA2999N-00441MA1100915100645MD1340234+9999REMMET12601/27/10 06:56:02 METAR KNHZ 271156Z 00000KT 10SM FEW150 M04/M05 A2980 RMK AO2 SLP098 70008 T10391050 11011 21044 53023 $ (CP)
0197743920146112010012712567+43900-069933FM-15+0023KNHZ V0209999C000052200059N0160935N5-00395-00505101085ADDAA101000095GA1025+039625999GD11991+0396259GF102991999999999999999999MA1101025100745REMMET10201/27/10 07:56:02 METAR KNHZ 271256Z 00000KT 10SM FEW130 M04/M05 A2983 RMK AO2 SLP108 T10391050 $ (CP)
0239743920146112010012713567+43900-069933FM-15+0023KNHZ V0209999C000052200059N0160935N5-00065-00395101145ADDAA101000095GA1025+015245999GA2045+039625999GD11991+0152459GD22991+0396259GF104991999999999999999999MA1101085100815REMMET11301/27/10 08:56:02 METAR KNHZ 271356Z 00000KT 10SM FEW050 SCT130 M01/M04 A2985 RMK AO2 SLP114 T10061039 $ RTX (CP)
0254743920146112010012714567+43900-069933FM-15+0023KNHZ V0202705N002152200059N0160935N5+00225-00395101215ADDAA101000095GA1025+015245999GA2045+039625999GD11991+0152459GD22991+0396259GF104991999999999999999999MA1101155100885MD1140244+9999REMMET11401/27/10 09:56:02 METAR KNHZ 271456Z 27004KT 10SM FEW050 SCT130 02/M04 A2987 RMK AO2 SLP121 T00221039 51024 $ (CP)
0272743920146112010012715567+43900-069933FM-15+0023KNHZ V0203005N003152200059N0160935N5+00445-00505101215ADDAA101000095GA1025+015245999GA2045+022865999GA3045+039625999GD11991+0152459GD22991+0228659GD32991+0396259GF104991999999999999999999MA1101155100885REMMET11501/27/10 10:56:02 METAR KNHZ 271556Z 30006KT 10SM FEW050 SCT075 SCT130 04/M05 A2987 RMK AO2 SLP121 T00441050 $ (CP)
0196743920146112010012716567+43900-069933FM-15+0023KNHZ V0203105N003652200059N0160935N5+00395-00565101195ADDAA101000095GA1045+013115999GD12991+0131159GF104991999999999999999999MA1101155100885REMMET10101/27/10 11:56:02 METAR KNHZ 271656Z 31007KT 10SM SCT043 04/M06 A2987 RMK AO2 SLP119 T00391056 $ (CP)
0254743920146112010012717567+43900-069933FM-15+0023KNHZ V0209999C00005013725MN0160935N5+00615-00505101185ADDAA101000095GA1075+013725999GD13991+0137259GF107991999999999999999999KA1999M+00611KA2999N-00501MA1101125100845MD1840034+9999REMMET11901/27/10 12:56:02 METAR KNHZ 271756Z 00000KT 10SM BKN045 06/M05 A2986 RMK AO2 SLP118 T00611050 10061 21050 58003 $ (CP)
0197743920146112010012718567+43900-069933FM-15+0023KNHZ V0202105N00215013725MN0160935N5+00505-00505101225ADDAA101000095GA1075+013725999GD13991+0137259GF107991999999999999999999MA1101195100915REMMET10201/27/10 13:56:02 METAR KNHZ 271856Z 21004KT 10SM BKN045 05/M05 A2988 RMK AO2 SLP122 T00501050 $ (RDG)
0197743920146112010012719567+43900-069933FM-15+0023KNHZ V0202205N00265016765MN0160935N5+00445-00445101325ADDAA101000095GA1075+016765999GD13991+0167659GF107991999999999999999999MA1101255100985REMMET10201/27/10 14:56:02 METAR KNHZ 271956Z 22005KT 10SM BKN055 04/M04 A2990 RMK AO2 SLP132 T00441044 $ (RDG)
0217743920146112010012720567+43900-069933FM-15+0023KNHZ V0202005N00365018295MN0160935N5+00335-00335101395ADDAA101000095GA1085+018295999GD14991+0182959GF108991999999999999999999MA1101325101045MD1340214+9999REMMET10801/27/10 15:56:02 METAR KNHZ 272056Z 20007KT 10SM OVC060 03/M03 A2992 RMK AO2 SLP139 T00331033 53021 $ (RDG)
0197743920146112010012721567+43900-069933FM-15+0023KNHZ V0203305N00155015245MN0160935N5+00225-00285101475ADDAA101000095GA1085+015245999GD14991+0152459GF108991999999999999999999MA1101425101155REMMET10201/27/10 16:56:02 METAR KNHZ 272156Z 33003KT 10SM OVC050 02/M03 A2995 RMK AO2 SLP147 T00221028 $ (RDG)
0197743920146112010012722567+43900-069933FM-15+0023KNHZ V0209999C00005018295MN0160935N5+00175-00285101525ADDAA101000095GA1085+018295999GD14991+0182959GF108991999999999999999999MA1101465101185REMMET10201/27/10 17:56:02 METAR KNHZ 272256Z 00000KT 10SM OVC060 02/M03 A2996 RMK AO2 SLP152 T00171028 $ (RDG)
0255743920146112010012723567+43900-069933FM-15+0023KNHZ V0203305N00265018295MN0160935N5+00225-00505101575ADDAA101000095GA1085+018295999GD14991+0182959GF108991999999999999999999KA1999M+00671KA2999N+00171MA1101525101255MD1140174+9999REMMET12001/27/10 18:56:02 METAR KNHZ 272356Z 33005KT 10SM OVC060 02/M05 A2998 RMK AO2 SLP157 T00221050 10067 20017 51017 $ (RDG)
0191743920146112010012800567+43900-069933FM-15+0023KNHZ V0203405N00215014945MN0160935N5+00175-00505101685ADDAA101000095GA1085+014945999GD14991+0149459GF108991999999999999999999MA1101635101355REMMET09601/27/10 19:56:01 METAR KNHZ 280056Z 34004KT 10SM OVC049 02/M05 A3001 RMK AO2 SLP168 T00171050 $
0229743920146112010012801567+43900-069933FM-15+0023KNHZ V0209999C00005014635MN0160935N5+00175-00505101715ADDAA101000095GA1075+014635999GA2085+018295999GD13991+0146359GD24991+0182959GF108991999999999999999999MA1101665101385REMMET10301/27/10 20:56:01 METAR KNHZ 280156Z 00000KT 10SM BKN048 OVC060 02/M05 A3002 RMK AO2 SLP171 T00171050 $
0211743920146112010012802567+43900-069933FM-15+0023KNHZ V0209999C00005014635MN0160935N5+00065-00395101745ADDAA101000095GA1085+014635999GD14991+0146359GF108991999999999999999999MA1101695101425MD1140184+9999REMMET10201/27/10 21:56:01 METAR KNHZ 280256Z 00000KT 10SM OVC048 01/M04 A3003 RMK AO2 SLP174 T00061039 51018 $
0160743920146112010012803567+43900-069933FM-15+0023KNHZ V0209999C00005018295MN9999999N5+00065-00445101745ADDAA101000095GA1085+018295999GD14991+0182959MA1101695101425REMMET09101/27/10 22:56:01 METAR KNHZ 280356Z 00000KT OVC060 01/M04 A3003 RMK AO2 SLP174 T00061044 $
0170743920146112010012804567+43900-069933FM-15+0023KNHZ V0202005N00215018295MN9999999N5+00005-00335101745ADDAA101000095GA1085+018295999GD14991+0182959MA1101695101425REMMET10101/27/10 23:56:01 METAR KNHZ 280456Z 20004KT OVC060 00/M03 A3003 RMK AO2 SLP174 T00001033 400671050 $
0910743920146112010012804596+43900-069933SOD  +0023KNHZ V020999999999999999999999999999+99999+99999999999ADDAA124000095KA1240M+00675KA2240N-00495MG1100734100444OE11240062632011405OE22240044731011545OE33240014399999995REMSOD75424 HR PRECIPITATION (IN):0.00  24 HR MAX TEMP (F):44 24 HR MAX TEMP TIME (LST):1257 24 HR MIN TEMP (F):23 24 HR MIN TEMP TIME (LST):0737 AVERAGE STATION PRESSURE:29.745 MINIMUM SEA LEVEL PRESSURE:29.66 TIME OF OCCURRENCE:0019 PEAK WIND SPEED (MPH):14  PEAK WIND DIR (DEG):320 PEAK WIND TIME (LST):1140  FASTEST 2MIN SPEED (MPH):10 FASTEST 2MIN DIR (DEG):310 FASTEST 2MIN TIME (LST):1154 AVERAGE WIND SPEED (MPH):3.2  24 HR AVG TEMP (F):34 DEPART FROM NORMAL:+10  HEATING DEGREE DAYS:31  COOLING DEGREE DAYS:0   LATEST DAY MAX TEMP (0700-1900 LST):44  LATEST NIGHT MIN TEMP(1900-0800 LST):23 HOURLY INCREMENTAL PRECIPITATION VALUES (IN):.00 0.00 0.00 0.00 0.00 0.00 0.00 0.00 0.00 0.00 0.00 0.00 0.00 0.00 0.00 0.00 0.00 0.00 0.00 0.00 0.00 0.00 0.00 0.00EQDR01     N7GJS072R02     N7GKS075
0192743920146112010012805567+43900-069933FM-15+0023KNHZ V0202105N00215018295MN9999999N5+00005-00565101735ADDAA101000095GA1085+018295999GD14991+0182959MA1101665101385MD1840014+9999REMMET10901/28/10 00:56:02 METAR KNHZ 280556Z 21004KT OVC060 00/M06 A3002 RMK AO2 SLP173 T00001056 10022 21006 58001 $
0161743920146112010012806567+43900-069933FM-15+0023KNHZ V0202205N00265018295MN9999999N5-00065-00615101725ADDAA101000095GA1085+018295999GD14991+0182959MA1101665101385REMMET09201/28/10 01:56:02 METAR KNHZ 280656Z 22005KT OVC060 M01/M06 A3002 RMK AO2 SLP172 T10061061 $
0161743920146112010012807567+43900-069933FM-15+0023KNHZ V0202205N00365018295MN9999999N5-00115-00725101735ADDAA101000095GA1085+018295999GD14991+0182959MA1101665101385REMMET09201/28/10 02:56:02 METAR KNHZ 280756Z 22007KT OVC060 M01/M07 A3002 RMK AO2 SLP173 T10111072 $
0181743920146112010012808567+43900-069933FM-15+0023KNHZ V0202105N003652200059N9999999N5-00225-00835101755ADDAA101000095GA1025+016765999GD11991+0167659MA1101695101425MD1340034+9999REMMET09801/28/10 03:56:02 METAR KNHZ 280856Z 21007KT FEW055 M02/M08 A3003 RMK AO2 SLP175 T10221083 53003 $
0158743920146112010012809567+43900-069933FM-15+0023KNHZ V0202105N002652200059N9999999N5-00335-00835101765ADDAA101000095GA1005+999999999GD10991+9999999MA1101695101425REMMET08901/28/10 04:56:02 METAR KNHZ 280956Z 21005KT CLR M03/M08 A3003 RMK AO2 SLP176 T10331083 $
0197743920146112010012810567+43900-069933FM-15+0023KNHZ V0202205N002652200059N0160935N5-00395-00895101685ADDAA101000095GA1025+015245999GD11991+0152459GF102991999999999999999999MA1101635101355REMMET10201/28/10 05:56:02 METAR KNHZ 281056Z 22005KT 10SM FEW050 M04/M09 A3001 RMK AO2 SLP168 T10391089 $ (CP)
0255743920146112010012811567+43900-069933FM-15+0023KNHZ V0201905N002152200059N0160935N5-00395-00835101665ADDAA101000095GA1025+015245999GD11991+0152459GF102991999999999999999999KA1999M+00001KA2999N-00501MA1101595101315MD1840104+9999REMMET12001/28/10 06:56:02 METAR KNHZ 281156Z 19004KT 10SM FEW050 M04/M08 A3000 RMK AO2 SLP166 T10391083 10000 21050 58010 $ (CP)
0235743920146112010012812567+43900-069933FM-15+0023KNHZ V0202105N002152200059N0160935N5-00335-00725101645ADDAA101000095GA1025+015245999GA2045+060965999GD11991+0152459GD22991+0609659GF104991999999999999999999MA1101595101315REMMET10901/28/10 07:56:02 METAR KNHZ 281256Z 21004KT 10SM FEW050 SCT200 M03/M07 A3000 RMK AO2 SLP164 T10331072 $ (CP)
0252743920146112010012813567+43900-069933FM-15+0023KNHZ V0202005N00265060965MN0160935N5-00065-00675101575ADDAA101000095GA1045+019815999GA2075+060965999GD12991+0198159GD23991+0609659GF107991999999999999999999MA1101525101255REMMET12601/28/10 08:56:02 METAR KNHZ 281356Z 20005KT 10SM SCT065 BKN200 M01/M07 A2998 RMK AO2 SLP157 VIRGA DSNT SW-NW T10061067 $ (CP)
0312743920146112010012814567+43900-069933FM-15+0023KNHZ V0201905N00315060965MN0160935N5+00065-00615101525ADDAA101000095GA1045+015245999GA2045+039625999GA3085+060965999GD12991+0152459GD22991+0396259GD34991+0609659GF108991999999999999999999MA1101465101185MD1840124+9999REMMET14101/28/10 09:56:02 METAR KNHZ 281456Z 19006KT 10SM SCT050 SCT130 OVC200 01/M06 A2996 RMK AO2 SLP152 VIRGA DSNT SW-N T00061061 58012 $ RTX (CP)
0284743920146112010012815567+43900-069933FM-15+0023KNHZ V0202105N00365039625MN0160935N5+00115-00725101415ADDAA101000095GA1045+015245999GA2075+039625999GA3085+060965999GD12991+0152459GD23991+0396259GD34991+0609659GF108991999999999999999999MA1101355101085REMMET12701/28/10 10:56:02 METAR KNHZ 281556Z 21007KT 10SM SCT050 BKN130 OVC200 01/M07 A2993 RMK AO2 SLP141 VIRGA ALQDS T00111072 $ (CP)
0284743920146112010012816567+43900-069933FM-15+0023KNHZ V0202005N00465016765MN0160935N5+00175-00675101245ADDAA101000095GA1045+013415999GA2075+016765999GA3085+039625999GD12991+0134159GD23991+0167659GD34991+0396259GF108991999999999999999999MA1101195100915REMMET12701/28/10 11:56:02 METAR KNHZ 281656Z 20009KT 10SM SCT044 BKN055 OVC130 02/M07 A2988 RMK AO2 SLP124 VIRGA ALQDS T00171067 $ (CP)
0293743920146112010012817347+43900-069933FM-16+0023KNHZ V0201805N00515009755MN0112655N5+00105-00605999999ADDAA101000021AU110030015AW1715GA1075+009755999GA2075+015245999GA3085+039625999GD13991+0097559GD23991+0152459GD34991+0396259GF108991999999999999999999MA1101125100845MW1711REMMET11301/28/10 12:34:02 SPECI KNHZ 281734Z 18010KT 7SM -SN BKN032 BKN050 OVC130 01/M06 A2986 RMK AO2 SNB34 P0000 $ (CP)
0293743920146112010012817437+43900-069933FM-16+0023KNHZ V0202005N00365007625MN0064375N5+00105-00605999999ADDAA101000021AU110030015AW1715GA1075+007625999GA2075+015245999GA3085+039625999GD13991+0076259GD23991+0152459GD34991+0396259GF108991999999999999999999MA1101085100815MW1711REMMET11301/28/10 12:43:02 SPECI KNHZ 281743Z 20007KT 4SM -SN BKN025 BKN050 OVC130 01/M06 A2985 RMK AO2 SNB34 P0000 $ (CP)
0366743920146112010012817567+43900-069933FM-15+0023KNHZ V0202205N00415007625MN0032195N5+00065-00445101105ADDAA101000025AA206000021AU110030015AW1715GA1075+007625999GA2085+009755999GD13991+0076259GD24991+0097559GF108991999999999999999999KA1999M+00171KA2999N-00441MA1101055100775MD1840424+9999MW1711REMMET14701/28/10 12:56:02 METAR KNHZ 281756Z 22008KT 2SM -SN BKN025 OVC032 01/M04 A2984 RMK AO2 SNB34 SLP110 P0000 60000 T00061044 10017 21044 58042 $ (CP)EQDQ01  00008PRCP06
0238743920146112010012818387+43900-069933FM-16+0023KNHZ V0201805N00365002135WN0016095N5-00105-00205999999ADDAA101000021AU110030015AU200001015AW1105AW2715GA1095+002135999GD15991+0021359GF109991999999000251999999MA1100955100675MW1101MW2711REMMET09701/28/10 13:38:02 SPECI KNHZ 281838Z 18007KT 1SM -SN BR VV007 M01/M02 A2981 RMK AO2 P0000 $ (RDG)
0294743920146112010012818567+43900-069933FM-15+0023KNHZ V0201705N00465001525MN0016095N5-00065-00115100975ADDAA101000025AU110030015AU200001015AW1105AW2715GA1075+001525999GA2085+003965999GD13991+0015259GD24991+0039659GF108991999999999999999999MA1100915100645MW1101MW2711REMMET12201/28/10 13:56:02 METAR KNHZ 281856Z 17009KT 1SM -SN BR BKN005 OVC013 M01/M01 A2980 RMK AO2 SLP097 P0000 T10061011 $ (RDG)
0283743920146112010012819546+43900-069933FM-16+0023KNHZ V0201805N00465003665MN0016095N5-00105-00205999999ADDAU110030015AU200001015AW1105AW2715GA1045+002135999GA2075+003665999GA3085+005495999GD12991+0021359GD23991+0036659GD34991+0054959MA1100815100545REMMET12901/28/10 14:54:02 SPECI KNHZ 281954Z 18009KT 1SM -SN BR SCT007 BKN012 OVC018 M01/M02 A2977 RMK AO2 CIG 008 R01 P0000 $ FIBI (RDG)
0344743920146112010012819567+43900-069933FM-15+0023KNHZ V0201805N00465003665MN0016095N5-00065-00175100855ADDAA101000025AU110030015AU200001015AW1105AW2715GA1045+002135999GA2075+003665999GA3085+005495999GD12991+0021359GD23991+0036659GD34991+0054959GF108991999999999999999999MA1100785100505MW1101MW2711REMMET14101/28/10 14:56:02 METAR KNHZ 281956Z 18009KT 1SM -SN BR SCT007 BKN012 OVC018 M01/M02 A2976 RMK AO2 CIG 008 R01 SLP085 P0000 T10061017 $ (RDG)
0293743920146112010012820017+43900-069933FM-16+0023KNHZ V0201905N00465003055MN0040235N5-00105-00205999999ADDAA101000021AU110030015AU200001015AW1105AW2715GA1075+003055999GA2085+004885999GD13991+0030559GD24991+0048859GF108991999999999999999999MA1100815100545MW1101MW2711REMMET12101/28/10 15:01:02 SPECI KNHZ 282001Z 19009KT 2 1/2SM -SN BR BKN010 OVC016 M01/M02 A2977 RMK AO2 CIG 006V012 P0000 $ (RDG)
0305743920146112010012820127+43900-069933FM-16+0023KNHZ V0201905N00575004275MN0048285N5+00005-00205999999ADDAA101000021AU100001015AW1105GA1045+002745999GA2075+004275999GA3085+006105999GD12991+0027459GD23991+0042759GD34991+0061059GF108991999999999999999999MA1100785100505MW1101REMMET12501/28/10 15:12:02 SPECI KNHZ 282012Z 19011KT 3SM BR SCT009 BKN014 OVC020 00/M02 A2976 RMK AO2 SNE06 CIG 009 R01 P0000 $ (RDG)
0293743920146112010012820377+43900-069933FM-16+0023KNHZ V0201905N00575005185MN0048285N5+00005-00205999999ADDAA101000021AU100001015AW1105GA1075+005185999GA2075+006715999GA3085+008845999GD13991+0051859GD23991+0067159GD34991+0088459GF108991999999999999999999MA1100755100475MW1101REMMET11301/28/10 15:37:02 SPECI KNHZ 282037Z 19011KT 3SM BR BKN017 BKN022 OVC029 00/M02 A2975 RMK AO2 SNE06 P0000 $ (RDG)
0340743920146112010012820567+43900-069933FM-15+0023KNHZ V0202105N00575006715MN0112655N5+00005-00225100815ADDAA101000025AA203000021GA1045+004275999GA2075+006715999GA3085+009455999GD12991+0042759GD23991+0067159GD34991+0094559GF108991999999999999999999MA1100755100475MD1640314+9999REMMET13901/28/10 15:56:02 METAR KNHZ 282056Z 21011KT 7SM SCT014 BKN022 OVC031 00/M02 A2975 RMK AO2 SNE06 SLP081 P0000 60000 T00001022 56031 $ (RDG)EQDQ01  00008PRCP03
0274743920146112010012821567+43900-069933FM-15+0023KNHZ V0202105N00515025915MN0160935N5-00065-00335100725ADDAA101000095GA1025+005495999GA2045+009455999GA3085+025915999GD11991+0054959GD22991+0094559GD34991+0259159GF108991999999999999999999MA1100645100375REMMET11701/28/10 16:56:02 METAR KNHZ 282156Z 21010KT 10SM FEW018 SCT031 OVC085 M01/M03 A2972 RMK AO2 SLP072 T10061033 $ (RDG)
0198743920146112010012822567+43900-069933FM-15+0023KNHZ V0202205N00215030485MN0160935N5-00225-00395100675ADDAA101000095GA1075+030485999GD13991+0304859GF107991999999999999999999MA1100615100345REMMET10301/28/10 17:56:02 METAR KNHZ 282256Z 22004KT 10SM BKN100 M02/M04 A2971 RMK AO2 SLP067 T10221039 $ (RDG)
0311743920146112010012823567+43900-069933FM-15+0023KNHZ V0209999C00005027435MN0160935N5-00285-00395100595ADDAA101000095AA206000021GA1045+010675999GA2075+027435999GD12991+0106759GD23991+0274359GF107991999999999999999999KA1999M+00061KA2999N-00331MA1100545100275MD1640224+9999REMMET13401/28/10 18:56:02 METAR KNHZ 282356Z 00000KT 10SM SCT035 BKN090 M03/M04 A2969 RMK AO2 SLP059 60000 T10281039 10006 21033 56022 $ (RDG)
0230743920146112010012900567+43900-069933FM-15+0023KNHZ V0202505N002152200059N0160935N5-00175-00335100515ADDAA101000095GA1025+010675999GA2045+027435999GD11991+0106759GD22991+0274359GF104991999999999999999999MA1100445100175REMMET10401/28/10 19:56:01 METAR KNHZ 290056Z 25004KT 10SM FEW035 SCT090 M02/M03 A2966 RMK AO2 SLP051 T10171033 $
0336743920146112010012901517+43900-069933FM-16+0023KNHZ V0203105N00885003965MN0048285N5-00205-00305999999ADDAA101000021AU110030015AU200001015AW1105AW2715GA1025+001525999GA2085+003965999GD11991+0015259GD24991+0039659GF108991999999999999999999MA1100515100235MW1101MW2711OC101135REMMET15601/28/10 20:51:01 SPECI KNHZ 290151Z 31017G22KT 3SM -SN BR FEW005 OVC013 M02/M03 A2968 RMK AO2 PK WND 26030/0139 WSHFT 0134 SNB07 CIG 005 R01 PRESRR P0000 $
0336743920146112010012901546+43900-069933FM-16+0023KNHZ V0203005N01085004885MN0048285N5-00305-00405999999ADDAU110030015AU200001015AW1105AW2715GA1025+000615999GA2045+002445999GA3085+004885999GD11991+0006159GD22991+0024459GD34991+0048859MA1100585100305OC101445REMMET17401/28/10 20:54:03 SPECI KNHZ 290154Z 30021G28KT 3SM -SN BR FEW002 SCT008 OVC016 M03/M04 A2970 RMK AO2 PK WND 26030/0139 WSHFT 0134 SNB07 CIG 005 R01 PRESRR P0000 $ FIBI (RDG)
0391743920146112010012901567+43900-069933FM-15+0023KNHZ V0202905N01085002445MN0048285N5-00285-00445100625ADDAA101000025AU110030015AU200001015AW1105AW2715GA1045+000615999GA2075+002445999GA3085+004275999GD12991+0006159GD23991+0024459GD34991+0042759GF108991999999999999999999MA1100585100305MW1101MW2711OC101445REMMET18001/28/10 20:56:01 METAR KNHZ 290156Z 29021G28KT 3SM -SN BR SCT002 BKN008 OVC014 M03/M04 A2970 RMK AO2 PK WND 26030/0139 WSHFT 0134 SNB07 CIG 003 R01 PRESRR SLP062 P0000 T10281044 $
0282743920146112010012902067+43900-069933FM-16+0023KNHZ V0202905N00935001225MN0048285N5-00305-00505999999ADDAA101000021AU110030015AU200001015AW1105AW2715GA1075+001225999GA2085+003965999GD13991+0012259GD24991+0039659GF108991999999999999999999MA1100585100305MW1101MW2711OC101295REMMET10201/28/10 21:06:01 SPECI KNHZ 290206Z 29018G25KT 3SM -SN BR BKN004 OVC013 M03/M05 A2970 RMK AO2 P0000 $
0262743920146112010012902207+43900-069933FM-16+0023KNHZ V0203105N00885002445MN0032195N5-00405-00605999999ADDAA101000021AU110030015AU200001015AW1105AW2715GA1085+002445999GD14991+0024459GF108991999999999999999999MA1100585100305MW1101MW2711OC101395REMMET11301/28/10 21:20:01 SPECI KNHZ 290220Z 31017G27KT 2SM -SN BR OVC008 M04/M06 A2970 RMK AO2 PK WND 31027/0213 P0000 $
0300743920146112010012902297+43900-069933FM-16+0023KNHZ V0203205N00775003055MN0048285N5-00405-00605999999ADDAA101000021AU110030015AU200001015AW1105AW2715GA1075+003055999GA2085+005495999GD13991+0030559GD24991+0054959GF108991999999999999999999MA1100615100345MW1101MW2711OC101035REMMET12001/28/10 21:29:01 SPECI KNHZ 290229Z 32015G20KT 3SM -SN BR BKN010 OVC018 M04/M06 A2971 RMK AO2 PK WND 31027/0213 P0000 $
0335743920146112010012902567+43900-069933FM-15+0023KNHZ V0203105N00675003665MN0064375N5-00505-00725100705ADDAA101000025AA203000021AU110030015AU200001015AW1105AW2715GA1085+003665999GD14991+0036659GF108991999999999999999999MA1100645100375MD1340114+9999MW1101MW2711OC101185REMMET14201/28/10 21:56:01 METAR KNHZ 290256Z 31013G23KT 4SM -SN BR OVC012 M05/M07 A2972 RMK AO2 PK WND 31027/0213 SLP070 P0000 60000 T10501072 53011 $EQDQ01  00008PRCP03
0200743920146112010012903317+43900-069933FM-16+0023KNHZ V0202905N00775004885MN9999999N5-00605-00905999999ADDAA101000021AU110030015AW1715GA1085+004885999GD14991+0048859MA1100645100375OC101295REMMET10601/28/10 22:31:01 SPECI KNHZ 290331Z 29015G25KT -SN OVC016 M06/M09 A2972 RMK AO2 PK WND 31027/0320 P0000 $
0244743920146112010012903567+43900-069933FM-15+0023KNHZ V0203105N00515007325MN9999999N5-00675-00945100725ADDAA101000025AU110030015AW1715GA1075+007325999GA2085+009145999GD13991+0073259GD24991+0091459MA1100645100375REMMET12701/28/10 22:56:01 METAR KNHZ 290356Z 31010KT -SN BKN024 OVC030 M07/M09 A2972 RMK AO2 PK WND 31027/0320 SLP072 P0000 T10671094 $
0205743920146112010012904137+43900-069933FM-16+0023KNHZ V0203105N00625014945MN9999999N5-00605-01105999999ADDAA101000021GA1045+007925999GA2085+014945999GD12991+0079259GD24991+0149459MA1100645100375OC100885REMMET09701/28/10 23:13:01 SPECI KNHZ 290413Z 31012G17KT SCT026 OVC049 M06/M11 A2972 RMK AO2 SNE13 P0000 $
0194743920146112010012904567+43900-069933FM-15+0023KNHZ V0202905N00825018295MN9999999N5-00675-01505100735ADDAA101000025GA1085+018295999GD14991+0182959MA1100685100405OC101185REMMET11701/28/10 23:56:01 METAR KNHZ 290456Z 29016G23KT OVC060 M07/M15 A2973 RMK AO2 SNE13 SLP073 P0000 T10671150 400171067 $
0933743920146112010012904596+43900-069933SOD  +0023KNHZ V020999999999999999999999999999+99999+99999999999ADDAA124000025AX1015245KA1240M+00175KA2240N-00665MG1100934100514OE11240156526020395OE22240107331021185OE33240039399999995REMSOD76824 HR PRECIPITATION (IN):T     WEATHER(CODE):1  24 HR MAX TEMP (F):35 24 HR MAX TEMP TIME (LST):1232 24 HR MIN TEMP (F):20 24 HR MIN TEMP TIME (LST):2359 AVERAGE STATION PRESSURE:29.805 MINIMUM SEA LEVEL PRESSURE:29.68 TIME OF OCCURRENCE:2039 PEAK WIND SPEED (MPH):35  PEAK WIND DIR (DEG):260 PEAK WIND TIME (LST):2039  FASTEST 2MIN SPEED (MPH):24 FASTEST 2MIN DIR (DEG):310 FASTEST 2MIN TIME (LST):2118 AVERAGE WIND SPEED (MPH):8.8  24 HR AVG TEMP (F):28 DEPART FROM NORMAL: +8  HEATING DEGREE DAYS:37  COOLING DEGREE DAYS:0   LATEST DAY MAX TEMP (0700-1900 LST):35  LATEST NIGHT MIN TEMP(1900-0800 LST):23 HOURLY INCREMENTAL PRECIPITATION VALUES (IN):.00 0.00 0.00 0.00 0.00 0.00 0.00 0.00 0.00 0.00 0.00 0.00 T    T    T    T    0.00 0.00 0.00 0.00 T    T    T    TEQDR01     N7GJS072R02     N7GKS075
0247743920146112010012905567+43900-069933FM-15+0023KNHZ V0202805N00825014945MN9999999N5-00835-01835100785ADDAA101000095AA206000021GA1075+014945999GD13991+0149459KA1999M-00111KA2999N-00831MA1100715100445MD1340074+9999OC101245REMMET11901/29/10 00:56:02 METAR KNHZ 290556Z 28016G24KT BKN049 M08/M18 A2974 RMK AO2 SLP078 60000 T10831183 11011 21083 53007 $
0169743920146112010012906567+43900-069933FM-15+0023KNHZ V0203005N006252200059N9999999N5-00945-01945100835ADDAA101000095GA1005+999999999GD10991+9999999MA1100785100505OC100985REMMET09201/29/10 01:56:02 METAR KNHZ 290656Z 30012G19KT CLR M09/M19 A2976 RMK AO2 SLP083 T10941194 $
0187743920146112010012907567+43900-069933FM-15+0023KNHZ V0202705N007252200059N9999999N5-01065-01945100825ADDAA101000095GA1005+999999999GD10991+9999999MA1100785100505OC101655REMMET11001/29/10 02:56:02 METAR KNHZ 290756Z 27014G32KT CLR M11/M19 A2976 RMK AO2 PK WND 26032/0752 SLP082 T11061194 $
0281743920146112010012908567+43900-069933FM-15+0023KNHZ V0202905N007252200059N9999999N5-01115-02005100825ADDAA101000025AA203000021AU120090015AW1401AW2415GA1005+999999999GD10991+9999999MA1100755100475MD1040044+9999OC101805REMMET13701/29/10 03:56:02 METAR KNHZ 290856Z 29014G35KT UP CLR M11/M20 A2975 RMK AO2 PK WND 30035/0848 UPB42 SLP082 P0000 60000 T11111200 50004 $EQDQ01  00008PRCP03
0228743920146112010012909567+43900-069933FM-15+0023KNHZ V0202905N007252200059N9999999N5-01175-02115100815ADDAA101000025AU120090015AW1401AW2415GA1005+999999999GD10991+9999999MA1100755100475OC101185REMMET12801/29/10 04:56:02 METAR KNHZ 290956Z 29014G23KT UP CLR M12/M21 A2975 RMK AO2 PK WND 29033/0905 UPE34B56 SLP081 P0000 T11171211 $
0169743920146112010012910017+43900-069933FM-16+0023KNHZ V0202905N008852200059N0160935N5-01205-02105999999ADDGA1025+015245999GD11991+0152459GF102991999999999999999999MA1100755100475REMMET08501/29/10 05:01:02 SPECI KNHZ 291001Z 29017KT 10SM FEW050 M12/M21 A2975 RMK AO2 $ (CP)
0226743920146112010012910567+43900-069933FM-15+0023KNHZ V0202905N007252200059N0160935N5-01225-02115100845ADDAA101000095GA1025+015245999GD11991+0152459GF102991999999999999999999MA1100785100505OC100985REMMET12301/29/10 05:56:02 METAR KNHZ 291056Z 29014G19KT 10SM FEW050 M12/M21 A2976 RMK AO2 PK WND 28027/1004 SLP084 T11221211 $ (CP)
0311743920146112010012911567+43900-069933FM-15+0023KNHZ V0202805N006252200059N0160935N5-01285-02115100895ADDAA101000095GA1025+015245999GA2045+030485999GD11991+0152459GD22991+0304859GF104991999999999999999999KA1999M-00831KA2999N-01281MA1100815100545MD1340074+9999REMMET14501/29/10 06:56:02 METAR KNHZ 291156Z 28012KT 10SM FEW050 SCT100 M13/M21 A2977 RMK AO2 PK WND 27026/1124 SLP089 T11281211 11083 21128 53007 $ (CP)
0302743920146112010012912567+43900-069933FM-15+0023KNHZ V0203005N008852200059N0160935N5-01225-02065100865ADDAA101000095GA1025+015245999GA2045+030485999GA3045+060965999GD11991+0152459GD22991+0304859GD32991+0609659GF104991999999999999999999MA1100815100545OC101345REMMET13701/29/10 07:56:02 METAR KNHZ 291256Z 30017G26KT 10SM FEW050 SCT100 SCT200 M12/M21 A2977 RMK AO2 PK WND 28026/1250 SLP086 T11221206 $ (CP)
0264743920146112010012913567+43900-069933FM-15+0023KNHZ V0203005N007252200059N0160935N5-01115-02005100885ADDAA101000095GA1025+015245999GA2045+060965999GD11991+0152459GD22991+0609659GF104991999999999999999999MA1100815100545OC101395REMMET13001/29/10 08:56:02 METAR KNHZ 291356Z 30014G27KT 10SM FEW050 SCT200 M11/M20 A2977 RMK AO2 PK WND 30028/1331 SLP088 T11111200 $ (CP)
0284743920146112010012914567+43900-069933FM-15+0023KNHZ V0203005N009852200059N0160935N5-01005-01945100935ADDAA101000095GA1025+015245999GA2045+060965999GD11991+0152459GD22991+0609659GF104991999999999999999999MA1100885100615MD1340044+9999OC101395REMMET13601/29/10 09:56:02 METAR KNHZ 291456Z 30019G27KT 10SM FEW050 SCT200 M10/M19 A2979 RMK AO2 PK WND 29033/1417 SLP093 T11001194 53004 $ (CP)
0264743920146112010012915567+43900-069933FM-15+0023KNHZ V0203105N009852200059N0160935N5-00895-01895100965ADDAA101000095GA1025+015245999GA2045+060965999GD11991+0152459GD22991+0609659GF104991999999999999999999MA1100915100645OC101495REMMET13001/29/10 10:56:02 METAR KNHZ 291556Z 31019G29KT 10SM FEW050 SCT200 M09/M19 A2980 RMK AO2 PK WND 28038/1537 SLP096 T10891189 $ (CP)
0264743920146112010012916567+43900-069933FM-15+0023KNHZ V0203105N013952200059N0160935N5-00835-01945100945ADDAA101000095GA1025+015245999GA2045+060965999GD11991+0152459GD22991+0609659GF104991999999999999999999MA1100885100615OC101805REMMET13001/29/10 11:56:02 METAR KNHZ 291656Z 31027G35KT 10SM FEW050 SCT200 M08/M19 A2979 RMK AO2 PK WND 28038/1631 SLP094 T10831194 $ (CP)
0322743920146112010012917567+43900-069933FM-15+0023KNHZ V0203005N012452200059N0160935N5-00835-02115100885ADDAA101000095GA1025+015245999GA2045+060965999GD11991+0152459GD22991+0609659GF104991999999999999999999KA1999M-00781KA2999N-01281MA1100815100545MD1840064+9999OC101705REMMET14801/29/10 12:56:02 METAR KNHZ 291756Z 30024G33KT 10SM FEW050 SCT200 M08/M21 A2977 RMK AO2 PK WND 31038/1701 SLP088 T10831211 11078 21128 58006 $ (CP)
0227743920146112010012918567+43900-069933FM-15+0023KNHZ V0203105N010352200059N0160935N5-00835-02175100955ADDAA101000095GA1045+060965999GD12991+0609659GF104991999999999999999999MA1100885100615OC101605REMMET12401/29/10 13:56:02 METAR KNHZ 291856Z 31020G31KT 10SM SCT200 M08/M22 A2979 RMK AO2 PK WND 32032/1816 SLP095 T10831217 $ (RDG)
0193743920146112010012919567+43900-069933FM-15+0023KNHZ V0203105N007752200059N0160935N5-00835-02175101025ADDAA101000095GF100991999999999999999999MA1100955100675OC101035REMMET12101/29/10 14:56:02 METAR KNHZ 291956Z 31015G20KT 10SM CLR M08/M22 A2981 RMK AO2 PK WND 32031/1907 SLP102 T10831217 $ (RDG)
0195743920146112010012920567+43900-069933FM-15+0023KNHZ V0203105N009352200059N0160935N5-00945-02225101055ADDAA101000095GF100991999999999999999999MA1100985100715MD1140184+9999OC101295REMMET10901/29/10 15:56:02 METAR KNHZ 292056Z 31018G25KT 10SM CLR M09/M22 A2982 RMK AO2 SLP105 T10941222 51018 $ (RDG)
0175743920146112010012921567+43900-069933FM-15+0023KNHZ V0203105N008852200059N0160935N5-01065-02335101165ADDAA101000095GF100991999999999999999999MA1101085100815OC101245REMMET10301/29/10 16:56:02 METAR KNHZ 292156Z 31017G24KT 10SM CLR M11/M23 A2985 RMK AO2 SLP116 T11061233 $ (RDG)
0175743920146112010012922567+43900-069933FM-15+0023KNHZ V0203105N007252200059N0160935N5-01175-02395101255ADDAA101000095GF100991999999999999999999MA1101195100915OC101185REMMET10301/29/10 17:56:02 METAR KNHZ 292256Z 31014G23KT 10SM CLR M12/M24 A2988 RMK AO2 SLP125 T11171239 $ (RDG)
0233743920146112010012923567+43900-069933FM-15+0023KNHZ V0203005N007752200059N0160935N5-01285-02335101285ADDAA101000095GF100991999999999999999999KA1999M-00781KA2999N-01281MA1101225100945MD1140224+9999OC101135REMMET12101/29/10 18:56:02 METAR KNHZ 292356Z 30015G22KT 10SM CLR M13/M23 A2989 RMK AO2 SLP128 T11281233 11078 21128 51022 $ (RDG)
0193743920146112010013000567+43900-069933FM-15+0023KNHZ V0203105N008252200059N0160935N5-01335-02335101335ADDAA101000095GF100991999999999999999999MA1101255100985OC101245REMMET12101/29/10 19:56:03 METAR KNHZ 300056Z 31016G24KT 10SM CLR M13/M23 A2990 RMK AO2 PK WND 31026/0035 SLP133 T11331233 $ (RDG)
0193743920146112010013001567+43900-069933FM-15+0023KNHZ V0203305N008852200059N0160935N5-01395-02335101365ADDAA101000095GF100991999999999999999999MA1101295101015OC101185REMMET12101/29/10 20:56:03 METAR KNHZ 300156Z 33017G23KT 10SM CLR M14/M23 A2991 RMK AO2 PK WND 33032/0132 SLP136 T11391233 $ (RDG)
0218743920146112010013002567+43900-069933FM-15+0023KNHZ V0203005N009352200059N0160935N5-01505-02335101435ADDAA101000095GF100991999999999999999999MA1101355101085MD1340164+9999OC101395REMMET13201/29/10 21:56:03 METAR KNHZ 300256Z 30018G27KT 10SM CLR M15/M23 A2993 RMK AO2 PK WND 32035/0218 SLP143 LAST T11501233 53016 $ (RDG)
0187743920146112010013003567+43900-069933FM-15+0023KNHZ V0203105N008252200059N9999999N5-01565-02395101505ADDAA101000095GA1005+999999999GD10991+9999999MA1101425101155OC101185REMMET11001/29/10 22:56:03 METAR KNHZ 300356Z 31016G23KT CLR M16/M24 A2995 RMK AO2 PK WND 32031/0327 SLP150 T11561239 $
0179743920146112010013004567+43900-069933FM-15+0023KNHZ V0203105N004652200059N9999999N5-01565-02395101535ADDAA101000095GA1005+999999999GD10991+9999999MA1101465101185OC100985REMMET10201/29/10 23:56:03 METAR KNHZ 300456Z 31009G19KT CLR M16/M24 A2996 RMK AO2 SLP153 T11561239 410671156 $
0926743920146112010013004596+43900-069933SOD  +0023KNHZ V020999999999999999999999999999+99999+99999999999ADDAA124000026KA1240M-00665KA2240N-01555MG1100614100754OE11240196731012015OE22240143131012025OE33240083699999995REMSOD75424 HR PRECIPITATION (IN):T     24 HR MAX TEMP (F):20 24 HR MAX TEMP TIME (LST):0005 24 HR MIN TEMP (F):4  24 HR MIN TEMP TIME (LST):2359 AVERAGE STATION PRESSURE:29.710 MINIMUM SEA LEVEL PRESSURE:29.75 TIME OF OCCURRENCE:0046 PEAK WIND SPEED (MPH):44  PEAK WIND DIR (DEG):310 PEAK WIND TIME (LST):1201  FASTEST 2MIN SPEED (MPH):32 FASTEST 2MIN DIR (DEG):310 FASTEST 2MIN TIME (LST):1202 AVERAGE WIND SPEED (MPH):18.7 24 HR AVG TEMP (F):12 DEPART FROM NORMAL: -8  HEATING DEGREE DAYS:53  COOLING DEGREE DAYS:0   LATEST DAY MAX TEMP (0700-1900 LST):18  LATEST NIGHT MIN TEMP(1900-0800 LST):9  HOURLY INCREMENTAL PRECIPITATION VALUES (IN):.00 0.00 0.00 T    T    0.00 0.00 0.00 0.00 0.00 0.00 0.00 0.00 0.00 0.00 0.00 0.00 0.00 0.00 0.00 0.00 0.00 0.00 0.00EQDR01     T7AAP092R02     N7GJS072R03     N7GKS075
0230743920146112010013005567+43900-069933FM-15+0023KNHZ V0203205N004652200059N9999999N5-01615-02395101535ADDAA101000095GA1025+022865999GD11991+0228659KA1999M-01281KA2999N-01611MA1101465101185MD1140104+9999OC100885REMMET11301/30/10 00:56:02 METAR KNHZ 300556Z 32009G17KT FEW075 M16/M24 A2996 RMK AO2 SLP153 T11611239 11128 21161 51010 $
0158743920146112010013006567+43900-069933FM-15+0023KNHZ V0203005N005152200059N9999999N5-01615-02445101665ADDAA101000095GA1005+999999999GD10991+9999999MA1101595101315REMMET08901/30/10 01:56:02 METAR KNHZ 300656Z 30010KT CLR M16/M24 A3000 RMK AO2 SLP166 T11611244 $
0158743920146112010013007567+43900-069933FM-15+0023KNHZ V0203205N003152200059N9999999N5-01675-02445101755ADDAA101000095GA1005+999999999GD10991+9999999MA1101695101425REMMET08901/30/10 02:56:02 METAR KNHZ 300756Z 32006KT CLR M17/M24 A3003 RMK AO2 SLP175 T11671244 $
0181743920146112010013008567+43900-069933FM-15+0023KNHZ V0202805N005152200059N9999999N5-01675-02445101755ADDAA101000095GA1025+028965999GD11991+0289659MA1101695101425MD1140224+9999REMMET09801/30/10 03:56:02 METAR KNHZ 300856Z 28010KT FEW095 M17/M24 A3003 RMK AO2 SLP175 T11671244 51022 $
0158743920146112010013009567+43900-069933FM-15+0023KNHZ V0203205N003652200059N9999999N5-01725-02445101785ADDAA101000095GA1005+999999999GD10991+9999999MA1101735101455REMMET08901/30/10 04:56:02 METAR KNHZ 300956Z 32007KT CLR M17/M24 A3004 RMK AO2 SLP178 T11721244 $
0161743920146112010013010567+43900-069933FM-15+0023KNHZ V0202905N003652200059N9999999N5-01725-02445101825ADDAA101000095GA1025+027435999GD11991+0274359MA1101765101485REMMET09201/30/10 05:56:02 METAR KNHZ 301056Z 29007KT FEW090 M17/M24 A3005 RMK AO2 SLP182 T11721244 $
0216743920146112010013011567+43900-069933FM-15+0023KNHZ V0203105N003652200059N9999999N5-01675-02395101885ADDAA101000095GA1005+999999999GD10991+9999999KA1999M-01611KA2999N-01721MA1101795101525MD1340124+9999REMMET10701/30/10 06:56:02 METAR KNHZ 301156Z 31007KT CLR M17/M24 A3006 RMK AO2 SLP188 T11671239 11161 21172 53012 $
0169743920146112010013012567+43900-069933FM-15+0023KNHZ V0203105N004652200059N9999999N5-01615-02395101945ADDAA101000095GA1005+999999999GD10991+9999999MA1101865101595OC100775REMMET09201/30/10 07:56:02 METAR KNHZ 301256Z 31009G15KT CLR M16/M24 A3008 RMK AO2 SLP194 T11611239 $
0158743920146112010013013567+43900-069933FM-15+0023KNHZ V0203205N004652200059N9999999N5-01445-02285102005ADDAA101000095GA1005+999999999GD10991+9999999MA1101935101655REMMET08901/30/10 08:56:02 METAR KNHZ 301356Z 32009KT CLR M14/M23 A3010 RMK AO2 SLP200 T11441228 $
0178743920146112010013014567+43900-069933FM-15+0023KNHZ V0203305N004652200059N9999999N5-01225-02115102055ADDAA101000095GA1005+999999999GD10991+9999999MA1102005101725MD1140184+9999REMMET09501/30/10 09:56:02 METAR KNHZ 301456Z 33009KT CLR M12/M21 A3012 RMK AO2 SLP205 T11221211 51018 $
0169743920146112010013015567+43900-069933FM-15+0023KNHZ V0203105N007252200059N9999999N5-01065-02005101995ADDAA101000095GA1005+999999999GD10991+9999999MA1101935101655OC101085REMMET09201/30/10 10:56:02 METAR KNHZ 301556Z 31014G21KT CLR M11/M20 A3010 RMK AO2 SLP199 T11061200 $
0158743920146112010013016567+43900-069933FM-15+0023KNHZ V0203305N005152200059N9999999N5-00895-01945101955ADDAA101000095GA1005+999999999GD10991+9999999MA1101905101625REMMET08901/30/10 11:56:02 METAR KNHZ 301656Z 33010KT CLR M09/M19 A3009 RMK AO2 SLP195 T10891194 $
0216743920146112010013017567+43900-069933FM-15+0023KNHZ V0203505N003652200059N9999999N5-00785-02005101905ADDAA101000095GA1005+999999999GD10991+9999999KA1999M-00781KA2999N-01721MA1101835101555MD1640154+9999REMMET10701/30/10 12:56:02 METAR KNHZ 301756Z 35007KT CLR M08/M20 A3007 RMK AO2 SLP190 T10781200 11078 21172 56015 $
0158743920146112010013018567+43900-069933FM-15+0023KNHZ V0203305N003652200059N9999999N5-00675-02005101895ADDAA101000095GA1005+999999999GD10991+9999999MA1101835101555REMMET08901/30/10 13:56:02 METAR KNHZ 301856Z 33007KT CLR M07/M20 A3007 RMK AO2 SLP189 T10671200 $
0158743920146112010013019567+43900-069933FM-15+0023KNHZ V0200205N003652200059N9999999N5-00675-02065101895ADDAA101000095GA1005+999999999GD10991+9999999MA1101835101555REMMET08901/30/10 14:56:02 METAR KNHZ 301956Z 02007KT CLR M07/M21 A3007 RMK AO2 SLP189 T10671206 $
0178743920146112010013020567+43900-069933FM-15+0023KNHZ V0203405N003152200059N9999999N5-00725-02005101845ADDAA101000095GA1005+999999999GD10991+9999999MA1101765101485MD1840064+9999REMMET09501/30/10 15:56:02 METAR KNHZ 302056Z 34006KT CLR M07/M20 A3005 RMK AO2 SLP184 T10721200 58006 $
0158743920146112010013021567+43900-069933FM-15+0023KNHZ V0203405N003652200059N9999999N5-00835-02065101895ADDAA101000095GA1005+999999999GD10991+9999999MA1101835101555REMMET08901/30/10 16:56:02 METAR KNHZ 302156Z 34007KT CLR M08/M21 A3007 RMK AO2 SLP189 T10831206 $
0158743920146112010013022567+43900-069933FM-15+0023KNHZ V0203405N003652200059N9999999N5-00945-02065101925ADDAA101000095GA1005+999999999GD10991+9999999MA1101865101595REMMET08901/30/10 17:56:02 METAR KNHZ 302256Z 34007KT CLR M09/M21 A3008 RMK AO2 SLP192 T10941206 $
0216743920146112010013023567+43900-069933FM-15+0023KNHZ V0203205N003152200059N9999999N5-01005-02005101965ADDAA101000095GA1005+999999999GD10991+9999999KA1999M-00671KA2999N-01001MA1101905101625MD1140124+9999REMMET10701/30/10 18:56:02 METAR KNHZ 302356Z 32006KT CLR M10/M20 A3009 RMK AO2 SLP196 T11001200 11067 21100 51012 $
0158743920146112010013100567+43900-069933FM-15+0023KNHZ V0203405N003152200059N9999999N5-01065-01945101935ADDAA101000095GA1005+999999999GD10991+9999999MA1101865101595REMMET08901/30/10 19:56:03 METAR KNHZ 310056Z 34006KT CLR M11/M19 A3008 RMK AO2 SLP193 T11061194 $
0158743920146112010013101567+43900-069933FM-15+0023KNHZ V0203505N002652200059N9999999N5-01115-01945101855ADDAA101000095GA1005+999999999GD10991+9999999MA1101795101525REMMET08901/30/10 20:56:03 METAR KNHZ 310156Z 35005KT CLR M11/M19 A3006 RMK AO2 SLP185 T11111194 $
0178743920146112010013102567+43900-069933FM-15+0023KNHZ V0203405N004152200059N9999999N5-01225-02005101795ADDAA101000095GA1005+999999999GD10991+9999999MA1101735101455MD1840174+9999REMMET09501/30/10 21:56:03 METAR KNHZ 310256Z 34008KT CLR M12/M20 A3004 RMK AO2 SLP179 T11221200 58017 $
0158743920146112010013103567+43900-069933FM-15+0023KNHZ V0203505N003152200059N9999999N5-01285-02065101745ADDAA101000095GA1005+999999999GD10991+9999999MA1101665101385REMMET08901/30/10 22:56:03 METAR KNHZ 310356Z 35006KT CLR M13/M21 A3002 RMK AO2 SLP174 T11281206 $
0168743920146112010013104567+43900-069933FM-15+0023KNHZ V0200205N002152200059N9999999N5-01335-02065101675ADDAA101000095GA1005+999999999GD10991+9999999MA1101595101315REMMET09901/30/10 23:56:03 METAR KNHZ 310456Z 02004KT CLR M13/M21 A3000 RMK AO2 SLP167 T11331206 410671172 $
0910743920146112010013104596+43900-069933SOD  +0023KNHZ V020999999999999999999999999999+99999+99999999999ADDAA124000095KA1240M-00665KA2240N-01715MG1101474101524OE11240107332010515OE22240089432010525OE33240039399999995REMSOD75424 HR PRECIPITATION (IN):0.00  24 HR MAX TEMP (F):20 24 HR MAX TEMP TIME (LST):1523 24 HR MIN TEMP (F):1  24 HR MIN TEMP TIME (LST):0726 AVERAGE STATION PRESSURE:29.965 MINIMUM SEA LEVEL PRESSURE:29.98 TIME OF OCCURRENCE:0104 PEAK WIND SPEED (MPH):24  PEAK WIND DIR (DEG):320 PEAK WIND TIME (LST):1051  FASTEST 2MIN SPEED (MPH):20 FASTEST 2MIN DIR (DEG):320 FASTEST 2MIN TIME (LST):1052 AVERAGE WIND SPEED (MPH):8.8  24 HR AVG TEMP (F):11 DEPART FROM NORMAL: -9  HEATING DEGREE DAYS:54  COOLING DEGREE DAYS:0   LATEST DAY MAX TEMP (0700-1900 LST):20  LATEST NIGHT MIN TEMP(1900-0800 LST):1  HOURLY INCREMENTAL PRECIPITATION VALUES (IN):.00 0.00 0.00 0.00 0.00 0.00 0.00 0.00 0.00 0.00 0.00 0.00 0.00 0.00 0.00 0.00 0.00 0.00 0.00 0.00 0.00 0.00 0.00 0.00EQDR01     N7GJS072R02     N7GKS075
0216743920146112010013105567+43900-069933FM-15+0023KNHZ V0200105N002152200059N9999999N5-01395-02065101605ADDAA101000095GA1005+999999999GD10991+9999999KA1999M-01001KA2999N-01391MA1101525101255MD1840194+9999REMMET10701/31/10 00:56:02 METAR KNHZ 310556Z 01004KT CLR M14/M21 A2998 RMK AO2 SLP160 T11391206 11100 21139 58019 $
0158743920146112010013106567+43900-069933FM-15+0023KNHZ V0200105N001552200059N9999999N5-01565-02065101565ADDAA101000095GA1005+999999999GD10991+9999999MA1101495101215REMMET08901/31/10 01:56:02 METAR KNHZ 310656Z 01003KT CLR M16/M21 A2997 RMK AO2 SLP156 T11561206 $
0158743920146112010013107567+43900-069933FM-15+0023KNHZ V0203605N001552200059N9999999N5-01615-02065101535ADDAA101000095GA1005+999999999GD10991+9999999MA1101465101185REMMET08901/31/10 02:56:02 METAR KNHZ 310756Z 36003KT CLR M16/M21 A2996 RMK AO2 SLP153 T11611206 $
0178743920146112010013108567+43900-069933FM-15+0023KNHZ V0209999C000052200059N9999999N5-01675-02065101525ADDAA101000095GA1005+999999999GD10991+9999999MA1101465101185MD1640084+9999REMMET09501/31/10 03:56:02 METAR KNHZ 310856Z 00000KT CLR M17/M21 A2996 RMK AO2 SLP152 T11671206 56008 $
0158743920146112010013109567+43900-069933FM-15+0023KNHZ V0200105N001552200059N9999999N5-01615-02115101535ADDAA101000095GA1005+999999999GD10991+9999999MA1101465101185REMMET08901/31/10 04:56:02 METAR KNHZ 310956Z 01003KT CLR M16/M21 A2996 RMK AO2 SLP153 T11611211 $
0158743920146112010013110567+43900-069933FM-15+0023KNHZ V0200305N002152200059N9999999N5-01565-02225101565ADDAA101000095GA1005+999999999GD10991+9999999MA1101495101215REMMET08901/31/10 05:56:02 METAR KNHZ 311056Z 03004KT CLR M16/M22 A2997 RMK AO2 SLP156 T11561222 $
0216743920146112010013111567+43900-069933FM-15+0023KNHZ V0209999C000052200059N9999999N5-01565-02115101625ADDAA101000095GA1005+999999999GD10991+9999999KA1999M-01391KA2999N-01721MA1101565101285MD1340104+9999REMMET10701/31/10 06:56:02 METAR KNHZ 311156Z 00000KT CLR M16/M21 A2999 RMK AO2 SLP162 T11561211 11139 21172 53010 $
0158743920146112010013112567+43900-069933FM-15+0023KNHZ V0200105N002652200059N9999999N5-01505-02065101635ADDAA101000095GA1005+999999999GD10991+9999999MA1101565101285REMMET08901/31/10 07:56:02 METAR KNHZ 311256Z 01005KT CLR M15/M21 A2999 RMK AO2 SLP163 T11501206 $
0158743920146112010013113567+43900-069933FM-15+0023KNHZ V0203605N002152200059N9999999N5-01175-02065101625ADDAA101000095GA1005+999999999GD10991+9999999MA1101565101285REMMET08901/31/10 08:56:02 METAR KNHZ 311356Z 36004KT CLR M12/M21 A2999 RMK AO2 SLP162 T11171206 $
0178743920146112010013114567+43900-069933FM-15+0023KNHZ V0203505N004652200059N9999999N5-00895-01835101565ADDAA101000095GA1005+999999999GD10991+9999999MA1101495101215MD1840064+9999REMMET09501/31/10 09:56:02 METAR KNHZ 311456Z 35009KT CLR M09/M18 A2997 RMK AO2 SLP156 T10891183 58006 $
0158743920146112010013115567+43900-069933FM-15+0023KNHZ V0203005N003652200059N9999999N5-00785-01785101495ADDAA101000095GA1005+999999999GD10991+9999999MA1101425101155REMMET08901/31/10 10:56:02 METAR KNHZ 311556Z 30007KT CLR M08/M18 A2995 RMK AO2 SLP149 T10781178 $
0158743920146112010013116567+43900-069933FM-15+0023KNHZ V0202405N004152200059N9999999N5-00615-01725101365ADDAA101000095GA1005+999999999GD10991+9999999MA1101295101015REMMET08901/31/10 11:56:02 METAR KNHZ 311656Z 24008KT CLR M06/M17 A2991 RMK AO2 SLP136 T10611172 $
0216743920146112010013117567+43900-069933FM-15+0023KNHZ V0202905N003652200059N9999999N5-00505-01675101285ADDAA101000095GA1005+999999999GD10991+9999999KA1999M-00441KA2999N-01611MA1101225100945MD1840284+9999REMMET10701/31/10 12:56:02 METAR KNHZ 311756Z 29007KT CLR M05/M17 A2989 RMK AO2 SLP128 T10501167 11044 21161 58028 $
0169743920146112010013118567+43900-069933FM-15+0023KNHZ V0202805N005152200059N9999999N5-00395-01565101235ADDAA101000095GA1005+999999999GD10991+9999999MA1101155100885OC100825REMMET09201/31/10 13:56:02 METAR KNHZ 311856Z 28010G16KT CLR M04/M16 A2987 RMK AO2 SLP123 T10391156 $
0161743920146112010013119567+43900-069933FM-15+0023KNHZ V0203105N007252200059N9999999N5-00335-01505101245ADDAA101000095GA1025+018295999GD11991+0182959MA1101195100915REMMET09201/31/10 14:56:02 METAR KNHZ 311956Z 31014KT FEW060 M03/M15 A2988 RMK AO2 SLP124 T10331150 $
0189743920146112010013120567+43900-069933FM-15+0023KNHZ V0203205N005152200059N9999999N5-00395-01565101265ADDAA101000095GA1005+999999999GD10991+9999999MA1101195100915MD1540024+9999OC100985REMMET09801/31/10 15:56:02 METAR KNHZ 312056Z 32010G19KT CLR M04/M16 A2988 RMK AO2 SLP126 T10391156 55002 $
0158743920146112010013121567+43900-069933FM-15+0023KNHZ V0203105N004152200059N9999999N5-00565-01615101325ADDAA101000095GA1005+999999999GD10991+9999999MA1101255100985REMMET08901/31/10 16:56:02 METAR KNHZ 312156Z 31008KT CLR M06/M16 A2990 RMK AO2 SLP132 T10561161 $
0158743920146112010013122567+43900-069933FM-15+0023KNHZ V0202805N002152200059N9999999N5-00725-01565101385ADDAA101000095GA1005+999999999GD10991+9999999MA1101325101045REMMET08901/31/10 17:56:02 METAR KNHZ 312256Z 28004KT CLR M07/M16 A2992 RMK AO2 SLP138 T10721156 $
0216743920146112010013123567+43900-069933FM-15+0023KNHZ V0202605N001552200059N9999999N5-00945-01565101415ADDAA101000095GA1005+999999999GD10991+9999999KA1999M-00281KA2999N-01001MA1101355101085MD1140154+9999REMMET10701/31/10 18:56:02 METAR KNHZ 312356Z 26003KT CLR M09/M16 A2993 RMK AO2 SLP141 T10941156 11028 21100 51015 $
0158743920146112010020100567+43900-069933FM-15+0023KNHZ V0209999C000052200059N9999999N5-00945-01505101425ADDAA101000095GA1005+999999999GD10991+9999999MA1101355101085REMMET08901/31/10 19:56:03 METAR KNHZ 010056Z 00000KT CLR M09/M15 A2993 RMK AO2 SLP142 T10941150 $
0158743920146112010020101567+43900-069933FM-15+0023KNHZ V0202105N003152200059N9999999N5-01005-01505101385ADDAA101000095GA1005+999999999GD10991+9999999MA1101325101045REMMET08901/31/10 20:56:03 METAR KNHZ 010156Z 21006KT CLR M10/M15 A2992 RMK AO2 SLP138 T11001150 $
0181743920146112010020102567+43900-069933FM-15+0023KNHZ V0202305N003652200059N9999999N5-00725-01395101345ADDAA101000095GA1025+030485999GD11991+0304859MA1101295101015MD1840074+9999REMMET09801/31/10 21:56:03 METAR KNHZ 010256Z 23007KT FEW100 M07/M14 A2991 RMK AO2 SLP134 T10721139 58007 $
0161743920146112010020103567+43900-069933FM-15+0023KNHZ V0202405N00415036585MN9999999N5-00675-01335101325ADDAA101000095GA1075+036585999GD13991+0365859MA1101255100985REMMET09201/31/10 22:56:03 METAR KNHZ 010356Z 24008KT BKN120 M07/M13 A2990 RMK AO2 SLP132 T10671133 $
0171743920146112010020104567+43900-069933FM-15+0023KNHZ V0202305N003652200059N9999999N5-00615-01335101335ADDAA101000095GA1025+033535999GD11991+0335359MA1101255100985REMMET10201/31/10 23:56:03 METAR KNHZ 010456Z 23007KT FEW110 M06/M13 A2990 RMK AO2 SLP133 T10611133 410281172 $
0910743920146112010020104596+43900-069933SOD  +0023KNHZ V020999999999999999999999999999+99999+99999999999ADDAA124000095KA1240M-00275KA2240N-01715MG1101134101224OE11240102829015385OE22240080531015495OE33240028699999995REMSOD75424 HR PRECIPITATION (IN):0.00  24 HR MAX TEMP (F):27 24 HR MAX TEMP TIME (LST):1452 24 HR MIN TEMP (F):1  24 HR MIN TEMP TIME (LST):0403 AVERAGE STATION PRESSURE:29.865 MINIMUM SEA LEVEL PRESSURE:29.89 TIME OF OCCURRENCE:1535 PEAK WIND SPEED (MPH):23  PEAK WIND DIR (DEG):290 PEAK WIND TIME (LST):1538  FASTEST 2MIN SPEED (MPH):18 FASTEST 2MIN DIR (DEG):310 FASTEST 2MIN TIME (LST):1549 AVERAGE WIND SPEED (MPH):6.4  24 HR AVG TEMP (F):14 DEPART FROM NORMAL: -4  HEATING DEGREE DAYS:51  COOLING DEGREE DAYS:0   LATEST DAY MAX TEMP (0700-1900 LST):27  LATEST NIGHT MIN TEMP(1900-0800 LST):1  HOURLY INCREMENTAL PRECIPITATION VALUES (IN):.00 0.00 0.00 0.00 0.00 0.00 0.00 0.00 0.00 0.00 0.00 0.00 0.00 0.00 0.00 0.00 0.00 0.00 0.00 0.00 0.00 0.00 0.00 0.00EQDR01     N7GJS072R02     N7GKS075
1209743920146112010020104596+43900-069933SOM  +0023KNHZ V020999999999999999999999999999+99999+99999999999ADDAB10028796AD10022492526999999996AE1066025015005AH1005000892517355AH2010001392517375AH3015001892517325AH4020002392517375AH5030003392516505AH6045004892516505AI1060006192517325AI2080008192517375AI3100009992517445AI4120011992517415AI5150014092518055AI6180015292518165KB1744N-08675KB2744M+00835KB3744A-03895KC1N9-01941499995KC2M9+00942599995KD1744H10755KD2744C00005MH1100754101054MK1102611410375097900304195REMSOM744PCP MTOT:1.13 DEPNRM:-3.6 PCP GT 24HRS:0.88 DATE(S):25-26 DAYS W/PCP >=.01:6  DAYS W/PCP >=.10:2  DAYS W/ PCP >=.50:1 DAYS W/PCP >=1.00:0 MSDP AMTS W/DATE-TIME TAGS:MIN:5 0.03  25/1735 MIN:10 0.05  25/1737 MIN:15 0.07  25/1732 MIN:20 0.09  25/1737 MIN:30 0.13  25/1650 MIN:45 0.19  25/1650 MIN:60 0.24  25/1732 MIN:80 0.32  25/1737 MIN:100 0.39  25/1744 MIN:120 0.47  25/1741 MIN:150 0.55  25/1805 MIN:180 0.60  25/1816 AVG DLY MIN:16.4  AVG DLY MAX:33.5  AVG MLY TMP:25.0  DEP NORM:4.6   MIN TMP:-3 DATE(S):14 MAX TMP:49  DATE(S):25 AVG STP:29.750 LWST SLP:28.91 DATE/TIME:030419 HGST SLP:30.30 DATE/TIME:141037 HDD MTH TOT:1075 DEP NORM:-290 SEASON(JUL 1-JUN 30):3507 DEP NORM:-718 CDD MTH TOT:0 DEP NORM: 0 SEASON(JAN 1-DEC 31):0 DEP NORM: 0EQDR01  1.137ABP070R02  0.887ADP081R03     67AE1100
0216743920146112010020105567+43900-069933FM-15+0023KNHZ V0202305N003652200059N9999999N5-00675-01335101315ADDAA101000095GA1005+999999999GD10991+9999999KA1999M-00611KA2999N-01001MA1101255100985MD1840034+9999REMMET10702/01/10 00:56:02 METAR KNHZ 010556Z 23007KT CLR M07/M13 A2990 RMK AO2 SLP131 T10671133 11061 21100 58003 $
0161743920146112010020106567+43900-069933FM-15+0023KNHZ V0202305N003652200059N9999999N5-00615-01285101315ADDAA101000095GA1025+036585999GD11991+0365859MA1101255100985REMMET09202/01/10 01:56:02 METAR KNHZ 010656Z 23007KT FEW120 M06/M13 A2990 RMK AO2 SLP131 T10611128 $
0158743920146112010020107567+43900-069933FM-15+0023KNHZ V0202605N004152200059N9999999N5-00675-01285101315ADDAA101000095GA1005+999999999GD10991+9999999MA1101255100985REMMET08902/01/10 02:56:02 METAR KNHZ 010756Z 26008KT CLR M07/M13 A2990 RMK AO2 SLP131 T10671128 $
0219743920146112010020108567+43900-069933FM-15+0023KNHZ V0202405N00515025915MN9999999N5-00675-01285101305ADDAA101000095GA1075+025915999GA2085+036585999GD13991+0259159GD24991+0365859MA1101225100945MD1840014+9999REMMET10502/01/10 03:56:02 METAR KNHZ 010856Z 24010KT BKN085 OVC120 M07/M13 A2989 RMK AO2 SLP130 T10671128 58001 $
0169743920146112010020109567+43900-069933FM-15+0023KNHZ V0202405N004652200059N9999999N5-00725-01285101335ADDAA101000095GA1005+999999999GD10991+9999999MA1101295101015OC100825REMMET09202/01/10 04:56:02 METAR KNHZ 010956Z 24009G16KT CLR M07/M13 A2991 RMK AO2 SLP133 T10721128 $
0158743920146112010020110567+43900-069933FM-15+0023KNHZ V0202505N004152200059N9999999N5-00785-01285101395ADDAA101000095GA1005+999999999GD10991+9999999MA1101325101045REMMET08902/01/10 05:56:02 METAR KNHZ 011056Z 25008KT CLR M08/M13 A2992 RMK AO2 SLP139 T10781128 $
0216743920146112010020111567+43900-069933FM-15+0023KNHZ V0202305N004652200059N9999999N5-00725-01285101485ADDAA101000095GA1005+999999999GD10991+9999999KA1999M-00611KA2999N-00781MA1101425101155MD1340194+9999REMMET10702/01/10 06:56:02 METAR KNHZ 011156Z 23009KT CLR M07/M13 A2995 RMK AO2 SLP148 T10721128 11061 21078 53019 $
0158743920146112010020112567+43900-069933FM-15+0023KNHZ V0202405N005152200059N9999999N5-00675-01285101575ADDAA101000095GA1005+999999999GD10991+9999999MA1101525101255REMMET08902/01/10 07:56:02 METAR KNHZ 011256Z 24010KT CLR M07/M13 A2998 RMK AO2 SLP157 T10671128 $
0169743920146112010020113567+43900-069933FM-15+0023KNHZ V0202705N005752200059N9999999N5-00505-01285101655ADDAA101000095GA1005+999999999GD10991+9999999MA1101595101315OC100825REMMET09202/01/10 08:56:02 METAR KNHZ 011356Z 27011G16KT CLR M05/M13 A3000 RMK AO2 SLP165 T10501128 $
0189743920146112010020114567+43900-069933FM-15+0023KNHZ V0203005N009352200059N9999999N5-00395-01615101695ADDAA101000095GA1005+999999999GD10991+9999999MA1101635101355MD1140214+9999OC101295REMMET09802/01/10 09:56:02 METAR KNHZ 011456Z 30018G25KT CLR M04/M16 A3001 RMK AO2 SLP169 T10391161 51021 $
0187743920146112010020115567+43900-069933FM-15+0023KNHZ V0203205N005752200059N9999999N5-00395-01675101785ADDAA101000095GA1005+999999999GD10991+9999999MA1101735101455OC100985REMMET11002/01/10 10:56:02 METAR KNHZ 011556Z 32011G19KT CLR M04/M17 A3004 RMK AO2 PK WND 29026/1518 SLP178 T10391167 $
0158743920146112010020116567+43900-069933FM-15+0023KNHZ V0203305N006752200059N9999999N5-00335-01835101745ADDAA101000095GA1005+999999999GD10991+9999999MA1101695101425REMMET08902/01/10 11:56:02 METAR KNHZ 011656Z 33013KT CLR M03/M18 A3003 RMK AO2 SLP174 T10331183 $
0216743920146112010020117567+43900-069933FM-15+0023KNHZ V0203605N003152200059N9999999N5-00285-01895101705ADDAA101000095GA1005+999999999GD10991+9999999KA1999M-00281KA2999N-00721MA1101635101355MD1040004+9999REMMET10702/01/10 12:56:02 METAR KNHZ 011756Z 36006KT CLR M03/M19 A3001 RMK AO2 SLP170 T10281189 11028 21072 50000 $
0179743920146112010020118567+43900-069933FM-15+0023KNHZ V0202605N006252200059N9999999N5-00285-02115101645ADDAA101000095GA1005+999999999GD10991+9999999MA1101595101315OC101085REMMET10202/01/10 13:56:02 METAR KNHZ 011856Z 26012G21KT CLR M03/M21 A3000 RMK AO2 SLP164 T10281211 CHINO R01 $
0175743920146112010020119566+43900-069933FM-15+0023KNHZ V02099999999999999999N9999999N5-00225-02065101685ADDMA1101635101355REMMET11302/01/10 14:56:02 METAR KNHZ 011956Z      KT M02/M21 A3001 RMK AO2 SLP168 T10221206 PWINO FZRANO TSNO CHINO R01 $EQDR01      7SKY009R02      7GAS009
0182743920146112010020120566+43900-069933FM-15+0023KNHZ V02099999999999999999N9999999N5+99999+99999999999ADDMA1101665101385MD1340044+9999REMMET10602/01/10 15:56:02 METAR KNHZ 012056Z      KT A3002 RMK AO2 SLPNO 6//// 53004 PWINO FZRANO TSNO CHINO R01 $EQDR01      7SKY009R02      7GAS009
0156743920146112010020121566+43900-069933FM-15+0023KNHZ V02099999999999999999N9999999N5+99999+99999999999ADDMA1101735101455REMMET09402/01/10 16:56:02 METAR KNHZ 012156Z      KT A3004 RMK AO2 SLPNO PWINO FZRANO TSNO CHINO R01 $EQDR01      7SKY009R02      7GAS009
0156743920146112010020122566+43900-069933FM-15+0023KNHZ V02099999999999999999N9999999N5+99999+99999999999ADDMA1101795101525REMMET09402/01/10 17:56:02 METAR KNHZ 012256Z      KT A3006 RMK AO2 SLPNO PWINO FZRANO TSNO CHINO R01 $EQDR01      7SKY009R02      7GAS009
0182743920146112010020123566+43900-069933FM-15+0023KNHZ V02099999999999999999N9999999N5+99999+99999999999ADDMA1101835101555MD1140174+9999REMMET10602/01/10 18:56:02 METAR KNHZ 012356Z      KT A3007 RMK AO2 SLPNO 6//// 51017 PWINO FZRANO TSNO CHINO R01 $EQDR01      7SKY009R02      7GAS009
0156743920146112010020200566+43900-069933FM-15+0023KNHZ V02099999999999999999N9999999N5+99999+99999999999ADDMA1101835101555REMMET09402/01/10 19:56:01 METAR KNHZ 020056Z      KT A3007 RMK AO2 SLPNO PWINO FZRANO TSNO CHINO R01 $EQDR01      7SKY009R02      7GAS009
0156743920146112010020201566+43900-069933FM-15+0023KNHZ V02099999999999999999N9999999N5+99999+99999999999ADDMA1101835101555REMMET09402/01/10 20:56:01 METAR KNHZ 020156Z      KT A3007 RMK AO2 SLPNO PWINO FZRANO TSNO CHINO R01 $EQDR01      7SKY009R02      7GAS009
0182743920146112010020202566+43900-069933FM-15+0023KNHZ V02099999999999999999N9999999N5+99999+99999999999ADDMA1101835101555MD1440004+9999REMMET10602/01/10 21:56:01 METAR KNHZ 020256Z      KT A3007 RMK AO2 SLPNO 6//// 54000 PWINO FZRANO TSNO CHINO R01 $EQDR01      7SKY009R02      7GAS009
0156743920146112010020203566+43900-069933FM-15+0023KNHZ V02099999999999999999N9999999N5+99999+99999999999ADDMA1101835101555REMMET09402/01/10 22:56:01 METAR KNHZ 020356Z      KT A3007 RMK AO2 SLPNO PWINO FZRANO TSNO CHINO R01 $EQDR01      7SKY009R02      7GAS009
0156743920146112010020204566+43900-069933FM-15+0023KNHZ V02099999999999999999N9999999N5+99999+99999999999ADDMA1101905101625REMMET09402/01/10 23:56:01 METAR KNHZ 020456Z      KT A3009 RMK AO2 SLPNO PWINO FZRANO TSNO CHINO R01 $EQDR01      7SKY009R02      7GAS009
0624743920146112010020204596+43900-069933SOD  +0023KNHZ V020999999999999999999999999999+99999+99999999999ADDAA124000095MG1101254101294OE11240134129010185OE22240098331010015REMSOD48124 HR PRECIPITATION (IN):0.00  AVERAGE STATION PRESSURE:29.900 MINIMUM SEA LEVEL PRESSURE:29.91 TIME OF OCCURRENCE:0449 PEAK WIND SPEED (MPH):30  PEAK WIND DIR (DEG):290 PEAK WIND TIME (LST):1018  FASTEST 2MIN SPEED (MPH):22 FASTEST 2MIN DIR (DEG):310 FASTEST 2MIN TIME (LST):1001 LATEST NIGHT MIN TEMP(1900-0800 LST):14 HOURLY INCREMENTAL PRECIPITATION VALUES (IN):.00 0.00 0.00 0.00 0.00 0.00 0.00 0.00 0.00 0.00 0.00 0.00 0.00 0.00 M    M    M    M    M    M    M    M    M    MEQDR01      7SKY009R02      7GAS009R03     N7GJS072R04     N7GKS075
0182743920146112010020205566+43900-069933FM-15+0023KNHZ V02099999999999999999N9999999N5+99999+99999999999ADDMA1101935101655MD1340104+9999REMMET10602/02/10 00:56:02 METAR KNHZ 020556Z      KT A3010 RMK AO2 SLPNO 6//// 53010 PWINO FZRANO TSNO CHINO R01 $EQDR01      7SKY009R02      7GAS009
0156743920146112010020206566+43900-069933FM-15+0023KNHZ V02099999999999999999N9999999N5+99999+99999999999ADDMA1102035101755REMMET09402/02/10 01:56:02 METAR KNHZ 020656Z      KT A3013 RMK AO2 SLPNO PWINO FZRANO TSNO CHINO R01 $EQDR01      7SKY009R02      7GAS009
0156743920146112010020207566+43900-069933FM-15+0023KNHZ V02099999999999999999N9999999N5+99999+99999999999ADDMA1102075101795REMMET09402/02/10 02:56:02 METAR KNHZ 020756Z      KT A3014 RMK AO2 SLPNO PWINO FZRANO TSNO CHINO R01 $EQDR01      7SKY009R02      7GAS009
0182743920146112010020208566+43900-069933FM-15+0023KNHZ V02099999999999999999N9999999N5+99999+99999999999ADDMA1102175101895MD1240244+9999REMMET10602/02/10 03:56:02 METAR KNHZ 020856Z      KT A3017 RMK AO2 SLPNO 6//// 52024 PWINO FZRANO TSNO CHINO R01 $EQDR01      7SKY009R02      7GAS009
0156743920146112010020209566+43900-069933FM-15+0023KNHZ V02099999999999999999N9999999N5+99999+99999999999ADDMA1102245101965REMMET09402/02/10 04:56:02 METAR KNHZ 020956Z      KT A3019 RMK AO2 SLPNO PWINO FZRANO TSNO CHINO R01 $EQDR01      7SKY009R02      7GAS009
0156743920146112010020210566+43900-069933FM-15+0023KNHZ V02099999999999999999N9999999N5+99999+99999999999ADDMA1102245101965REMMET09402/02/10 05:56:02 METAR KNHZ 021056Z      KT A3019 RMK AO2 SLPNO PWINO FZRANO TSNO CHINO R01 $EQDR01      7SKY009R02      7GAS009
0188743920146112010020211566+43900-069933FM-15+0023KNHZ V02099999999999999999N9999999N5+99999+99999999999ADDMA1102305102025MD1240144+9999REMMET11202/02/10 06:56:02 METAR KNHZ 021156Z      KT A3021 RMK AO2 SLPNO 6//// 7//// 52014 PWINO FZRANO TSNO CHINO R01 $EQDR01      7SKY009R02      7GAS009
0156743920146112010020212566+43900-069933FM-15+0023KNHZ V02099999999999999999N9999999N5+99999+99999999999ADDMA1102405102135REMMET09402/02/10 07:56:02 METAR KNHZ 021256Z      KT A3024 RMK AO2 SLPNO PWINO FZRANO TSNO CHINO R01 $EQDR01      7SKY009R02      7GAS009
0156743920146112010020213566+43900-069933FM-15+0023KNHZ V02099999999999999999N9999999N5+99999+99999999999ADDMA1102445102165REMMET09402/02/10 08:56:02 METAR KNHZ 021356Z      KT A3025 RMK AO2 SLPNO PWINO FZRANO TSNO CHINO R01 $EQDR01      7SKY009R02      7GAS009
0182743920146112010020214566+43900-069933FM-15+0023KNHZ V02099999999999999999N9999999N5+99999+99999999999ADDMA1102445102165MD1140144+9999REMMET10602/02/10 09:56:02 METAR KNHZ 021456Z      KT A3025 RMK AO2 SLPNO 6//// 51014 PWINO FZRANO TSNO CHINO R01 $EQDR01      7SKY009R02      7GAS009
0156743920146112010020215566+43900-069933FM-15+0023KNHZ V02099999999999999999N9999999N5+99999+99999999999ADDMA1102405102135REMMET09402/02/10 10:56:02 METAR KNHZ 021556Z      KT A3024 RMK AO2 SLPNO PWINO FZRANO TSNO CHINO R01 $EQDR01      7SKY009R02      7GAS009
0156743920146112010020216566+43900-069933FM-15+0023KNHZ V02099999999999999999N9999999N5+99999+99999999999ADDMA1102305102025REMMET09402/02/10 11:56:02 METAR KNHZ 021656Z      KT A3021 RMK AO2 SLPNO PWINO FZRANO TSNO CHINO R01 $EQDR01      7SKY009R02      7GAS009
0182743920146112010020217566+43900-069933FM-15+0023KNHZ V02099999999999999999N9999999N5+99999+99999999999ADDMA1102205101925MD1840244+9999REMMET10602/02/10 12:56:02 METAR KNHZ 021756Z      KT A3018 RMK AO2 SLPNO 6//// 58024 PWINO FZRANO TSNO CHINO R01 $EQDR01      7SKY009R02      7GAS009
0156743920146112010020218566+43900-069933FM-15+0023KNHZ V02099999999999999999N9999999N5+99999+99999999999ADDMA1102175101895REMMET09402/02/10 13:56:02 METAR KNHZ 021856Z      KT A3017 RMK AO2 SLPNO PWINO FZRANO TSNO CHINO R01 $EQDR01      7SKY009R02      7GAS009
0156743920146112010020219566+43900-069933FM-15+0023KNHZ V02099999999999999999N9999999N5+99999+99999999999ADDMA1102175101895REMMET09402/02/10 14:56:02 METAR KNHZ 021956Z      KT A3017 RMK AO2 SLPNO PWINO FZRANO TSNO CHINO R01 $EQDR01      7SKY009R02      7GAS009
0182743920146112010020220566+43900-069933FM-15+0023KNHZ V02099999999999999999N9999999N5+99999+99999999999ADDMA1102205101925MD1540004+9999REMMET10602/02/10 15:56:02 METAR KNHZ 022056Z      KT A3018 RMK AO2 SLPNO 6//// 55000 PWINO FZRANO TSNO CHINO R01 $EQDR01      7SKY009R02      7GAS009
0156743920146112010020221566+43900-069933FM-15+0023KNHZ V02099999999999999999N9999999N5+99999+99999999999ADDMA1102245101965REMMET09402/02/10 16:56:02 METAR KNHZ 022156Z      KT A3019 RMK AO2 SLPNO PWINO FZRANO TSNO CHINO R01 $EQDR01      7SKY009R02      7GAS009
0156743920146112010020222566+43900-069933FM-15+0023KNHZ V02099999999999999999N9999999N5+99999+99999999999ADDMA1102245101965REMMET09402/02/10 17:56:02 METAR KNHZ 022256Z      KT A3019 RMK AO2 SLPNO PWINO FZRANO TSNO CHINO R01 $EQDR01      7SKY009R02      7GAS009
0182743920146112010020223566+43900-069933FM-15+0023KNHZ V02099999999999999999N9999999N5+99999+99999999999ADDMA1102175101895MD1840034+9999REMMET10602/02/10 18:56:02 METAR KNHZ 022356Z      KT A3017 RMK AO2 SLPNO 6//// 58003 PWINO FZRANO TSNO CHINO R01 $EQDR01      7SKY009R02      7GAS009
0156743920146112010020300566+43900-069933FM-15+0023KNHZ V02099999999999999999N9999999N5+99999+99999999999ADDMA1102175101895REMMET09402/02/10 19:56:01 METAR KNHZ 030056Z      KT A3017 RMK AO2 SLPNO PWINO FZRANO TSNO CHINO R01 $EQDR01      7SKY009R02      7GAS009
0156743920146112010020301566+43900-069933FM-15+0023KNHZ V02099999999999999999N9999999N5+99999+99999999999ADDMA1102135101865REMMET09402/02/10 20:56:01 METAR KNHZ 030156Z      KT A3016 RMK AO2 SLPNO PWINO FZRANO TSNO CHINO R01 $EQDR01      7SKY009R02      7GAS009
0182743920146112010020302566+43900-069933FM-15+0023KNHZ V02099999999999999999N9999999N5+99999+99999999999ADDMA1102105101825MD1840074+9999REMMET10602/02/10 21:56:01 METAR KNHZ 030256Z      KT A3015 RMK AO2 SLPNO 6//// 58007 PWINO FZRANO TSNO CHINO R01 $EQDR01      7SKY009R02      7GAS009
0156743920146112010020303566+43900-069933FM-15+0023KNHZ V02099999999999999999N9999999N5+99999+99999999999ADDMA1102075101795REMMET09402/02/10 22:56:01 METAR KNHZ 030356Z      KT A3014 RMK AO2 SLPNO PWINO FZRANO TSNO CHINO R01 $EQDR01      7SKY009R02      7GAS009
0156743920146112010020304566+43900-069933FM-15+0023KNHZ V02099999999999999999N9999999N5+99999+99999999999ADDMA1102035101755REMMET09402/02/10 23:56:01 METAR KNHZ 030456Z      KT A3013 RMK AO2 SLPNO PWINO FZRANO TSNO CHINO R01 $EQDR01      7SKY009R02      7GAS009
0527743920146112010020304596+43900-069933SOD  +0023KNHZ V020999999999999999999999999999+99999+99999999999ADDAA124000095MG1101884999999OE11249999999999997OE22249999999999997REMSOD38424 HR PRECIPITATION (IN):0.00  AVERAGE STATION PRESSURE:30.085 PEAK WIND SPEED (MPH):M   PEAK WIND DIR (DEG):M   PEAK WIND TIME (LST):M     FASTEST 2MIN SPEED (MPH):M  FASTEST 2MIN DIR (DEG):M   FASTEST 2MIN TIME (LST):M    HOURLY INCREMENTAL PRECIPITATION VALUES (IN):    M    M    M    M    M    M    M    M    M    M    M    M    M    M    M    M    M    M    M    M    M    M    MEQDR01      7SKY009R02      7GAS009R03     N7GJS072R04     N7GKS075
0182743920146112010020305566+43900-069933FM-15+0023KNHZ V02099999999999999999N9999999N5+99999+99999999999ADDMA1102005101725MD1740104+9999REMMET10602/03/10 00:56:02 METAR KNHZ 030556Z      KT A3012 RMK AO2 SLPNO 6//// 57010 PWINO FZRANO TSNO CHINO R01 $EQDR01      7SKY009R02      7GAS009
0156743920146112010020306566+43900-069933FM-15+0023KNHZ V02099999999999999999N9999999N5+99999+99999999999ADDMA1101965101695REMMET09402/03/10 01:56:02 METAR KNHZ 030656Z      KT A3011 RMK AO2 SLPNO PWINO FZRANO TSNO CHINO R01 $EQDR01      7SKY009R02      7GAS009
0156743920146112010020307566+43900-069933FM-15+0023KNHZ V02099999999999999999N9999999N5+99999+99999999999ADDMA1101935101655REMMET09402/03/10 02:56:02 METAR KNHZ 030756Z      KT A3010 RMK AO2 SLPNO PWINO FZRANO TSNO CHINO R01 $EQDR01      7SKY009R02      7GAS009
0182743920146112010020308566+43900-069933FM-15+0023KNHZ V02099999999999999999N9999999N5+99999+99999999999ADDMA1101905101625MD1740104+9999REMMET10602/03/10 03:56:02 METAR KNHZ 030856Z      KT A3009 RMK AO2 SLPNO 6//// 57010 PWINO FZRANO TSNO CHINO R01 $EQDR01      7SKY009R02      7GAS009
0156743920146112010020309566+43900-069933FM-15+0023KNHZ V02099999999999999999N9999999N5+99999+99999999999ADDMA1101865101595REMMET09402/03/10 04:56:02 METAR KNHZ 030956Z      KT A3008 RMK AO2 SLPNO PWINO FZRANO TSNO CHINO R01 $EQDR01      7SKY009R02      7GAS009
0156743920146112010020310566+43900-069933FM-15+0023KNHZ V02099999999999999999N9999999N5+99999+99999999999ADDMA1101865101595REMMET09402/03/10 05:56:02 METAR KNHZ 031056Z      KT A3008 RMK AO2 SLPNO PWINO FZRANO TSNO CHINO R01 $EQDR01      7SKY009R02      7GAS009
0188743920146112010020311566+43900-069933FM-15+0023KNHZ V02099999999999999999N9999999N5+99999+99999999999ADDMA1101835101555MD1740074+9999REMMET11202/03/10 06:56:02 METAR KNHZ 031156Z      KT A3007 RMK AO2 SLPNO 6//// 7//// 57007 PWINO FZRANO TSNO CHINO R01 $EQDR01      7SKY009R02      7GAS009
0156743920146112010020312566+43900-069933FM-15+0023KNHZ V02099999999999999999N9999999N5+99999+99999999999ADDMA1101835101555REMMET09402/03/10 07:56:02 METAR KNHZ 031256Z      KT A3007 RMK AO2 SLPNO PWINO FZRANO TSNO CHINO R01 $EQDR01      7SKY009R02      7GAS009
0156743920146112010020313566+43900-069933FM-15+0023KNHZ V02099999999999999999N9999999N5+99999+99999999999ADDMA1101835101555REMMET09402/03/10 08:56:02 METAR KNHZ 031356Z      KT A3007 RMK AO2 SLPNO PWINO FZRANO TSNO CHINO R01 $EQDR01      7SKY009R02      7GAS009
0182743920146112010020314566+43900-069933FM-15+0023KNHZ V02099999999999999999N9999999N5+99999+99999999999ADDMA1101795101525MD1840034+9999REMMET10602/03/10 09:56:02 METAR KNHZ 031456Z      KT A3006 RMK AO2 SLPNO 6//// 58003 PWINO FZRANO TSNO CHINO R01 $EQDR01      7SKY009R02      7GAS009
0156743920146112010020315566+43900-069933FM-15+0023KNHZ V02099999999999999999N9999999N5+99999+99999999999ADDMA1101765101485REMMET09402/03/10 10:56:02 METAR KNHZ 031556Z      KT A3005 RMK AO2 SLPNO PWINO FZRANO TSNO CHINO R01 $EQDR01      7SKY009R02      7GAS009
0156743920146112010020316566+43900-069933FM-15+0023KNHZ V02099999999999999999N9999999N5+99999+99999999999ADDMA1101665101385REMMET09402/03/10 11:56:02 METAR KNHZ 031656Z      KT A3002 RMK AO2 SLPNO PWINO FZRANO TSNO CHINO R01 $EQDR01      7SKY009R02      7GAS009
0182743920146112010020317566+43900-069933FM-15+0023KNHZ V02099999999999999999N9999999N5+99999+99999999999ADDMA1101525101255MD1840274+9999REMMET10602/03/10 12:56:02 METAR KNHZ 031756Z      KT A2998 RMK AO2 SLPNO 6//// 58027 PWINO FZRANO TSNO CHINO R01 $EQDR01      7SKY009R02      7GAS009
0156743920146112010020318566+43900-069933FM-15+0023KNHZ V02099999999999999999N9999999N5+99999+99999999999ADDMA1101465101185REMMET09402/03/10 13:56:02 METAR KNHZ 031856Z      KT A2996 RMK AO2 SLPNO PWINO FZRANO TSNO CHINO R01 $EQDR01      7SKY009R02      7GAS009
0156743920146112010020319566+43900-069933FM-15+0023KNHZ V02099999999999999999N9999999N5+99999+99999999999ADDMA1101425101155REMMET09402/03/10 14:56:02 METAR KNHZ 031956Z      KT A2995 RMK AO2 SLPNO PWINO FZRANO TSNO CHINO R01 $EQDR01      7SKY009R02      7GAS009
0182743920146112010020320566+43900-069933FM-15+0023KNHZ V02099999999999999999N9999999N5+99999+99999999999ADDMA1101425101155MD1640104+9999REMMET10602/03/10 15:56:02 METAR KNHZ 032056Z      KT A2995 RMK AO2 SLPNO 6//// 56010 PWINO FZRANO TSNO CHINO R01 $EQDR01      7SKY009R02      7GAS009
0156743920146112010020321566+43900-069933FM-15+0023KNHZ V02099999999999999999N9999999N5+99999+99999999999ADDMA1101465101185REMMET09402/03/10 16:56:02 METAR KNHZ 032156Z      KT A2996 RMK AO2 SLPNO PWINO FZRANO TSNO CHINO R01 $EQDR01      7SKY009R02      7GAS009
0156743920146112010020322566+43900-069933FM-15+0023KNHZ V02099999999999999999N9999999N5+99999+99999999999ADDMA1101465101185REMMET09402/03/10 17:56:02 METAR KNHZ 032256Z      KT A2996 RMK AO2 SLPNO PWINO FZRANO TSNO CHINO R01 $EQDR01      7SKY009R02      7GAS009
0182743920146112010020323566+43900-069933FM-15+0023KNHZ V02099999999999999999N9999999N5+99999+99999999999ADDMA1101495101215MD1240074+9999REMMET10602/03/10 18:56:02 METAR KNHZ 032356Z      KT A2997 RMK AO2 SLPNO 6//// 52007 PWINO FZRANO TSNO CHINO R01 $EQDR01      7SKY009R02      7GAS009
0156743920146112010020400566+43900-069933FM-15+0023KNHZ V02099999999999999999N9999999N5+99999+99999999999ADDMA1101495101215REMMET09402/03/10 19:56:01 METAR KNHZ 040056Z      KT A2997 RMK AO2 SLPNO PWINO FZRANO TSNO CHINO R01 $EQDR01      7SKY009R02      7GAS009
0156743920146112010020401566+43900-069933FM-15+0023KNHZ V02099999999999999999N9999999N5+99999+99999999999ADDMA1101525101255REMMET09402/03/10 20:56:01 METAR KNHZ 040156Z      KT A2998 RMK AO2 SLPNO PWINO FZRANO TSNO CHINO R01 $EQDR01      7SKY009R02      7GAS009
0182743920146112010020402566+43900-069933FM-15+0023KNHZ V02099999999999999999N9999999N5+99999+99999999999ADDMA1101495101215MD1040004+9999REMMET10602/03/10 21:56:01 METAR KNHZ 040256Z      KT A2997 RMK AO2 SLPNO 6//// 50000 PWINO FZRANO TSNO CHINO R01 $EQDR01      7SKY009R02      7GAS009
0156743920146112010020403566+43900-069933FM-15+0023KNHZ V02099999999999999999N9999999N5+99999+99999999999ADDMA1101495101215REMMET09402/03/10 22:56:01 METAR KNHZ 040356Z      KT A2997 RMK AO2 SLPNO PWINO FZRANO TSNO CHINO R01 $EQDR01      7SKY009R02      7GAS009
0156743920146112010020404566+43900-069933FM-15+0023KNHZ V02099999999999999999N9999999N5+99999+99999999999ADDMA1101525101255REMMET09402/03/10 23:56:01 METAR KNHZ 040456Z      KT A2998 RMK AO2 SLPNO PWINO FZRANO TSNO CHINO R01 $EQDR01      7SKY009R02      7GAS009
0527743920146112010020404596+43900-069933SOD  +0023KNHZ V020999999999999999999999999999+99999+99999999999ADDAA124000095MG1101464999999OE11249999999999997OE22249999999999997REMSOD38424 HR PRECIPITATION (IN):0.00  AVERAGE STATION PRESSURE:29.960 PEAK WIND SPEED (MPH):M   PEAK WIND DIR (DEG):M   PEAK WIND TIME (LST):M     FASTEST 2MIN SPEED (MPH):M  FASTEST 2MIN DIR (DEG):M   FASTEST 2MIN TIME (LST):M    HOURLY INCREMENTAL PRECIPITATION VALUES (IN):    M    M    M    M    M    M    M    M    M    M    M    M    M    M    M    M    M    M    M    M    M    M    MEQDR01      7SKY009R02      7GAS009R03     N7GJS072R04     N7GKS075
0182743920146112010020405566+43900-069933FM-15+0023KNHZ V02099999999999999999N9999999N5+99999+99999999999ADDMA1101525101255MD1240034+9999REMMET10602/04/10 00:56:02 METAR KNHZ 040556Z      KT A2998 RMK AO2 SLPNO 6//// 52003 PWINO FZRANO TSNO CHINO R01 $EQDR01      7SKY009R02      7GAS009
0156743920146112010020406566+43900-069933FM-15+0023KNHZ V02099999999999999999N9999999N5+99999+99999999999ADDMA1101565101285REMMET09402/04/10 01:56:02 METAR KNHZ 040656Z      KT A2999 RMK AO2 SLPNO PWINO FZRANO TSNO CHINO R01 $EQDR01      7SKY009R02      7GAS009
0156743920146112010020407566+43900-069933FM-15+0023KNHZ V02099999999999999999N9999999N5+99999+99999999999ADDMA1101595101315REMMET09402/04/10 02:56:02 METAR KNHZ 040756Z      KT A3000 RMK AO2 SLPNO PWINO FZRANO TSNO CHINO R01 $EQDR01      7SKY009R02      7GAS009
0182743920146112010020408566+43900-069933FM-15+0023KNHZ V02099999999999999999N9999999N5+99999+99999999999ADDMA1101635101355MD1240104+9999REMMET10602/04/10 03:56:02 METAR KNHZ 040856Z      KT A3001 RMK AO2 SLPNO 6//// 52010 PWINO FZRANO TSNO CHINO R01 $EQDR01      7SKY009R02      7GAS009
0156743920146112010020409566+43900-069933FM-15+0023KNHZ V02099999999999999999N9999999N5+99999+99999999999ADDMA1101695101425REMMET09402/04/10 04:56:02 METAR KNHZ 040956Z      KT A3003 RMK AO2 SLPNO PWINO FZRANO TSNO CHINO R01 $EQDR01      7SKY009R02      7GAS009
0156743920146112010020410566+43900-069933FM-15+0023KNHZ V02099999999999999999N9999999N5+99999+99999999999ADDMA1101765101485REMMET09402/04/10 05:56:02 METAR KNHZ 041056Z      KT A3005 RMK AO2 SLPNO PWINO FZRANO TSNO CHINO R01 $EQDR01      7SKY009R02      7GAS009
0188743920146112010020411566+43900-069933FM-15+0023KNHZ V02099999999999999999N9999999N5+99999+99999999999ADDMA1101905101625MD1340274+9999REMMET11202/04/10 06:56:02 METAR KNHZ 041156Z      KT A3009 RMK AO2 SLPNO 6//// 7//// 53027 PWINO FZRANO TSNO CHINO R01 $EQDR01      7SKY009R02      7GAS009
0156743920146112010020412566+43900-069933FM-15+0023KNHZ V02099999999999999999N9999999N5+99999+99999999999ADDMA1102035101755REMMET09402/04/10 07:56:02 METAR KNHZ 041256Z      KT A3013 RMK AO2 SLPNO PWINO FZRANO TSNO CHINO R01 $EQDR01      7SKY009R02      7GAS009
0156743920146112010020413566+43900-069933FM-15+0023KNHZ V02099999999999999999N9999999N5+99999+99999999999ADDMA1102035101755REMMET09402/04/10 08:56:02 METAR KNHZ 041356Z      KT A3013 RMK AO2 SLPNO PWINO FZRANO TSNO CHINO R01 $EQDR01      7SKY009R02      7GAS009
0182743920146112010020414566+43900-069933FM-15+0023KNHZ V02099999999999999999N9999999N5+99999+99999999999ADDMA1102105101825MD1140204+9999REMMET10602/04/10 09:56:02 METAR KNHZ 041456Z      KT A3015 RMK AO2 SLPNO 6//// 51020 PWINO FZRANO TSNO CHINO R01 $EQDR01      7SKY009R02      7GAS009
0156743920146112010020415566+43900-069933FM-15+0023KNHZ V02099999999999999999N9999999N5+99999+99999999999ADDMA1102135101865REMMET09402/04/10 10:56:02 METAR KNHZ 041556Z      KT A3016 RMK AO2 SLPNO PWINO FZRANO TSNO CHINO R01 $EQDR01      7SKY009R02      7GAS009
0156743920146112010020416566+43900-069933FM-15+0023KNHZ V02099999999999999999N9999999N5+99999+99999999999ADDMA1102105101825REMMET09402/04/10 11:56:02 METAR KNHZ 041656Z      KT A3015 RMK AO2 SLPNO PWINO FZRANO TSNO CHINO R01 $EQDR01      7SKY009R02      7GAS009
0182743920146112010020417566+43900-069933FM-15+0023KNHZ V02099999999999999999N9999999N5+99999+99999999999ADDMA1102075101795MD1840034+9999REMMET10602/04/10 12:56:02 METAR KNHZ 041756Z      KT A3014 RMK AO2 SLPNO 6//// 58003 PWINO FZRANO TSNO CHINO R01 $EQDR01      7SKY009R02      7GAS009
0156743920146112010020418566+43900-069933FM-15+0023KNHZ V02099999999999999999N9999999N5+99999+99999999999ADDMA1101965101695REMMET09402/04/10 13:56:02 METAR KNHZ 041856Z      KT A3011 RMK AO2 SLPNO PWINO FZRANO TSNO CHINO R01 $EQDR01      7SKY009R02      7GAS009
0156743920146112010020419566+43900-069933FM-15+0023KNHZ V02099999999999999999N9999999N5+99999+99999999999ADDMA1101935101655REMMET09402/04/10 14:56:02 METAR KNHZ 041956Z      KT A3010 RMK AO2 SLPNO PWINO FZRANO TSNO CHINO R01 $EQDR01      7SKY009R02      7GAS009
0182743920146112010020420566+43900-069933FM-15+0023KNHZ V02099999999999999999N9999999N5+99999+99999999999ADDMA1101905101625MD1640174+9999REMMET10602/04/10 15:56:02 METAR KNHZ 042056Z      KT A3009 RMK AO2 SLPNO 6//// 56017 PWINO FZRANO TSNO CHINO R01 $EQDR01      7SKY009R02      7GAS009
0156743920146112010020421566+43900-069933FM-15+0023KNHZ V02099999999999999999N9999999N5+99999+99999999999ADDMA1101935101655REMMET09402/04/10 16:56:02 METAR KNHZ 042156Z      KT A3010 RMK AO2 SLPNO PWINO FZRANO TSNO CHINO R01 $EQDR01      7SKY009R02      7GAS009
0156743920146112010020422566+43900-069933FM-15+0023KNHZ V02099999999999999999N9999999N5+99999+99999999999ADDMA1102035101755REMMET09402/04/10 17:56:02 METAR KNHZ 042256Z      KT A3013 RMK AO2 SLPNO PWINO FZRANO TSNO CHINO R01 $EQDR01      7SKY009R02      7GAS009
0182743920146112010020423566+43900-069933FM-15+0023KNHZ V02099999999999999999N9999999N5+99999+99999999999ADDMA1102105101825MD1340204+9999REMMET10602/04/10 18:56:02 METAR KNHZ 042356Z      KT A3015 RMK AO2 SLPNO 6//// 53020 PWINO FZRANO TSNO CHINO R01 $EQDR01      7SKY009R02      7GAS009
0156743920146112010020500566+43900-069933FM-15+0023KNHZ V02099999999999999999N9999999N5+99999+99999999999ADDMA1102135101865REMMET09402/04/10 19:56:01 METAR KNHZ 050056Z      KT A3016 RMK AO2 SLPNO PWINO FZRANO TSNO CHINO R01 $EQDR01      7SKY009R02      7GAS009
0156743920146112010020501566+43900-069933FM-15+0023KNHZ V02099999999999999999N9999999N5+99999+99999999999ADDMA1102175101895REMMET09402/04/10 20:56:01 METAR KNHZ 050156Z      KT A3017 RMK AO2 SLPNO PWINO FZRANO TSNO CHINO R01 $EQDR01      7SKY009R02      7GAS009
0182743920146112010020502566+43900-069933FM-15+0023KNHZ V02099999999999999999N9999999N5+99999+99999999999ADDMA1102205101925MD1240104+9999REMMET10602/04/10 21:56:01 METAR KNHZ 050256Z      KT A3018 RMK AO2 SLPNO 6//// 52010 PWINO FZRANO TSNO CHINO R01 $EQDR01      7SKY009R02      7GAS009
0156743920146112010020503566+43900-069933FM-15+0023KNHZ V02099999999999999999N9999999N5+99999+99999999999ADDMA1102175101895REMMET09402/04/10 22:56:01 METAR KNHZ 050356Z      KT A3017 RMK AO2 SLPNO PWINO FZRANO TSNO CHINO R01 $EQDR01      7SKY009R02      7GAS009
0156743920146112010020504566+43900-069933FM-15+0023KNHZ V02099999999999999999N9999999N5+99999+99999999999ADDMA1102175101895REMMET09402/04/10 23:56:01 METAR KNHZ 050456Z      KT A3017 RMK AO2 SLPNO PWINO FZRANO TSNO CHINO R01 $EQDR01      7SKY009R02      7GAS009
0527743920146112010020504596+43900-069933SOD  +0023KNHZ V020999999999999999999999999999+99999+99999999999ADDAA124000095MG1101644999999OE11249999999999997OE22249999999999997REMSOD38424 HR PRECIPITATION (IN):0.00  AVERAGE STATION PRESSURE:30.015 PEAK WIND SPEED (MPH):M   PEAK WIND DIR (DEG):M   PEAK WIND TIME (LST):M     FASTEST 2MIN SPEED (MPH):M  FASTEST 2MIN DIR (DEG):M   FASTEST 2MIN TIME (LST):M    HOURLY INCREMENTAL PRECIPITATION VALUES (IN):    M    M    M    M    M    M    M    M    M    M    M    M    M    M    M    M    M    M    M    M    M    M    MEQDR01      7SKY009R02      7GAS009R03     N7GJS072R04     N7GKS075
0182743920146112010020505566+43900-069933FM-15+0023KNHZ V02099999999999999999N9999999N5+99999+99999999999ADDMA1102105101825MD1840104+9999REMMET10602/05/10 00:56:02 METAR KNHZ 050556Z      KT A3015 RMK AO2 SLPNO 6//// 58010 PWINO FZRANO TSNO CHINO R01 $EQDR01      7SKY009R02      7GAS009
0156743920146112010020506566+43900-069933FM-15+0023KNHZ V02099999999999999999N9999999N5+99999+99999999999ADDMA1102105101825REMMET09402/05/10 01:56:02 METAR KNHZ 050656Z      KT A3015 RMK AO2 SLPNO PWINO FZRANO TSNO CHINO R01 $EQDR01      7SKY009R02      7GAS009
0156743920146112010020507566+43900-069933FM-15+0023KNHZ V02099999999999999999N9999999N5+99999+99999999999ADDMA1102105101825REMMET09402/05/10 02:56:02 METAR KNHZ 050756Z      KT A3015 RMK AO2 SLPNO PWINO FZRANO TSNO CHINO R01 $EQDR01      7SKY009R02      7GAS009
0182743920146112010020508566+43900-069933FM-15+0023KNHZ V02099999999999999999N9999999N5+99999+99999999999ADDMA1102105101825MD1440004+9999REMMET10602/05/10 03:56:02 METAR KNHZ 050856Z      KT A3015 RMK AO2 SLPNO 6//// 54000 PWINO FZRANO TSNO CHINO R01 $EQDR01      7SKY009R02      7GAS009
0156743920146112010020509566+43900-069933FM-15+0023KNHZ V02099999999999999999N9999999N5+99999+99999999999ADDMA1102105101825REMMET09402/05/10 04:56:02 METAR KNHZ 050956Z      KT A3015 RMK AO2 SLPNO PWINO FZRANO TSNO CHINO R01 $EQDR01      7SKY009R02      7GAS009
0156743920146112010020510566+43900-069933FM-15+0023KNHZ V02099999999999999999N9999999N5+99999+99999999999ADDMA1102105101825REMMET09402/05/10 05:56:02 METAR KNHZ 051056Z      KT A3015 RMK AO2 SLPNO PWINO FZRANO TSNO CHINO R01 $EQDR01      7SKY009R02      7GAS009
0188743920146112010020511566+43900-069933FM-15+0023KNHZ V02099999999999999999N9999999N5+99999+99999999999ADDMA1102135101865MD1340034+9999REMMET11202/05/10 06:56:02 METAR KNHZ 051156Z      KT A3016 RMK AO2 SLPNO 6//// 7//// 53003 PWINO FZRANO TSNO CHINO R01 $EQDR01      7SKY009R02      7GAS009
0156743920146112010020512566+43900-069933FM-15+0023KNHZ V02099999999999999999N9999999N5+99999+99999999999ADDMA1102105101825REMMET09402/05/10 07:56:02 METAR KNHZ 051256Z      KT A3015 RMK AO2 SLPNO PWINO FZRANO TSNO CHINO R01 $EQDR01      7SKY009R02      7GAS009
0156743920146112010020513566+43900-069933FM-15+0023KNHZ V02099999999999999999N9999999N5+99999+99999999999ADDMA1102035101755REMMET09402/05/10 08:56:02 METAR KNHZ 051356Z      KT A3013 RMK AO2 SLPNO PWINO FZRANO TSNO CHINO R01 $EQDR01      7SKY009R02      7GAS009
0182743920146112010020514566+43900-069933FM-15+0023KNHZ V02099999999999999999N9999999N5+99999+99999999999ADDMA1102005101725MD1740144+9999REMMET10602/05/10 09:56:02 METAR KNHZ 051456Z      KT A3012 RMK AO2 SLPNO 6//// 57014 PWINO FZRANO TSNO CHINO R01 $EQDR01      7SKY009R02      7GAS009
0156743920146112010020515566+43900-069933FM-15+0023KNHZ V02099999999999999999N9999999N5+99999+99999999999ADDMA1102005101725REMMET09402/05/10 10:56:02 METAR KNHZ 051556Z      KT A3012 RMK AO2 SLPNO PWINO FZRANO TSNO CHINO R01 $EQDR01      7SKY009R02      7GAS009
0156743920146112010020516566+43900-069933FM-15+0023KNHZ V02099999999999999999N9999999N5+99999+99999999999ADDMA1101935101655REMMET09402/05/10 11:56:02 METAR KNHZ 051656Z      KT A3010 RMK AO2 SLPNO PWINO FZRANO TSNO CHINO R01 $EQDR01      7SKY009R02      7GAS009
0182743920146112010020517566+43900-069933FM-15+0023KNHZ V02099999999999999999N9999999N5+99999+99999999999ADDMA1101835101555MD1840174+9999REMMET10602/05/10 12:56:02 METAR KNHZ 051756Z      KT A3007 RMK AO2 SLPNO 6//// 58017 PWINO FZRANO TSNO CHINO R01 $EQDR01      7SKY009R02      7GAS009
0156743920146112010020518566+43900-069933FM-15+0023KNHZ V02099999999999999999N9999999N5+99999+99999999999ADDMA1101795101525REMMET09402/05/10 13:56:02 METAR KNHZ 051856Z      KT A3006 RMK AO2 SLPNO PWINO FZRANO TSNO CHINO R01 $EQDR01      7SKY009R02      7GAS009
0156743920146112010020519566+43900-069933FM-15+0023KNHZ V02099999999999999999N9999999N5+99999+99999999999ADDMA1101765101485REMMET09402/05/10 14:56:02 METAR KNHZ 051956Z      KT A3005 RMK AO2 SLPNO PWINO FZRANO TSNO CHINO R01 $EQDR01      7SKY009R02      7GAS009
0182743920146112010020520566+43900-069933FM-15+0023KNHZ V02099999999999999999N9999999N5+99999+99999999999ADDMA1101795101525MD1540034+9999REMMET10602/05/10 15:56:02 METAR KNHZ 052056Z      KT A3006 RMK AO2 SLPNO 6//// 55003 PWINO FZRANO TSNO CHINO R01 $EQDR01      7SKY009R02      7GAS009
0156743920146112010020521566+43900-069933FM-15+0023KNHZ V02099999999999999999N9999999N5+99999+99999999999ADDMA1101835101555REMMET09402/05/10 16:56:02 METAR KNHZ 052156Z      KT A3007 RMK AO2 SLPNO PWINO FZRANO TSNO CHINO R01 $EQDR01      7SKY009R02      7GAS009
0156743920146112010020522566+43900-069933FM-15+0023KNHZ V02099999999999999999N9999999N5+99999+99999999999ADDMA1101835101555REMMET09402/05/10 17:56:02 METAR KNHZ 052256Z      KT A3007 RMK AO2 SLPNO PWINO FZRANO TSNO CHINO R01 $EQDR01      7SKY009R02      7GAS009
0182743920146112010020523566+43900-069933FM-15+0023KNHZ V02099999999999999999N9999999N5+99999+99999999999ADDMA1101835101555MD1140034+9999REMMET10602/05/10 18:56:02 METAR KNHZ 052356Z      KT A3007 RMK AO2 SLPNO 6//// 51003 PWINO FZRANO TSNO CHINO R01 $EQDR01      7SKY009R02      7GAS009
0156743920146112010020600566+43900-069933FM-15+0023KNHZ V02099999999999999999N9999999N5+99999+99999999999ADDMA1101795101525REMMET09402/05/10 19:56:01 METAR KNHZ 060056Z      KT A3006 RMK AO2 SLPNO PWINO FZRANO TSNO CHINO R01 $EQDR01      7SKY009R02      7GAS009
0156743920146112010020601566+43900-069933FM-15+0023KNHZ V02099999999999999999N9999999N5+99999+99999999999ADDMA1101865101595REMMET09402/05/10 20:56:01 METAR KNHZ 060156Z      KT A3008 RMK AO2 SLPNO PWINO FZRANO TSNO CHINO R01 $EQDR01      7SKY009R02      7GAS009
0182743920146112010020602566+43900-069933FM-15+0023KNHZ V02099999999999999999N9999999N5+99999+99999999999ADDMA1101905101625MD1340074+9999REMMET10602/05/10 21:56:01 METAR KNHZ 060256Z      KT A3009 RMK AO2 SLPNO 6//// 53007 PWINO FZRANO TSNO CHINO R01 $EQDR01      7SKY009R02      7GAS009
0156743920146112010020603566+43900-069933FM-15+0023KNHZ V02099999999999999999N9999999N5+99999+99999999999ADDMA1101935101655REMMET09402/05/10 22:56:01 METAR KNHZ 060356Z      KT A3010 RMK AO2 SLPNO PWINO FZRANO TSNO CHINO R01 $EQDR01      7SKY009R02      7GAS009
0156743920146112010020604566+43900-069933FM-15+0023KNHZ V02099999999999999999N9999999N5+99999+99999999999ADDMA1101865101595REMMET09402/05/10 23:56:01 METAR KNHZ 060456Z      KT A3008 RMK AO2 SLPNO PWINO FZRANO TSNO CHINO R01 $EQDR01      7SKY009R02      7GAS009
0527743920146112010020604596+43900-069933SOD  +0023KNHZ V020999999999999999999999999999+99999+99999999999ADDAA124000095MG1101714999999OE11249999999999997OE22249999999999997REMSOD38424 HR PRECIPITATION (IN):0.00  AVERAGE STATION PRESSURE:30.035 PEAK WIND SPEED (MPH):M   PEAK WIND DIR (DEG):M   PEAK WIND TIME (LST):M     FASTEST 2MIN SPEED (MPH):M  FASTEST 2MIN DIR (DEG):M   FASTEST 2MIN TIME (LST):M    HOURLY INCREMENTAL PRECIPITATION VALUES (IN):    M    M    M    M    M    M    M    M    M    M    M    M    M    M    M    M    M    M    M    M    M    M    MEQDR01      7SKY009R02      7GAS009R03     N7GJS072R04     N7GKS075
0182743920146112010020605566+43900-069933FM-15+0023KNHZ V02099999999999999999N9999999N5+99999+99999999999ADDMA1101795101525MD1840104+9999REMMET10602/06/10 00:56:02 METAR KNHZ 060556Z      KT A3006 RMK AO2 SLPNO 6//// 58010 PWINO FZRANO TSNO CHINO R01 $EQDR01      7SKY009R02      7GAS009
0156743920146112010020606566+43900-069933FM-15+0023KNHZ V02099999999999999999N9999999N5+99999+99999999999ADDMA1101795101525REMMET09402/06/10 01:56:02 METAR KNHZ 060656Z      KT A3006 RMK AO2 SLPNO PWINO FZRANO TSNO CHINO R01 $EQDR01      7SKY009R02      7GAS009
0156743920146112010020607566+43900-069933FM-15+0023KNHZ V02099999999999999999N9999999N5+99999+99999999999ADDMA1101765101485REMMET09402/06/10 02:56:02 METAR KNHZ 060756Z      KT A3005 RMK AO2 SLPNO PWINO FZRANO TSNO CHINO R01 $EQDR01      7SKY009R02      7GAS009
0182743920146112010020608566+43900-069933FM-15+0023KNHZ V02099999999999999999N9999999N5+99999+99999999999ADDMA1101695101425MD1840104+9999REMMET10602/06/10 03:56:02 METAR KNHZ 060856Z      KT A3003 RMK AO2 SLPNO 6//// 58010 PWINO FZRANO TSNO CHINO R01 $EQDR01      7SKY009R02      7GAS009
0156743920146112010020609566+43900-069933FM-15+0023KNHZ V02099999999999999999N9999999N5+99999+99999999999ADDMA1101565101285REMMET09402/06/10 04:56:02 METAR KNHZ 060956Z      KT A2999 RMK AO2 SLPNO PWINO FZRANO TSNO CHINO R01 $EQDR01      7SKY009R02      7GAS009
0156743920146112010020610566+43900-069933FM-15+0023KNHZ V02099999999999999999N9999999N5+99999+99999999999ADDMA1101595101315REMMET09402/06/10 05:56:02 METAR KNHZ 061056Z      KT A3000 RMK AO2 SLPNO PWINO FZRANO TSNO CHINO R01 $EQDR01      7SKY009R02      7GAS009
0188743920146112010020611566+43900-069933FM-15+0023KNHZ V02099999999999999999N9999999N5+99999+99999999999ADDMA1101565101285MD1640144+9999REMMET11202/06/10 06:56:02 METAR KNHZ 061156Z      KT A2999 RMK AO2 SLPNO 6//// 7//// 56014 PWINO FZRANO TSNO CHINO R01 $EQDR01      7SKY009R02      7GAS009
0156743920146112010020612566+43900-069933FM-15+0023KNHZ V02099999999999999999N9999999N5+99999+99999999999ADDMA1101495101215REMMET09402/06/10 07:56:02 METAR KNHZ 061256Z      KT A2997 RMK AO2 SLPNO PWINO FZRANO TSNO CHINO R01 $EQDR01      7SKY009R02      7GAS009
0156743920146112010020613566+43900-069933FM-15+0023KNHZ V02099999999999999999N9999999N5+99999+99999999999ADDMA1101525101255REMMET09402/06/10 08:56:02 METAR KNHZ 061356Z      KT A2998 RMK AO2 SLPNO PWINO FZRANO TSNO CHINO R01 $EQDR01      7SKY009R02      7GAS009
0182743920146112010020614566+43900-069933FM-15+0023KNHZ V02099999999999999999N9999999N5+99999+99999999999ADDMA1101465101185MD1740104+9999REMMET10602/06/10 09:56:02 METAR KNHZ 061456Z      KT A2996 RMK AO2 SLPNO 6//// 57010 PWINO FZRANO TSNO CHINO R01 $EQDR01      7SKY009R02      7GAS009
0156743920146112010020615566+43900-069933FM-15+0023KNHZ V02099999999999999999N9999999N5+99999+99999999999ADDMA1101325101045REMMET09402/06/10 10:56:02 METAR KNHZ 061556Z      KT A2992 RMK AO2 SLPNO PWINO FZRANO TSNO CHINO R01 $EQDR01      7SKY009R02      7GAS009
0156743920146112010020616566+43900-069933FM-15+0023KNHZ V02099999999999999999N9999999N5+99999+99999999999ADDMA1101155100885REMMET09402/06/10 11:56:02 METAR KNHZ 061656Z      KT A2987 RMK AO2 SLPNO PWINO FZRANO TSNO CHINO R01 $EQDR01      7SKY009R02      7GAS009
0182743920146112010020617566+43900-069933FM-15+0023KNHZ V02099999999999999999N9999999N5+99999+99999999999ADDMA1101055100775MD1640414+9999REMMET10602/06/10 12:56:02 METAR KNHZ 061756Z      KT A2984 RMK AO2 SLPNO 6//// 56041 PWINO FZRANO TSNO CHINO R01 $EQDR01      7SKY009R02      7GAS009
0156743920146112010020618566+43900-069933FM-15+0023KNHZ V02099999999999999999N9999999N5+99999+99999999999ADDMA1100885100615REMMET09402/06/10 13:56:02 METAR KNHZ 061856Z      KT A2979 RMK AO2 SLPNO PWINO FZRANO TSNO CHINO R01 $EQDR01      7SKY009R02      7GAS009
0156743920146112010020619566+43900-069933FM-15+0023KNHZ V02099999999999999999N9999999N5+99999+99999999999ADDMA1100855100575REMMET09402/06/10 14:56:02 METAR KNHZ 061956Z      KT A2978 RMK AO2 SLPNO PWINO FZRANO TSNO CHINO R01 $EQDR01      7SKY009R02      7GAS009
0182743920146112010020620566+43900-069933FM-15+0023KNHZ V02099999999999999999N9999999N5+99999+99999999999ADDMA1100755100475MD1640304+9999REMMET10602/06/10 15:56:02 METAR KNHZ 062056Z      KT A2975 RMK AO2 SLPNO 6//// 56030 PWINO FZRANO TSNO CHINO R01 $EQDR01      7SKY009R02      7GAS009
0156743920146112010020621566+43900-069933FM-15+0023KNHZ V02099999999999999999N9999999N5+99999+99999999999ADDMA1100755100475REMMET09402/06/10 16:56:02 METAR KNHZ 062156Z      KT A2975 RMK AO2 SLPNO PWINO FZRANO TSNO CHINO R01 $EQDR01      7SKY009R02      7GAS009
0156743920146112010020622566+43900-069933FM-15+0023KNHZ V02099999999999999999N9999999N5+99999+99999999999ADDMA1100755100475REMMET09402/06/10 17:56:02 METAR KNHZ 062256Z      KT A2975 RMK AO2 SLPNO PWINO FZRANO TSNO CHINO R01 $EQDR01      7SKY009R02      7GAS009
0182743920146112010020623566+43900-069933FM-15+0023KNHZ V02099999999999999999N9999999N5+99999+99999999999ADDMA1100715100445MD1840034+9999REMMET10602/06/10 18:56:02 METAR KNHZ 062356Z      KT A2974 RMK AO2 SLPNO 6//// 58003 PWINO FZRANO TSNO CHINO R01 $EQDR01      7SKY009R02      7GAS009
0156743920146112010020700566+43900-069933FM-15+0023KNHZ V02099999999999999999N9999999N5+99999+99999999999ADDMA1100715100445REMMET09402/06/10 19:56:01 METAR KNHZ 070056Z      KT A2974 RMK AO2 SLPNO PWINO FZRANO TSNO CHINO R01 $EQDR01      7SKY009R02      7GAS009
0156743920146112010020701566+43900-069933FM-15+0023KNHZ V02099999999999999999N9999999N5+99999+99999999999ADDMA1100715100445REMMET09402/06/10 20:56:01 METAR KNHZ 070156Z      KT A2974 RMK AO2 SLPNO PWINO FZRANO TSNO CHINO R01 $EQDR01      7SKY009R02      7GAS009
0182743920146112010020702566+43900-069933FM-15+0023KNHZ V02099999999999999999N9999999N5+99999+99999999999ADDMA1100685100405MD1840034+9999REMMET10602/06/10 21:56:01 METAR KNHZ 070256Z      KT A2973 RMK AO2 SLPNO 6//// 58003 PWINO FZRANO TSNO CHINO R01 $EQDR01      7SKY009R02      7GAS009
0156743920146112010020703566+43900-069933FM-15+0023KNHZ V02099999999999999999N9999999N5+99999+99999999999ADDMA1100645100375REMMET09402/06/10 22:56:01 METAR KNHZ 070356Z      KT A2972 RMK AO2 SLPNO PWINO FZRANO TSNO CHINO R01 $EQDR01      7SKY009R02      7GAS009
0156743920146112010020704566+43900-069933FM-15+0023KNHZ V02099999999999999999N9999999N5+99999+99999999999ADDMA1100585100305REMMET09402/06/10 23:56:01 METAR KNHZ 070456Z      KT A2970 RMK AO2 SLPNO PWINO FZRANO TSNO CHINO R01 $EQDR01      7SKY009R02      7GAS009
0527743920146112010020704596+43900-069933SOD  +0023KNHZ V020999999999999999999999999999+99999+99999999999ADDAA124000095MG1101024999999OE11249999999999997OE22249999999999997REMSOD38424 HR PRECIPITATION (IN):0.00  AVERAGE STATION PRESSURE:29.830 PEAK WIND SPEED (MPH):M   PEAK WIND DIR (DEG):M   PEAK WIND TIME (LST):M     FASTEST 2MIN SPEED (MPH):M  FASTEST 2MIN DIR (DEG):M   FASTEST 2MIN TIME (LST):M    HOURLY INCREMENTAL PRECIPITATION VALUES (IN):    M    M    M    M    M    M    M    M    M    M    M    M    M    M    M    M    M    M    M    M    M    M    MEQDR01      7SKY009R02      7GAS009R03     N7GJS072R04     N7GKS075
0182743920146112010020705566+43900-069933FM-15+0023KNHZ V02099999999999999999N9999999N5+99999+99999999999ADDMA1100475100205MD1840204+9999REMMET10602/07/10 00:56:02 METAR KNHZ 070556Z      KT A2967 RMK AO2 SLPNO 6//// 58020 PWINO FZRANO TSNO CHINO R01 $EQDR01      7SKY009R02      7GAS009
0156743920146112010020706566+43900-069933FM-15+0023KNHZ V02099999999999999999N9999999N5+99999+99999999999ADDMA1100445100175REMMET09402/07/10 01:56:02 METAR KNHZ 070656Z      KT A2966 RMK AO2 SLPNO PWINO FZRANO TSNO CHINO R01 $EQDR01      7SKY009R02      7GAS009
0156743920146112010020707566+43900-069933FM-15+0023KNHZ V02099999999999999999N9999999N5+99999+99999999999ADDMA1100375100105REMMET09402/07/10 02:56:02 METAR KNHZ 070756Z      KT A2964 RMK AO2 SLPNO PWINO FZRANO TSNO CHINO R01 $EQDR01      7SKY009R02      7GAS009
0182743920146112010020708566+43900-069933FM-15+0023KNHZ V02099999999999999999N9999999N5+99999+99999999999ADDMA1100345100065MD1740144+9999REMMET10602/07/10 03:56:02 METAR KNHZ 070856Z      KT A2963 RMK AO2 SLPNO 6//// 57014 PWINO FZRANO TSNO CHINO R01 $EQDR01      7SKY009R02      7GAS009
0156743920146112010020709566+43900-069933FM-15+0023KNHZ V02099999999999999999N9999999N5+99999+99999999999ADDMA1100345100065REMMET09402/07/10 04:56:02 METAR KNHZ 070956Z      KT A2963 RMK AO2 SLPNO PWINO FZRANO TSNO CHINO R01 $EQDR01      7SKY009R02      7GAS009
0156743920146112010020710566+43900-069933FM-15+0023KNHZ V02099999999999999999N9999999N5+99999+99999999999ADDMA1100375100105REMMET09402/07/10 05:56:02 METAR KNHZ 071056Z      KT A2964 RMK AO2 SLPNO PWINO FZRANO TSNO CHINO R01 $EQDR01      7SKY009R02      7GAS009
0188743920146112010020711566+43900-069933FM-15+0023KNHZ V02099999999999999999N9999999N5+99999+99999999999ADDMA1100375100105MD1240034+9999REMMET11202/07/10 06:56:02 METAR KNHZ 071156Z      KT A2964 RMK AO2 SLPNO 6//// 7//// 52003 PWINO FZRANO TSNO CHINO R01 $EQDR01      7SKY009R02      7GAS009
0156743920146112010020712566+43900-069933FM-15+0023KNHZ V02099999999999999999N9999999N5+99999+99999999999ADDMA1100375100105REMMET09402/07/10 07:56:02 METAR KNHZ 071256Z      KT A2964 RMK AO2 SLPNO PWINO FZRANO TSNO CHINO R01 $EQDR01      7SKY009R02      7GAS009
0156743920146112010020713566+43900-069933FM-15+0023KNHZ V02099999999999999999N9999999N5+99999+99999999999ADDMA1100375100105REMMET09402/07/10 08:56:02 METAR KNHZ 071356Z      KT A2964 RMK AO2 SLPNO PWINO FZRANO TSNO CHINO R01 $EQDR01      7SKY009R02      7GAS009
0182743920146112010020714566+43900-069933FM-15+0023KNHZ V02099999999999999999N9999999N5+99999+99999999999ADDMA1100375100105MD1440004+9999REMMET10602/07/10 09:56:02 METAR KNHZ 071456Z      KT A2964 RMK AO2 SLPNO 6//// 54000 PWINO FZRANO TSNO CHINO R01 $EQDR01      7SKY009R02      7GAS009
0156743920146112010020715566+43900-069933FM-15+0023KNHZ V02099999999999999999N9999999N5+99999+99999999999ADDMA1100305100035REMMET09402/07/10 10:56:02 METAR KNHZ 071556Z      KT A2962 RMK AO2 SLPNO PWINO FZRANO TSNO CHINO R01 $EQDR01      7SKY009R02      7GAS009
0156743920146112010020716566+43900-069933FM-15+0023KNHZ V02099999999999999999N9999999N5+99999+99999999999ADDMA1100245099965REMMET09402/07/10 11:56:02 METAR KNHZ 071656Z      KT A2960 RMK AO2 SLPNO PWINO FZRANO TSNO CHINO R01 $EQDR01      7SKY009R02      7GAS009
0182743920146112010020717566+43900-069933FM-15+0023KNHZ V02099999999999999999N9999999N5+99999+99999999999ADDMA1100145099865MD1840244+9999REMMET10602/07/10 12:56:02 METAR KNHZ 071756Z      KT A2957 RMK AO2 SLPNO 6//// 58024 PWINO FZRANO TSNO CHINO R01 $EQDR01      7SKY009R02      7GAS009
0156743920146112010020718566+43900-069933FM-15+0023KNHZ V02099999999999999999N9999999N5+99999+99999999999ADDMA1100105099835REMMET09402/07/10 13:56:02 METAR KNHZ 071856Z      KT A2956 RMK AO2 SLPNO PWINO FZRANO TSNO CHINO R01 $EQDR01      7SKY009R02      7GAS009
0156743920146112010020719566+43900-069933FM-15+0023KNHZ V02099999999999999999N9999999N5+99999+99999999999ADDMA1100175099905REMMET09402/07/10 14:56:02 METAR KNHZ 071956Z      KT A2958 RMK AO2 SLPNO PWINO FZRANO TSNO CHINO R01 $EQDR01      7SKY009R02      7GAS009
0182743920146112010020720566+43900-069933FM-15+0023KNHZ V02099999999999999999N9999999N5+99999+99999999999ADDMA1100205099935MD1340074+9999REMMET10602/07/10 15:56:02 METAR KNHZ 072056Z      KT A2959 RMK AO2 SLPNO 6//// 53007 PWINO FZRANO TSNO CHINO R01 $EQDR01      7SKY009R02      7GAS009
0156743920146112010020721566+43900-069933FM-15+0023KNHZ V02099999999999999999N9999999N5+99999+99999999999ADDMA1100345100065REMMET09402/07/10 16:56:02 METAR KNHZ 072156Z      KT A2963 RMK AO2 SLPNO PWINO FZRANO TSNO CHINO R01 $EQDR01      7SKY009R02      7GAS009
0156743920146112010020722566+43900-069933FM-15+0023KNHZ V02099999999999999999N9999999N5+99999+99999999999ADDMA1100415100135REMMET09402/07/10 17:56:02 METAR KNHZ 072256Z      KT A2965 RMK AO2 SLPNO PWINO FZRANO TSNO CHINO R01 $EQDR01      7SKY009R02      7GAS009
0182743920146112010020723566+43900-069933FM-15+0023KNHZ V02099999999999999999N9999999N5+99999+99999999999ADDMA1100445100175MD1140244+9999REMMET10602/07/10 18:56:02 METAR KNHZ 072356Z      KT A2966 RMK AO2 SLPNO 6//// 51024 PWINO FZRANO TSNO CHINO R01 $EQDR01      7SKY009R02      7GAS009
0156743920146112010020800566+43900-069933FM-15+0023KNHZ V02099999999999999999N9999999N5+99999+99999999999ADDMA1100445100175REMMET09402/07/10 19:56:01 METAR KNHZ 080056Z      KT A2966 RMK AO2 SLPNO PWINO FZRANO TSNO CHINO R01 $EQDR01      7SKY009R02      7GAS009
0156743920146112010020801566+43900-069933FM-15+0023KNHZ V02099999999999999999N9999999N5+99999+99999999999ADDMA1100415100135REMMET09402/07/10 20:56:01 METAR KNHZ 080156Z      KT A2965 RMK AO2 SLPNO PWINO FZRANO TSNO CHINO R01 $EQDR01      7SKY009R02      7GAS009
0182743920146112010020802566+43900-069933FM-15+0023KNHZ V02099999999999999999N9999999N5+99999+99999999999ADDMA1100375100105MD1840074+9999REMMET10602/07/10 21:56:01 METAR KNHZ 080256Z      KT A2964 RMK AO2 SLPNO 6//// 58007 PWINO FZRANO TSNO CHINO R01 $EQDR01      7SKY009R02      7GAS009
0156743920146112010020803566+43900-069933FM-15+0023KNHZ V02099999999999999999N9999999N5+99999+99999999999ADDMA1100345100065REMMET09402/07/10 22:56:01 METAR KNHZ 080356Z      KT A2963 RMK AO2 SLPNO PWINO FZRANO TSNO CHINO R01 $EQDR01      7SKY009R02      7GAS009
0156743920146112010020804566+43900-069933FM-15+0023KNHZ V02099999999999999999N9999999N5+99999+99999999999ADDMA1100345100065REMMET09402/07/10 23:56:01 METAR KNHZ 080456Z      KT A2963 RMK AO2 SLPNO PWINO FZRANO TSNO CHINO R01 $EQDR01      7SKY009R02      7GAS009
0527743920146112010020804596+43900-069933SOD  +0023KNHZ V020999999999999999999999999999+99999+99999999999ADDAA124000095MG1100104999999OE11249999999999997OE22249999999999997REMSOD38424 HR PRECIPITATION (IN):0.00  AVERAGE STATION PRESSURE:29.560 PEAK WIND SPEED (MPH):M   PEAK WIND DIR (DEG):M   PEAK WIND TIME (LST):M     FASTEST 2MIN SPEED (MPH):M  FASTEST 2MIN DIR (DEG):M   FASTEST 2MIN TIME (LST):M    HOURLY INCREMENTAL PRECIPITATION VALUES (IN):    M    M    M    M    M    M    M    M    M    M    M    M    M    M    M    M    M    M    M    M    M    M    MEQDR01      7SKY009R02      7GAS009R03     N7GJS072R04     N7GKS075
0182743920146112010020805566+43900-069933FM-15+0023KNHZ V02099999999999999999N9999999N5+99999+99999999999ADDMA1100305100035MD1740074+9999REMMET10602/08/10 00:56:01 METAR KNHZ 080556Z      KT A2962 RMK AO2 SLPNO 6//// 57007 PWINO FZRANO TSNO CHINO R01 $EQDR01      7SKY009R02      7GAS009
0156743920146112010020806566+43900-069933FM-15+0023KNHZ V02099999999999999999N9999999N5+99999+99999999999ADDMA1100305100035REMMET09402/08/10 01:56:01 METAR KNHZ 080656Z      KT A2962 RMK AO2 SLPNO PWINO FZRANO TSNO CHINO R01 $EQDR01      7SKY009R02      7GAS009
0156743920146112010020807566+43900-069933FM-15+0023KNHZ V02099999999999999999N9999999N5+99999+99999999999ADDMA1100305100035REMMET09402/08/10 02:56:01 METAR KNHZ 080756Z      KT A2962 RMK AO2 SLPNO PWINO FZRANO TSNO CHINO R01 $EQDR01      7SKY009R02      7GAS009
0182743920146112010020808566+43900-069933FM-15+0023KNHZ V02099999999999999999N9999999N5+99999+99999999999ADDMA1100305100035MD1440004+9999REMMET10602/08/10 03:56:01 METAR KNHZ 080856Z      KT A2962 RMK AO2 SLPNO 6//// 54000 PWINO FZRANO TSNO CHINO R01 $EQDR01      7SKY009R02      7GAS009
0156743920146112010020809566+43900-069933FM-15+0023KNHZ V02099999999999999999N9999999N5+99999+99999999999ADDMA1100345100065REMMET09402/08/10 04:56:01 METAR KNHZ 080956Z      KT A2963 RMK AO2 SLPNO PWINO FZRANO TSNO CHINO R01 $EQDR01      7SKY009R02      7GAS009
0156743920146112010020810566+43900-069933FM-15+0023KNHZ V02099999999999999999N9999999N5+99999+99999999999ADDMA1100375100105REMMET09402/08/10 05:56:01 METAR KNHZ 081056Z      KT A2964 RMK AO2 SLPNO PWINO FZRANO TSNO CHINO R01 $EQDR01      7SKY009R02      7GAS009
0188743920146112010020811566+43900-069933FM-15+0023KNHZ V02099999999999999999N9999999N5+99999+99999999999ADDMA1100415100135MD1240104+9999REMMET11202/08/10 06:56:01 METAR KNHZ 081156Z      KT A2965 RMK AO2 SLPNO 6//// 7//// 52010 PWINO FZRANO TSNO CHINO R01 $EQDR01      7SKY009R02      7GAS009
0156743920146112010020812566+43900-069933FM-15+0023KNHZ V02099999999999999999N9999999N5+99999+99999999999ADDMA1100415100135REMMET09402/08/10 07:56:01 METAR KNHZ 081256Z      KT A2965 RMK AO2 SLPNO PWINO FZRANO TSNO CHINO R01 $EQDR01      7SKY009R02      7GAS009
0156743920146112010020813566+43900-069933FM-15+0023KNHZ V02099999999999999999N9999999N5+99999+99999999999ADDMA1100415100135REMMET09402/08/10 08:56:01 METAR KNHZ 081356Z      KT A2965 RMK AO2 SLPNO PWINO FZRANO TSNO CHINO R01 $EQDR01      7SKY009R02      7GAS009
0182743920146112010020814566+43900-069933FM-15+0023KNHZ V02099999999999999999N9999999N5+99999+99999999999ADDMA1100415100135MD1440004+9999REMMET10602/08/10 09:56:01 METAR KNHZ 081456Z      KT A2965 RMK AO2 SLPNO 6//// 54000 PWINO FZRANO TSNO CHINO R01 $EQDR01      7SKY009R02      7GAS009
