0154068065999992010010407204+46967+008400FM-15+0450LSZC V0202301N001010075019N0040001N1-00401-00601999999ADDGA1021+003601999GA2081+007501999GF108991999999999999999999MA1101291999999MW1731REMMET063METAR LSZC 040720Z 23002KT 4000 SN FEW012 OVC025 M04/M06 Q1013;
0154068065999992010010407504+46967+008400FM-15+0450LSZC V0209999V000510105019N0050001N1-00401-00601999999ADDGA1041+004501999GA2081+010501999GF108991999999999999999999MA1101391999999MW1731REMMET063METAR LSZC 040750Z VRB01KT 5000 SN SCT015 OVC035 M04/M06 Q1014;
0154068065999992010010408504+46967+008400FM-15+0450LSZC V0202201N001510045019N0040001N1-00401-00601999999ADDGA1071+004501999GA2081+012001999GF108991999999999999999999MA1101391999999MW1731REMMET063METAR LSZC 040850Z 22003KT 4000 SN BKN015 OVC040 M04/M06 Q1014;
0155068065999992010010409204+46967+008400FM-15+0450LSZC V0202401N001510045019N0040001N1-00401-00601999999ADDGA1071+004501999GA2081+012001999GF108991999999999999999999MA1101391999999MW1711REMMET064METAR LSZC 040920Z 24003KT 4000 -SN BKN015 OVC040 M04/M06 Q1014;
0154068065999992010010409504+46967+008400FM-15+0450LSZC V0202501N001010045019N0035001N1-00401-00501999999ADDGA1071+004501999GA2081+012001999GF108991999999999999999999MA1101391999999MW1731REMMET063METAR LSZC 040950Z 25002KT 3500 SN BKN015 OVC040 M04/M05 Q1014;
0154068065999992010010410204+46967+008400FM-15+0450LSZC V0202401N001510045019N0035001N1-00401-00501999999ADDGA1071+004501999GA2081+012001999GF108991999999999999999999MA1101291999999MW1731REMMET063METAR LSZC 041020Z 24003KT 3500 SN BKN015 OVC040 M04/M05 Q1013;
0130068065999992010010410504+46967+008400FM-15+0450LSZC V0202401N002110024019N0015001N1-00401-00501999999ADDGA1091+002401999GF109991999999000251999999MA1101291999999MW1731REMMET055METAR LSZC 041050Z 24004KT 1500 SN VV008 M04/M05 Q1013;
0131068065999992010010412504+46967+008400FM-15+0450LSZC V0202501N001010030019N0015001N1-00301-00401999999ADDGA1081+003001999GF108991999999999999999999MA1101081999999MW1731REMMET056METAR LSZC 041250Z 25002KT 1500 SN OVC010 M03/M04 Q1011;
0131068065999992010010414204+46967+008400FM-15+0450LSZC V0202601N001010030019N0015001N1-00301-00401999999ADDGA1081+003001999GF108991999999999999999999MA1101081999999MW1731REMMET056METAR LSZC 041420Z 26002KT 1500 SN OVC010 M03/M04 Q1011;
0131068065999992010010414504+46967+008400FM-15+0450LSZC V0202701N001010030019N0015001N1-00301-00401999999ADDGA1081+003001999GF108991999999999999999999MA1101081999999MW1731REMMET056METAR LSZC 041450Z 27002KT 1500 SN OVC010 M03/M04 Q1011;
0131068065999992010010415204+46967+008400FM-15+0450LSZC V0202601N001010030019N0015001N1-00301-00401999999ADDGA1081+003001999GF108991999999999999999999MA1101081999999MW1731REMMET056METAR LSZC 041520Z 26002KT 1500 SN OVC010 M03/M04 Q1011;
0132068065999992010010415504+46967+008400FM-15+0450LSZC V0202801N000510045019N0020001N1-00301-00401999999ADDGA1081+004501999GF108991999999999999999999MA1101081999999MW1711REMMET057METAR LSZC 041550Z 28001KT 2000 -SN OVC015 M03/M04 Q1011;
0131068065999992010010506504+46967+008400FM-15+0450LSZC V0202301N002110045019N0020001N1-00401-00501999999ADDGA1081+004501999GF108991999999999999999999MA1100511999999REMMET062METAR LSZC 050650Z 23004KT 2000 OVC015 M04/M05 Q1005 88//////;
0131068065999992010010507204+46967+008400FM-15+0450LSZC V0202601N001010045019N0020001N1-00401-00501999999ADDGA1081+004501999GF108991999999999999999999MA1100511999999REMMET062METAR LSZC 050720Z 26002KT 2000 OVC015 M04/M05 Q1005 88//////;
0131068065999992010010508204+46967+008400FM-15+0450LSZC V0202101N002110045019N0020001N1-00401-00501999999ADDGA1081+004501999GF108991999999999999999999MA1100511999999REMMET062METAR LSZC 050820Z 21004KT 2000 OVC015 M04/M05 Q1005 88//////;
0131068065999992010010508504+46967+008400FM-15+0450LSZC V0209999V001510045019N0020001N1-00401-00601999999ADDGA1081+004501999GF108991999999999999999999MA1100511999999REMMET062METAR LSZC 050850Z VRB03KT 2000 OVC015 M04/M06 Q1005 88//////;
0140068065999992010010509504+46967+008400FM-15+0450LSZC V0202401N001010036019N0030001N1-00301-00501999999ADDGA1081+003601999GF108991999999999999999999MA1100411999999MW1101REMMET065METAR LSZC 050950Z 24002KT 3000 BR OVC012 M03/M05 Q1004 88//////;
0140068065999992010010510504+46967+008400FM-15+0450LSZC V0202501N001010030019N0030001N1-00301-00501999999ADDGA1081+003001999GF108991999999999999999999MA1100311999999MW1101REMMET065METAR LSZC 051050Z 25002KT 3000 BR OVC010 M03/M05 Q1003 88//////;
0140068065999992010010512204+46967+008400FM-15+0450LSZC V0209999V001010030019N0025001N1-00201-00501999999ADDGA1081+003001999GF108991999999999999999999MA1100201999999MW1101REMMET065METAR LSZC 051220Z VRB02KT 2500 BR OVC010 M02/M05 Q1002 074915//;
0140068065999992010010512504+46967+008400FM-15+0450LSZC V0209999V001010030019N0025001N1-00301-00501999999ADDGA1081+003001999GF108991999999999999999999MA1100201999999MW1101REMMET065METAR LSZC 051250Z VRB02KT 2500 BR OVC010 M03/M05 Q1002 074915//;
0140068065999992010010513504+46967+008400FM-15+0450LSZC V0202501N000510030019N0025001N1-00201-00501999999ADDGA1081+003001999GF108991999999999999999999MA1100101999999MW1101REMMET065METAR LSZC 051350Z 25001KT 2500 BR OVC010 M02/M05 Q1001 074915//;
0140068065999992010010514504+46967+008400FM-15+0450LSZC V0202401N001010030019N0025001N1-00201-00401999999ADDGA1081+003001999GF108991999999999999999999MA1100101999999MW1101REMMET065METAR LSZC 051450Z 24002KT 2500 BR OVC010 M02/M04 Q1001 074915//;
0140068065999992010010515504+46967+008400FM-15+0450LSZC V0202401N001510036019N0025001N1-00301-00401999999ADDGA1081+003601999GF108991999999999999999999MA1100101999999MW1101REMMET065METAR LSZC 051550Z 24003KT 2500 BR OVC012 M03/M04 Q1001 074915//;
0140068065999992010010607204+46967+008400FM-15+0450LSZC V0209999V001010030019N0025001N1-00301-00401999999ADDGA1081+003001999GF108991999999999999999999MA1100001999999MW1101REMMET065METAR LSZC 060720Z VRB02KT 2500 BR OVC010 M03/M04 Q1000 88//////;
0150068065999992010010607504+46967+008400FM-15+0450LSZC V0202601N002110030019N0020001N1-00201-00401999999ADDGA1081+003001999GF108991999999999999999999MA1100001999999MW1101MW2711REMMET069METAR LSZC 060750Z 26004KT 2000 BR -SN OVC010 M02/M04 Q1000 88//////;
0150068065999992010010608504+46967+008400FM-15+0450LSZC V0209999C000010030019N0020001N1-00201-00401999999ADDGA1081+003001999GF108991999999999999999999MA1100001999999MW1101MW2711REMMET069METAR LSZC 060850Z 00000KT 2000 BR -SN OVC010 M02/M04 Q1000 88//////;
0150068065999992010010609204+46967+008400FM-15+0450LSZC V0209999C000010030019N0020001N1-00201-00301999999ADDGA1081+003001999GF108991999999999999999999MA1100101999999MW1101MW2711REMMET069METAR LSZC 060920Z 00000KT 2000 BR -SN OVC010 M02/M03 Q1001 88//////;
0150068065999992010010609504+46967+008400FM-15+0450LSZC V0209999V000510030019N0020001N1-00201-00401999999ADDGA1081+003001999GF108991999999999999999999MA1100101999999MW1101MW2511REMMET069METAR LSZC 060950Z VRB01KT 2000 BR -DZ OVC010 M02/M04 Q1001 88//////;
0150068065999992010010610204+46967+008400FM-15+0450LSZC V0209999V001510036019N0020001N1-00201-00401999999ADDGA1081+003601999GF108991999999999999999999MA1100101999999MW1101MW2511REMMET069METAR LSZC 061020Z VRB03KT 2000 BR -DZ OVC012 M02/M04 Q1001 88//////;
0140068065999992010010610504+46967+008400FM-15+0450LSZC V0202901N000510039019N0020001N1-00201-00301999999ADDGA1081+003901999GF108991999999999999999999MA1100101999999MW1101REMMET065METAR LSZC 061050Z 29001KT 2000 BR OVC013 M02/M03 Q1001 88//////;
0154068065999992010010612504+46967+008400FM-15+0450LSZC V0209999V000510045019N0035001N1-00201-00401999999ADDGA1041+003001999GA2081+004501999GF108991999999999999999999MA1100001999999MW1101REMMET063METAR LSZC 061250Z VRB01KT 3500 BR SCT010 OVC015 M02/M04 Q1000;
0154068065999992010010613504+46967+008400FM-15+0450LSZC V0202001N000510045019N0035001N1-00201-00401999999ADDGA1041+003001999GA2081+004501999GF108991999999999999999999MA1100001999999MW1101REMMET063METAR LSZC 061350Z 20001KT 3500 BR SCT010 OVC015 M02/M04 Q1000;
0154068065999992010010614504+46967+008400FM-15+0450LSZC V0202501N001010045019N0035001N1-00101-00301999999ADDGA1041+003001999GA2081+004501999GF108991999999999999999999MA1100101999999MW1101REMMET063METAR LSZC 061450Z 25002KT 3500 BR SCT010 OVC015 M01/M03 Q1001;
0131068065999992010010615204+46967+008400FM-15+0450LSZC V0202501N001010036019N0035001N1-00201-00301999999ADDGA1081+003601999GF108991999999999999999999MA1100101999999MW1101REMMET056METAR LSZC 061520Z 25002KT 3500 BR OVC012 M02/M03 Q1001;
0122068065999992010010706504+46967+008400FM-15+0450LSZC V0202601N003612200019N0050001N1-00701-00801999999ADDGA1041+007501999GF104991999999999999999999MA1100511999999REMMET053METAR LSZC 070650Z 26007KT 5000 SCT025 M07/M08 Q1005;
0145068065999992010010707204+46967+008400FM-15+0450LSZC V0202701N003110105019N0060001N1-00601-00801999999ADDGA1041+007501999GA2071+010501999GF107991999999999999999999MA1100611999999REMMET060METAR LSZC 070720Z 27006KT 6000 SCT025 BKN035 M06/M08 Q1006;
0122068065999992010010707504+46967+008400FM-15+0450LSZC V0202701N003610120019N0060001N1-00501-00701999999ADDGA1071+012001999GF107991999999999999999999MA1100611999999REMMET053METAR LSZC 070750Z 27007KT 6000 BKN040 M05/M07 Q1006;
0122068065999992010010708204+46967+008400FM-15+0450LSZC V0202601N004610075019N0070001N1-00501-00701999999ADDGA1071+007501999GF107991999999999999999999MA1100611999999REMMET053METAR LSZC 070820Z 26009KT 7000 BKN025 M05/M07 Q1006;
0122068065999992010010709204+46967+008400FM-15+0450LSZC V0202601N003112200019N0112651N1-00601-00801999999ADDGA1021+007501999GF102991999999999999999999MA1100711999999REMMET053METAR LSZC 070920Z 26006KT 9999 FEW025 M06/M08 Q1007;
0122068065999992010010709504+46967+008400FM-15+0450LSZC V0202601N003612200019N0112651N1-00601-00901999999ADDGA1021+007501999GF102991999999999999999999MA1100711999999REMMET053METAR LSZC 070950Z 26007KT 9999 FEW025 M06/M09 Q1007;
0130068065999992010010710204+46967+008400FM-15+0450LSZC V0202701N002112200019N0112651N1-00501-00801999999ADDGA1021+007501999GF102991999999999999999999MA1100711999999REMMET061METAR LSZC 071020Z 27004KT 230V310 9999 FEW025 M05/M08 Q1007;
0122068065999992010010710504+46967+008400FM-15+0450LSZC V0209999V001512200019N0112651N1-00401-00801999999ADDGA1021+007501999GF102991999999999999999999MA1100711999999REMMET053METAR LSZC 071050Z VRB03KT 9999 FEW025 M04/M08 Q1007;
0145068065999992010010712504+46967+008400FM-15+0450LSZC V0202601N001010420019N0080001N1-00301-00601999999ADDGA1021+007501999GA2081+042001999GF108991999999999999999999MA1100711999999REMMET060METAR LSZC 071250Z 26002KT 8000 FEW025 OVC140 M03/M06 Q1007;
0145068065999992010010714204+46967+008400FM-15+0450LSZC V0209999C000010420019N0080001N1-00201-00601999999ADDGA1021+007501999GA2081+042001999GF108991999999999999999999MA1100711999999REMMET060METAR LSZC 071420Z 00000KT 8000 FEW025 OVC140 M02/M06 Q1007;
0122068065999992010010714504+46967+008400FM-15+0450LSZC V0209999C000010420019N0080001N1-00201-00601999999ADDGA1081+042001999GF108991999999999999999999MA1100711999999REMMET053METAR LSZC 071450Z 00000KT 8000 OVC140 M02/M06 Q1007;
0162068065999992010010806504+46967+008400FM-15+0450LSZC V0202301N002110066019N0040001N1-00101-00301999999ADDGA1041+003601999GA2081+006601999GF108991999999999999999999MA1100511999999MW1101REMMET071METAR LSZC 080650Z 23004KT 210V280 4000 BR SCT012 OVC022 M01/M03 Q1005;
0162068065999992010010807504+46967+008400FM-15+0450LSZC V0202401N002110066019N0040001N1-00101-00401999999ADDGA1041+003601999GA2081+006601999GF108991999999999999999999MA1100511999999MW1101REMMET071METAR LSZC 080750Z 24004KT 210V300 4000 BR SCT012 OVC022 M01/M04 Q1005;
0162068065999992010010808504+46967+008400FM-15+0450LSZC V0202101N002110066019N0050001N1-00101-00401999999ADDGA1041+003601999GA2081+006601999GF108991999999999999999999MA1100411999999MW1101REMMET071METAR LSZC 080850Z 21004KT 170V250 5000 BR SCT012 OVC022 M01/M04 Q1004;
0162068065999992010010809504+46967+008400FM-15+0450LSZC V0202101N002110066019N0050001N1-00101-00301999999ADDGA1041+003601999GA2081+006601999GF108991999999999999999999MA1100411999999MW1101REMMET071METAR LSZC 080950Z 21004KT 170V250 5000 BR SCT012 OVC022 M01/M03 Q1004;
0154068065999992010010810204+46967+008400FM-15+0450LSZC V0202001N002110066019N0050001N1-00101-00301999999ADDGA1041+003601999GA2081+006601999GF108991999999999999999999MA1100311999999MW1101REMMET063METAR LSZC 081020Z 20004KT 5000 BR SCT012 OVC022 M01/M03 Q1003;
0162068065999992010010810504+46967+008400FM-15+0450LSZC V0203601N001510066019N0050001N1-00101-00401999999ADDGA1041+003601999GA2081+006601999GF108991999999999999999999MA1100311999999MW1101REMMET071METAR LSZC 081050Z 36003KT 310V050 5000 BR SCT012 OVC022 M01/M04 Q1003;
0162068065999992010010814204+46967+008400FM-15+0450LSZC V0203201N002110066019N0050001N1-00101-00401999999ADDGA1041+003601999GA2081+006601999GF108991999999999999999999MA1100201999999MW1101REMMET071METAR LSZC 081420Z 32004KT 280V050 5000 BR SCT012 OVC022 M01/M04 Q1002;
0154068065999992010010814504+46967+008400FM-15+0450LSZC V0209999V002110066019N0050001N1-00101-00401999999ADDGA1041+003601999GA2081+006601999GF108991999999999999999999MA1100201999999MW1101REMMET063METAR LSZC 081450Z VRB04KT 5000 BR SCT012 OVC022 M01/M04 Q1002;
0131068065999992010011106504+46967+008400FM-15+0450LSZC V0202601N003610039019N0060001N1-00401-00801999999ADDGA1081+003901999GF108991999999999999999999MA1101391999999MW1101REMMET056METAR LSZC 110650Z 26007KT 6000 BR OVC013 M04/M08 Q1014;
0131068065999992010011109504+46967+008400FM-15+0450LSZC V0202601N002110054019N0050001N1-00401-00701999999ADDGA1081+005401999GF108991999999999999999999MA1101391999999MW1101REMMET056METAR LSZC 110950Z 26004KT 5000 BR OVC018 M04/M07 Q1014;
0131068065999992010011110204+46967+008400FM-15+0450LSZC V0202601N002610054019N0050001N1-00401-00701999999ADDGA1081+005401999GF108991999999999999999999MA1101391999999MW1101REMMET056METAR LSZC 111020Z 26005KT 5000 BR OVC018 M04/M07 Q1014;
0131068065999992010011110504+46967+008400FM-15+0450LSZC V0202501N002610051019N0050001N1-00301-00701999999ADDGA1081+005101999GF108991999999999999999999MA1101391999999MW1101REMMET056METAR LSZC 111050Z 25005KT 5000 BR OVC017 M03/M07 Q1014;
0131068065999992010011112204+46967+008400FM-15+0450LSZC V0209999V001510054019N0050001N1-00201-00601999999ADDGA1081+005401999GF108991999999999999999999MA1101391999999MW1101REMMET056METAR LSZC 111220Z VRB03KT 5000 BR OVC018 M02/M06 Q1014;
0131068065999992010011112504+46967+008400FM-15+0450LSZC V0209999V000510054019N0050001N1-00201-00601999999ADDGA1081+005401999GF108991999999999999999999MA1101391999999MW1101REMMET056METAR LSZC 111250Z VRB01KT 5000 BR OVC018 M02/M06 Q1014;
0131068065999992010011113204+46967+008400FM-15+0450LSZC V0203201N002610054019N0050001N1-00201-00601999999ADDGA1081+005401999GF108991999999999999999999MA1101391999999MW1101REMMET056METAR LSZC 111320Z 32005KT 5000 BR OVC018 M02/M06 Q1014;
0131068065999992010011113504+46967+008400FM-15+0450LSZC V0203301N002610054019N0050001N1-00201-00601999999ADDGA1081+005401999GF108991999999999999999999MA1101391999999MW1101REMMET056METAR LSZC 111350Z 33005KT 5000 BR OVC018 M02/M06 Q1014;
0131068065999992010011114204+46967+008400FM-15+0450LSZC V0209999V001010054019N0050001N1-00201-00601999999ADDGA1081+005401999GF108991999999999999999999MA1101391999999MW1101REMMET056METAR LSZC 111420Z VRB02KT 5000 BR OVC018 M02/M06 Q1014;
0131068065999992010011114504+46967+008400FM-15+0450LSZC V0209999V000510054019N0050001N1-00201-00601999999ADDGA1081+005401999GF108991999999999999999999MA1101391999999MW1101REMMET056METAR LSZC 111450Z VRB01KT 5000 BR OVC018 M02/M06 Q1014;
0131068065999992010011115204+46967+008400FM-15+0450LSZC V0202901N000510054019N0050001N1-00201-00601999999ADDGA1081+005401999GF108991999999999999999999MA1101491999999MW1101REMMET056METAR LSZC 111520Z 29001KT 5000 BR OVC018 M02/M06 Q1015;
0131068065999992010011115504+46967+008400FM-15+0450LSZC V0202401N001010054019N0050001N1-00201-00601999999ADDGA1081+005401999GF108991999999999999999999MA1101491999999MW1101REMMET056METAR LSZC 111550Z 24002KT 5000 BR OVC018 M02/M06 Q1015;
0141068065999992010011206504+46967+008400FM-15+0450LSZC V0202701N001010054019N0050001N1-00201-00401999999ADDGA1081+005401999GF108991999999999999999999MA1101491999999MW1101MW2711REMMET060METAR LSZC 120650Z 27002KT 5000 BR -SN OVC018 M02/M04 Q1015;
0131068065999992010011207204+46967+008400FM-15+0450LSZC V0202601N001010039019N0050001N1-00201-00401999999ADDGA1081+003901999GF108991999999999999999999MA1101391999999MW1101REMMET056METAR LSZC 120720Z 26002KT 5000 BR OVC013 M02/M04 Q1014;
0131068065999992010011207504+46967+008400FM-15+0450LSZC V0202801N001010045019N0050001N1-00201-00401999999ADDGA1081+004501999GF108991999999999999999999MA1101391999999MW1101REMMET056METAR LSZC 120750Z 28002KT 5000 BR OVC015 M02/M04 Q1014;
0131068065999992010011208504+46967+008400FM-15+0450LSZC V0202701N002610045019N0050001N1-00201-00401999999ADDGA1081+004501999GF108991999999999999999999MA1101291999999MW1101REMMET056METAR LSZC 120850Z 27005KT 5000 BR OVC015 M02/M04 Q1013;
0131068065999992010011209204+46967+008400FM-15+0450LSZC V0202501N002110045019N0050001N1-00201-00401999999ADDGA1081+004501999GF108991999999999999999999MA1101291999999MW1101REMMET056METAR LSZC 120920Z 25004KT 5000 BR OVC015 M02/M04 Q1013;
0131068065999992010011209504+46967+008400FM-15+0450LSZC V0202701N001510045019N0050001N1-00201-00401999999ADDGA1081+004501999GF108991999999999999999999MA1101291999999MW1101REMMET056METAR LSZC 120950Z 27003KT 5000 BR OVC015 M02/M04 Q1013;
0131068065999992010011210204+46967+008400FM-15+0450LSZC V0202501N002110045019N0050001N1-00201-00401999999ADDGA1081+004501999GF108991999999999999999999MA1101191999999MW1101REMMET056METAR LSZC 121020Z 25004KT 5000 BR OVC015 M02/M04 Q1012;
0131068065999992010011210504+46967+008400FM-15+0450LSZC V0202501N001510036019N0040001N1-00201-00401999999ADDGA1081+003601999GF108991999999999999999999MA1101191999999MW1101REMMET056METAR LSZC 121050Z 25003KT 4000 BR OVC012 M02/M04 Q1012;
0131068065999992010011212204+46967+008400FM-15+0450LSZC V0202501N002110036019N0040001N1-00201-00401999999ADDGA1081+003601999GF108991999999999999999999MA1101081999999MW1101REMMET056METAR LSZC 121220Z 25004KT 4000 BR OVC012 M02/M04 Q1011;
0131068065999992010011212504+46967+008400FM-15+0450LSZC V0202401N002110036019N0040001N1-00201-00401999999ADDGA1081+003601999GF108991999999999999999999MA1101081999999MW1101REMMET056METAR LSZC 121250Z 24004KT 4000 BR OVC012 M02/M04 Q1011;
0131068065999992010011213204+46967+008400FM-15+0450LSZC V0202501N001010036019N0040001N1-00101-00401999999ADDGA1081+003601999GF108991999999999999999999MA1101021999999MW1101REMMET056METAR LSZC 121320Z 25002KT 4000 BR OVC012 M01/M04 Q1010;
0131068065999992010011213504+46967+008400FM-15+0450LSZC V0202801N001010036019N0040001N1-00101-00401999999ADDGA1081+003601999GF108991999999999999999999MA1101021999999MW1101REMMET056METAR LSZC 121350Z 28002KT 4000 BR OVC012 M01/M04 Q1010;
0131068065999992010011214204+46967+008400FM-15+0450LSZC V0202801N001010036019N0040001N1-00101-00401999999ADDGA1081+003601999GF108991999999999999999999MA1100911999999MW1101REMMET056METAR LSZC 121420Z 28002KT 4000 BR OVC012 M01/M04 Q1009;
0131068065999992010011214504+46967+008400FM-15+0450LSZC V0209999V001010036019N0040001N1-00101-00401999999ADDGA1081+003601999GF108991999999999999999999MA1100911999999MW1101REMMET056METAR LSZC 121450Z VRB02KT 4000 BR OVC012 M01/M04 Q1009;
0131068065999992010011215504+46967+008400FM-15+0450LSZC V0202501N002110042019N0040001N1-00201-00401999999ADDGA1081+004201999GF108991999999999999999999MA1100811999999MW1101REMMET056METAR LSZC 121550Z 25004KT 4000 BR OVC014 M02/M04 Q1008;
0154068065999992010011306504+46967+008400FM-15+0450LSZC V0202501N002110210019N0040001N1-00201-00401999999ADDGA1021+004201999GA2081+021001999GF108991999999999999999999MA1100411999999MW1101REMMET063METAR LSZC 130650Z 25004KT 4000 BR FEW014 OVC075 M02/M04 Q1004;
0154068065999992010011307204+46967+008400FM-15+0450LSZC V0209999V000510210019N0040001N1-00201-00401999999ADDGA1021+004201999GA2081+021001999GF108991999999999999999999MA1100511999999MW1101REMMET063METAR LSZC 130720Z VRB01KT 4000 BR FEW014 OVC075 M02/M04 Q1005;
0154068065999992010011307504+46967+008400FM-15+0450LSZC V0209999V000510147019N0040001N1-00101-00301999999ADDGA1021+004201999GA2081+014701999GF108991999999999999999999MA1100511999999MW1101REMMET063METAR LSZC 130750Z VRB01KT 4000 BR FEW014 OVC049 M01/M03 Q1005;
0154068065999992010011308204+46967+008400FM-15+0450LSZC V0202501N000510147019N0040001N1-00101-00401999999ADDGA1021+004201999GA2081+014701999GF108991999999999999999999MA1100611999999MW1101REMMET063METAR LSZC 130820Z 25001KT 4000 BR FEW014 OVC049 M01/M04 Q1006;
0154068065999992010011308504+46967+008400FM-15+0450LSZC V0202701N001010147019N0035001N1-00101-00301999999ADDGA1071+014701999GA2081+021001999GF108991999999999999999999MA1100611999999MW1101REMMET063METAR LSZC 130850Z 27002KT 3500 BR BKN049 OVC073 M01/M03 Q1006;
0154068065999992010011309204+46967+008400FM-15+0450LSZC V0202501N002110210019N0035001N1-00101-00301999999ADDGA1041+014701999GA2081+021001999GF108991999999999999999999MA1100611999999MW1101REMMET063METAR LSZC 130920Z 25004KT 3500 BR SCT049 OVC073 M01/M03 Q1006;
0131068065999992010011309504+46967+008400FM-15+0450LSZC V0202501N001510180019N0040001N1-00101-00301999999ADDGA1081+018001999GF108991999999999999999999MA1100711999999MW1101REMMET056METAR LSZC 130950Z 25003KT 4000 BR OVC065 M01/M03 Q1007;
0131068065999992010011310204+46967+008400FM-15+0450LSZC V0202601N001510180019N0040001N1-00101-00301999999ADDGA1081+018001999GF108991999999999999999999MA1100711999999MW1101REMMET056METAR LSZC 131020Z 26003KT 4000 BR OVC065 M01/M03 Q1007;
0130068065999992010011310504+46967+008400FM-15+0450LSZC V0209999C000010180019N0035001N1+00001-00301999999ADDGA1081+018001999GF108991999999999999999999MA1100711999999MW1101REMMET055METAR LSZC 131050Z 00000KT 3500 BR OVC065 00/M03 Q1007;
0153068065999992010011312204+46967+008400FM-15+0450LSZC V0202501N000510240019N0035001N1+00001-00301999999ADDGA1021+004501999GA2081+024001999GF108991999999999999999999MA1100611999999MW1101REMMET062METAR LSZC 131220Z 25001KT 3500 BR FEW015 OVC085 00/M03 Q1006;
0153068065999992010011312504+46967+008400FM-15+0450LSZC V0202601N000510240019N0035001N1+00001-00301999999ADDGA1021+004501999GA2081+024001999GF108991999999999999999999MA1100611999999MW1101REMMET062METAR LSZC 131250Z 26001KT 3500 BR FEW015 OVC085 00/M03 Q1006;
0153068065999992010011313204+46967+008400FM-15+0450LSZC V0209999C000010240019N0035001N1+00101-00301999999ADDGA1021+004501999GA2081+024001999GF108991999999999999999999MA1100611999999MW1101REMMET062METAR LSZC 131320Z 00000KT 3500 BR FEW015 OVC085 01/M03 Q1006;
0153068065999992010011313504+46967+008400FM-15+0450LSZC V0209999C000010120019N0035001N1+00101-00301999999ADDGA1021+004501999GA2081+012001999GF108991999999999999999999MA1100711999999MW1101REMMET062METAR LSZC 131350Z 00000KT 3500 BR FEW015 OVC040 01/M03 Q1007;
0153068065999992010011314504+46967+008400FM-15+0450LSZC V0209999C000010120019N0035001N1+00101-00201999999ADDGA1021+004501999GA2081+012001999GF108991999999999999999999MA1100711999999MW1101REMMET062METAR LSZC 131450Z 00000KT 3500 BR FEW015 OVC040 01/M02 Q1007;
0153068065999992010011315204+46967+008400FM-15+0450LSZC V0209999C000010120019N0035001N1+00001-00201999999ADDGA1021+004501999GA2081+012001999GF108991999999999999999999MA1100711999999MW1101REMMET062METAR LSZC 131520Z 00000KT 3500 BR FEW015 OVC040 00/M02 Q1007;
0130068065999992010011315504+46967+008400FM-15+0450LSZC V0209999C000010030019N0015001N1+00001-00101999999ADDGA1081+003001999GF108991999999999999999999MA1100711999999MW1731REMMET055METAR LSZC 131550Z 00000KT 1500 SN OVC010 00/M01 Q1007;
0153068065999992010011407204+46967+008400FM-15+0450LSZC V0202801N001510036019N0025001N1+00001-00101999999ADDGA1041+000601999GA2081+003601999GF108991999999999999999999MA1100511999999MW1101REMMET062METAR LSZC 140720Z 28003KT 2500 BR SCT002 OVC012 00/M01 Q1005;
0153068065999992010011407504+46967+008400FM-15+0450LSZC V0202701N003610036019N0045001N1+00001-00101999999ADDGA1041+000601999GA2081+003601999GF108991999999999999999999MA1100511999999MW1101REMMET062METAR LSZC 140750Z 27007KT 4500 BR SCT002 OVC012 00/M01 Q1005;
0153068065999992010011408204+46967+008400FM-15+0450LSZC V0202701N002610030019N0045001N1+00001-00101999999ADDGA1041+000601999GA2071+003001999GF107991999999999999999999MA1100511999999MW1101REMMET062METAR LSZC 140820Z 27005KT 4500 BR SCT002 BKN010 00/M01 Q1005;
0144068065999992010011408504+46967+008400FM-15+0450LSZC V0202501N002610033019N0060001N1+00001-00201999999ADDGA1041+001201999GA2071+003301999GF107991999999999999999999MA1100511999999REMMET059METAR LSZC 140850Z 25005KT 6000 SCT004 BKN011 00/M02 Q1005;
0144068065999992010011409204+46967+008400FM-15+0450LSZC V0202601N002610033019N0060001N1+00001-00201999999ADDGA1041+001201999GA2071+003301999GF107991999999999999999999MA1100511999999REMMET059METAR LSZC 140920Z 26005KT 6000 SCT004 BKN011 00/M02 Q1005;
0144068065999992010011409504+46967+008400FM-15+0450LSZC V0202601N002610033019N0060001N1+00001-00201999999ADDGA1041+001201999GA2071+003301999GF107991999999999999999999MA1100511999999REMMET059METAR LSZC 140950Z 26005KT 6000 SCT004 BKN011 00/M02 Q1005;
0144068065999992010011410204+46967+008400FM-15+0450LSZC V0202601N002610033019N0060001N1+00001-00101999999ADDGA1041+001201999GA2071+003301999GF107991999999999999999999MA1100511999999REMMET059METAR LSZC 141020Z 26005KT 6000 SCT004 BKN011 00/M01 Q1005;
0144068065999992010011410504+46967+008400FM-15+0450LSZC V0202601N002110030019N0060001N1+00101-00101999999ADDGA1041+001801999GA2071+003001999GF107991999999999999999999MA1100411999999REMMET059METAR LSZC 141050Z 26004KT 6000 SCT006 BKN010 01/M01 Q1004;
0143068065999992010011412204+46967+008400FM-15+0450LSZC V0202501N001010030019N0060001N1+00101+00001999999ADDGA1041+001801999GA2081+003001999GF108991999999999999999999MA1100411999999REMMET058METAR LSZC 141220Z 25002KT 6000 SCT006 OVC010 01/00 Q1004;
0144068065999992010011414204+46967+008400FM-15+0450LSZC V0209999C000010033019N0060001N1+00201-00101999999ADDGA1041+001801999GA2081+003301999GF108991999999999999999999MA1100411999999REMMET059METAR LSZC 141420Z 00000KT 6000 SCT006 OVC011 02/M01 Q1004;
0153068065999992010011414504+46967+008400FM-15+0450LSZC V0202001N001510033019N0040001N1+00101-00101999999ADDGA1041+001801999GA2081+003301999GF108991999999999999999999MA1100511999999MW1101REMMET062METAR LSZC 141450Z 20003KT 4000 BR SCT006 OVC011 01/M01 Q1005;
0153068065999992010011415504+46967+008400FM-15+0450LSZC V0202301N002110042019N0040001N1+00101-00101999999ADDGA1021+002101999GA2081+004201999GF108991999999999999999999MA1100411999999MW1101REMMET062METAR LSZC 141550Z 23004KT 4000 BR FEW007 OVC014 01/M01 Q1004;
0130068065999992010011506504+46967+008400FM-15+0450LSZC V0202601N002610045019N0040001N1+00001-00301999999ADDGA1081+004501999GF108991999999999999999999MA1101691999999MW1101REMMET055METAR LSZC 150650Z 26005KT 4000 BR OVC015 00/M03 Q1017;
0130068065999992010011507204+46967+008400FM-15+0450LSZC V0202601N002610045019N0040001N1+00001-00301999999ADDGA1081+004501999GF108991999999999999999999MA1101801999999MW1101REMMET055METAR LSZC 150720Z 26005KT 4000 BR OVC015 00/M03 Q1018;
0122068065999992010011507504+46967+008400FM-15+0450LSZC V0202601N003110048019N0060001N1-00101-00301999999ADDGA1081+004801999GF108991999999999999999999MA1101801999999REMMET053METAR LSZC 150750Z 26006KT 6000 OVC016 M01/M03 Q1018;
0122068065999992010011508204+46967+008400FM-15+0450LSZC V0202601N003110048019N0060001N1-00101-00301999999ADDGA1081+004801999GF108991999999999999999999MA1101901999999REMMET053METAR LSZC 150820Z 26006KT 6000 OVC016 M01/M03 Q1019;
0122068065999992010011508504+46967+008400FM-15+0450LSZC V0202701N003610051019N0060001N1-00101-00301999999ADDGA1081+005101999GF108991999999999999999999MA1101901999999REMMET053METAR LSZC 150850Z 27007KT 6000 OVC017 M01/M03 Q1019;
0121068065999992010011509504+46967+008400FM-15+0450LSZC V0202501N002110051019N0060001N1+00001-00301999999ADDGA1071+005101999GF107991999999999999999999MA1102001999999REMMET052METAR LSZC 150950Z 25004KT 6000 BKN017 00/M03 Q1020;
0121068065999992010011510204+46967+008400FM-15+0450LSZC V0202501N002110051019N0060001N1+00001-00301999999ADDGA1071+005101999GF107991999999999999999999MA1102001999999REMMET052METAR LSZC 151020Z 25004KT 6000 BKN017 00/M03 Q1020;
0121068065999992010011510504+46967+008400FM-15+0450LSZC V0202501N002110051019N0060001N1+00001-00301999999ADDGA1071+005101999GF107991999999999999999999MA1102001999999REMMET052METAR LSZC 151050Z 25004KT 6000 BKN017 00/M03 Q1020;
0121068065999992010011513204+46967+008400FM-15+0450LSZC V0209999C000012200019N0050001N1+00401-00201999999ADDGA1041+005101999GF104991999999999999999999MA1102101999999REMMET052METAR LSZC 151320Z 00000KT 5000 SCT017 04/M02 Q1021;
0121068065999992010011513504+46967+008400FM-15+0450LSZC V0209999V000512200019N0050001N1+00201-00201999999ADDGA1041+005101999GF104991999999999999999999MA1102101999999REMMET052METAR LSZC 151350Z VRB01KT 5000 SCT017 02/M02 Q1021;
0121068065999992010011514204+46967+008400FM-15+0450LSZC V0201701N000512200019N0050001N1+00301-00201999999ADDGA1041+005101999GF104991999999999999999999MA1102201999999REMMET052METAR LSZC 151420Z 17001KT 5000 SCT017 03/M02 Q1022;
0121068065999992010011514504+46967+008400FM-15+0450LSZC V0209999V000512200019N0050001N1+00201-00201999999ADDGA1041+005101999GF104991999999999999999999MA1102201999999REMMET052METAR LSZC 151450Z VRB01KT 5000 SCT017 02/M02 Q1022;
0121068065999992010011515204+46967+008400FM-15+0450LSZC V0201501N001012200019N0050001N1+00101-00201999999ADDGA1041+005101999GF104991999999999999999999MA1102201999999REMMET052METAR LSZC 151520Z 15002KT 5000 SCT017 01/M02 Q1022;
0121068065999992010011806204+46967+008400FM-15+0450LSZC V0202001N001010240019N0112651N1+00201-00101999999ADDGA1081+024001999GF108991999999999999999999MA1102611999999REMMET052METAR LSZC 180620Z 20002KT 9999 OVC080 02/M01 Q1026;
0121068065999992010011806504+46967+008400FM-15+0450LSZC V0209999V000510240019N0112651N1+00101-00101999999ADDGA1081+024001999GF108991999999999999999999MA1102611999999REMMET052METAR LSZC 180650Z VRB01KT 9999 OVC080 01/M01 Q1026;
0129068065999992010011807204+46967+008400FM-15+0450LSZC V0202301N001510240019N0112651N1+00101-00101999999ADDGA1081+024001999GF108991999999999999999999MA1102611999999REMMET060METAR LSZC 180720Z 23003KT 200V260 9999 OVC080 01/M01 Q1026;
0121068065999992010011807504+46967+008400FM-15+0450LSZC V0202701N001510240019N0112651N1+00101-00101999999ADDGA1071+024001999GF107991999999999999999999MA1102611999999REMMET052METAR LSZC 180750Z 27003KT 9999 BKN080 01/M01 Q1026;
0120068065999992010011809204+46967+008400FM-15+0450LSZC V0202401N002110210019N0112651N1+00201+00001999999ADDGA1071+021001999GF107991999999999999999999MA1102611999999REMMET051METAR LSZC 180920Z 24004KT 9999 BKN078 02/00 Q1026;
0120068065999992010011809504+46967+008400FM-15+0450LSZC V0209999V001010210019N0112651N1+00301+00001999999ADDGA1071+021001999GF107991999999999999999999MA1102711999999REMMET051METAR LSZC 180950Z VRB02KT 9999 BKN078 03/00 Q1027;
0120068065999992010011810204+46967+008400FM-15+0450LSZC V0209999V000510240019N0112651N1+00401+00001999999ADDGA1071+024001999GF107991999999999999999999MA1102611999999REMMET051METAR LSZC 181020Z VRB01KT 9999 BKN081 04/00 Q1026;
0143068065999992010011810504+46967+008400FM-15+0450LSZC V0209999C000010240019N0112651N1+00501+00101999999ADDGA1021+010501999GA2071+024001999GF107991999999999999999999MA1102611999999REMMET058METAR LSZC 181050Z 00000KT 9999 FEW035 BKN081 05/01 Q1026;
0143068065999992010011812204+46967+008400FM-15+0450LSZC V0209999V001012200019N0112651N1+00501+00101999999ADDGA1021+010501999GA2041+024001999GF104991999999999999999999MA1102511999999REMMET058METAR LSZC 181220Z VRB02KT 9999 FEW035 SCT081 05/01 Q1025;
0120068065999992010011812504+46967+008400FM-15+0450LSZC V0209999C000012200019N0112651N1+00701+00101999999ADDGA1021+010501999GF102991999999999999999999MA1102511999999REMMET051METAR LSZC 181250Z 00000KT 9999 FEW035 07/01 Q1025;
0120068065999992010011814204+46967+008400FM-15+0450LSZC V0209999V001012200019N0112651N1+00601+00001999999ADDGA1021+010501999GF102991999999999999999999MA1102401999999REMMET051METAR LSZC 181420Z VRB02KT 9999 FEW035 06/00 Q1024;
0120068065999992010011814504+46967+008400FM-15+0450LSZC V0209999V001012200019N0112651N1+00501+00001999999ADDGA1021+010501999GF102991999999999999999999MA1102401999999REMMET051METAR LSZC 181450Z VRB02KT 9999 FEW035 05/00 Q1024;
0120068065999992010011815204+46967+008400FM-15+0450LSZC V0202301N001012200019N0112651N1+00301+00001999999ADDGA1021+010501999GF102991999999999999999999MA1102511999999REMMET051METAR LSZC 181520Z 23002KT 9999 FEW035 03/00 Q1025;
0122068065999992010011906504+46967+008400FM-15+0450LSZC V0202701N001512200019N0112651N1-00501-00701999999ADDGA1021+002401999GF102991999999999999999999MA1102201999999REMMET053METAR LSZC 190650Z 27003KT 9999 FEW008 M05/M07 Q1022;
0122068065999992010011907204+46967+008400FM-15+0450LSZC V0202301N002112200019N0112651N1-00401-00601999999ADDGA1021+002401999GF102991999999999999999999MA1102201999999REMMET053METAR LSZC 190720Z 23004KT 9999 FEW008 M04/M06 Q1022;
0122068065999992010011907504+46967+008400FM-15+0450LSZC V0202401N001512200019N0112651N1-00401-00701999999ADDGA1021+002401999GF102991999999999999999999MA1102201999999REMMET053METAR LSZC 190750Z 24003KT 9999 FEW008 M04/M07 Q1022;
0122068065999992010011908204+46967+008400FM-15+0450LSZC V0202301N002112200019N0112651N1-00401-00701999999ADDGA1041+002401999GF104991999999999999999999MA1102201999999REMMET053METAR LSZC 190820Z 23004KT 9999 SCT008 M04/M07 Q1022;
0122068065999992010011908504+46967+008400FM-15+0450LSZC V0202601N001512200019N0112651N1-00401-00601999999ADDGA1041+002401999GF104991999999999999999999MA1102201999999REMMET053METAR LSZC 190850Z 26003KT 9999 SCT008 M04/M06 Q1022;
0122068065999992010011909204+46967+008400FM-15+0450LSZC V0202401N001012200019N0060001N1-00401-00601999999ADDGA1021+001501999GF102991999999999999999999MA1102201999999REMMET053METAR LSZC 190920Z 24002KT 6000 FEW005 M04/M06 Q1022;
0122068065999992010011909504+46967+008400FM-15+0450LSZC V0209999V000512200019N0060001N1-00201-00301999999ADDGA1021+001501999GF102991999999999999999999MA1102201999999REMMET053METAR LSZC 190950Z VRB01KT 6000 FEW005 M02/M03 Q1022;
0121068065999992010011912204+46967+008400FM-15+0450LSZC V0209999V001012200019N0060001N1+00201-00201999999ADDGA1021+001501999GF102991999999999999999999MA1102001999999REMMET052METAR LSZC 191220Z VRB02KT 6000 FEW005 02/M02 Q1020;
0129068065999992010011912504+46967+008400FM-15+0450LSZC V0201001N002112200019N0060001N1+00101-00101999999ADDGA1021+002401999GF102991999999999999999999MA1102001999999REMMET060METAR LSZC 191250Z 10004KT 070V140 6000 FEW008 01/M01 Q1020;
0121068065999992010011913504+46967+008400FM-15+0450LSZC V0209999V001012200019N0060001N1+00201-00101999999ADDGA1041+002401999GF104991999999999999999999MA1101901999999REMMET052METAR LSZC 191350Z VRB02KT 6000 SCT008 02/M01 Q1019;
0130068065999992010011914204+46967+008400FM-15+0450LSZC V0209999V001512200019N0040001N1+00101-00101999999ADDGA1041+002401999GF104991999999999999999999MA1101901999999MW1101REMMET055METAR LSZC 191420Z VRB03KT 4000 BR SCT008 01/M01 Q1019;
0130068065999992010011914504+46967+008400FM-15+0450LSZC V0209999V001512200019N0035001N1+00001-00201999999ADDGA1041+002401999GF104991999999999999999999MA1101901999999MW1101REMMET055METAR LSZC 191450Z VRB03KT 3500 BR SCT008 00/M02 Q1019;
0130068065999992010011915204+46967+008400FM-15+0450LSZC V0209999V000510021019N0030001N1+00001-00201999999ADDGA1071+002101999GF107991999999999999999999MA1101901999999MW1101REMMET055METAR LSZC 191520Z VRB01KT 3000 BR BKN007 00/M02 Q1019;
0130068065999992010011915504+46967+008400FM-15+0450LSZC V0202101N001010018019N0030001N1+00001-00201999999ADDGA1081+001801999GF108991999999999999999999MA1102001999999MW1101REMMET055METAR LSZC 191550Z 21002KT 3000 BR OVC006 00/M02 Q1020;
0131068065999992010012006504+46967+008400FM-15+0450LSZC V0202501N002610024019N0030001N1-00201-00401999999ADDGA1081+002401999GF108991999999999999999999MA1101491999999MW1101REMMET056METAR LSZC 200650Z 25005KT 3000 BR OVC008 M02/M04 Q1015;
0131068065999992010012007204+46967+008400FM-15+0450LSZC V0202501N002610024019N0030001N1-00201-00401999999ADDGA1081+002401999GF108991999999999999999999MA1101491999999MW1101REMMET056METAR LSZC 200720Z 25005KT 3000 BR OVC008 M02/M04 Q1015;
0131068065999992010012007504+46967+008400FM-15+0450LSZC V0202401N002110021019N0030001N1-00301-00401999999ADDGA1081+002101999GF108991999999999999999999MA1101491999999MW1101REMMET056METAR LSZC 200750Z 24004KT 3000 BR OVC007 M03/M04 Q1015;
0131068065999992010012008204+46967+008400FM-15+0450LSZC V0202601N003110021019N0030001N1-00301-00401999999ADDGA1081+002101999GF108991999999999999999999MA1101491999999MW1101REMMET056METAR LSZC 200820Z 26006KT 3000 BR OVC007 M03/M04 Q1015;
0131068065999992010012008504+46967+008400FM-15+0450LSZC V0202501N002610021019N0030001N1-00201-00401999999ADDGA1081+002101999GF108991999999999999999999MA1101391999999MW1101REMMET056METAR LSZC 200850Z 25005KT 3000 BR OVC007 M02/M04 Q1014;
0131068065999992010012009204+46967+008400FM-15+0450LSZC V0202501N002610021019N0030001N1-00201-00401999999ADDGA1081+002101999GF108991999999999999999999MA1101391999999MW1101REMMET056METAR LSZC 200920Z 25005KT 3000 BR OVC007 M02/M04 Q1014;
0139068065999992010012009504+46967+008400FM-15+0450LSZC V0202301N002610021019N0030001N1-00201-00401999999ADDGA1081+002101999GF108991999999999999999999MA1101391999999MW1101REMMET064METAR LSZC 200950Z 23005KT 190V250 3000 BR OVC007 M02/M04 Q1014;
0131068065999992010012010204+46967+008400FM-15+0450LSZC V0202401N002110021019N0030001N1-00201-00301999999ADDGA1081+002101999GF108991999999999999999999MA1101391999999MW1101REMMET056METAR LSZC 201020Z 24004KT 3000 BR OVC007 M02/M03 Q1014;
0131068065999992010012010504+46967+008400FM-15+0450LSZC V0202501N002110024019N0030001N1-00201-00401999999ADDGA1081+002401999GF108991999999999999999999MA1101391999999MW1101REMMET056METAR LSZC 201050Z 25004KT 3000 BR OVC008 M02/M04 Q1014;
0130068065999992010012012504+46967+008400FM-15+0450LSZC V0209999V000510033019N0030001N1+00001-00301999999ADDGA1081+003301999GF108991999999999999999999MA1101291999999MW1101REMMET055METAR LSZC 201250Z VRB01KT 3000 BR OVC011 00/M03 Q1013;
0131068065999992010012013204+46967+008400FM-15+0450LSZC V0209999V001010033019N0030001N1-00101-00301999999ADDGA1081+003301999GF108991999999999999999999MA1101391999999MW1101REMMET056METAR LSZC 201320Z VRB02KT 3000 BR OVC011 M01/M03 Q1014;
0130068065999992010012013504+46967+008400FM-15+0450LSZC V0209999V000510033019N0030001N1+00001-00301999999ADDGA1081+003301999GF108991999999999999999999MA1101291999999MW1101REMMET055METAR LSZC 201350Z VRB01KT 3000 BR OVC011 00/M03 Q1013;
0131068065999992010012014204+46967+008400FM-15+0450LSZC V0209999C000010036019N0030001N1-00101-00301999999ADDGA1081+003601999GF108991999999999999999999MA1101291999999MW1101REMMET056METAR LSZC 201420Z 00000KT 3000 BR OVC012 M01/M03 Q1013;
0131068065999992010012014504+46967+008400FM-15+0450LSZC V0209999V001010036019N0030001N1-00101-00301999999ADDGA1081+003601999GF108991999999999999999999MA1101291999999MW1101REMMET056METAR LSZC 201450Z VRB02KT 3000 BR OVC012 M01/M03 Q1013;
0131068065999992010012015204+46967+008400FM-15+0450LSZC V0202501N001510036019N0030001N1-00101-00301999999ADDGA1071+003601999GF107991999999999999999999MA1101291999999MW1101REMMET056METAR LSZC 201520Z 25003KT 3000 BR BKN012 M01/M03 Q1013;
0131068065999992010012015504+46967+008400FM-15+0450LSZC V0202501N002110036019N0030001N1-00201-00301999999ADDGA1071+003601999GF107991999999999999999999MA1101291999999MW1101REMMET056METAR LSZC 201550Z 25004KT 3000 BR BKN012 M02/M03 Q1013;
0153068065999992010012106504+46967+008400FM-15+0450LSZC V0209999V001010360019N0040001N1+00001-00101999999ADDGA1041+003001999GA2081+036001999GF108991999999999999999999MA1101901999999MW1101REMMET062METAR LSZC 210650Z VRB02KT 4000 BR SCT010 OVC120 00/M01 Q1019;
0153068065999992010012107204+46967+008400FM-15+0450LSZC V0209999V001010360019N0050001N1+00001-00101999999ADDGA1021+002401999GA2071+036001999GF107991999999999999999999MA1102001999999MW1101REMMET062METAR LSZC 210720Z VRB02KT 5000 BR FEW008 BKN120 00/M01 Q1020;
0153068065999992010012107504+46967+008400FM-15+0450LSZC V0202601N002110360019N0050001N1+00001-00101999999ADDGA1021+002401999GA2071+036001999GF107991999999999999999999MA1102001999999MW1101REMMET062METAR LSZC 210750Z 26004KT 5000 BR FEW008 BKN120 00/M01 Q1020;
0154068065999992010012108204+46967+008400FM-15+0450LSZC V0202501N002610360019N0050001N1-00101-00201999999ADDGA1021+002401999GA2071+036001999GF107991999999999999999999MA1102001999999MW1101REMMET063METAR LSZC 210820Z 25005KT 5000 BR FEW008 BKN120 M01/M02 Q1020;
0153068065999992010012108504+46967+008400FM-15+0450LSZC V0202701N001510360019N0050001N1+00001-00101999999ADDGA1021+002401999GA2071+036001999GF107991999999999999999999MA1102101999999MW1101REMMET062METAR LSZC 210850Z 27003KT 5000 BR FEW008 BKN120 00/M01 Q1021;
0176068065999992010012109204+46967+008400FM-15+0450LSZC V0209999V00051021001CN0050001N1+00001-00101999999ADDGA1021+002401999GA2041+021001999GA3071+036001999GF107991999999999999999999MA1102101999999MW1101REMMET069METAR LSZC 210920Z VRB01KT 5000 BR FEW008 SCT070 BKN120 00/M01 Q1021;
0153068065999992010012109504+46967+008400FM-15+0450LSZC V0202501N001012200019N0050001N1+00001-00101999999ADDGA1021+013501999GA2041+036001999GF104991999999999999999999MA1102101999999MW1101REMMET062METAR LSZC 210950Z 25002KT 5000 BR FEW045 SCT120 00/M01 Q1021;
0120068065999992010012110204+46967+008400FM-15+0450LSZC V0202001N001012200019N0070001N1+00101+00001999999ADDGA1041+013501999GF104991999999999999999999MA1102101999999REMMET051METAR LSZC 211020Z 20002KT 7000 SCT045 01/00 Q1021;
0120068065999992010012110504+46967+008400FM-15+0450LSZC V0209999C000012200019N0060001N1+00401+00301999999ADDGA1041+013501999GF104991999999999999999999MA1102101999999REMMET051METAR LSZC 211050Z 00000KT 6000 SCT045 04/03 Q1021;
0143068065999992010012112504+46967+008400FM-15+0450LSZC V0209999V001012200019N0080001N1+00401+00101999999ADDGA1021+004201999GA2041+015001999GF104991999999999999999999MA1102001999999REMMET058METAR LSZC 211250Z VRB02KT 8000 FEW014 SCT050 04/01 Q1020;
0151068065999992010012113204+46967+008400FM-15+0450LSZC V0201001N001512200019N0080001N1+00501+00101999999ADDGA1021+004201999GA2041+015001999GF104991999999999999999999MA1102001999999REMMET066METAR LSZC 211320Z 10003KT 070V140 8000 FEW014 SCT050 05/01 Q1020;
0143068065999992010012113504+46967+008400FM-15+0450LSZC V0200701N001512200019N0080001N1+00401+00201999999ADDGA1021+004201999GA2041+015001999GF104991999999999999999999MA1102001999999REMMET058METAR LSZC 211350Z 07003KT 8000 FEW014 SCT050 04/02 Q1020;
0120068065999992010012114504+46967+008400FM-15+0450LSZC V0209999V000512200019N0080001N1+00401+00101999999ADDGA1041+013501999GF104991999999999999999999MA1102101999999REMMET051METAR LSZC 211450Z VRB01KT 8000 SCT045 04/01 Q1021;
0120068065999992010012115204+46967+008400FM-15+0450LSZC V0209999V000512200019N0080001N1+00301+00001999999ADDGA1041+013501999GF104991999999999999999999MA1102101999999REMMET051METAR LSZC 211520Z VRB01KT 8000 SCT045 03/00 Q1021;
0121068065999992010012115504+46967+008400FM-15+0450LSZC V0209999V000510135019N0080001N1+00201-00101999999ADDGA1071+013501999GF107991999999999999999999MA1102101999999REMMET052METAR LSZC 211550Z VRB01KT 8000 BKN045 02/M01 Q1021;
0122068065999992010012206504+46967+008400FM-15+0450LSZC V0202501N002612200019N0112651N1-00501-00701999999ADDGA1021+004501999GF102991999999999999999999MA1102201999999REMMET053METAR LSZC 220650Z 25005KT 9999 FEW015 M05/M07 Q1022;
0122068065999992010012207204+46967+008400FM-15+0450LSZC V0202601N001512200019N0112651N1-00501-00601999999ADDGA1021+004501999GF102991999999999999999999MA1102201999999REMMET053METAR LSZC 220720Z 26003KT 9999 FEW015 M05/M06 Q1022;
0122068065999992010012207504+46967+008400FM-15+0450LSZC V0202401N001512200019N0112651N1-00501-00701999999ADDGA1021+003001999GF102991999999999999999999MA1102201999999REMMET053METAR LSZC 220750Z 24003KT 9999 FEW010 M05/M07 Q1022;
0122068065999992010012208204+46967+008400FM-15+0450LSZC V0202601N002112200019N0112651N1-00401-00601999999ADDGA1021+003601999GF102991999999999999999999MA1102201999999REMMET053METAR LSZC 220820Z 26004KT 9999 FEW012 M04/M06 Q1022;
0122068065999992010012208504+46967+008400FM-15+0450LSZC V0209999V001012200019N0112651N1-00401-00601999999ADDGA1021+004501999GF102991999999999999999999MA1102201999999REMMET053METAR LSZC 220850Z VRB02KT 9999 FEW015 M04/M06 Q1022;
0122068065999992010012209204+46967+008400FM-15+0450LSZC V0202501N001012200019N0112651N1-00401-00501999999ADDGA1021+004501999GF102991999999999999999999MA1102201999999REMMET053METAR LSZC 220920Z 25002KT 9999 FEW015 M04/M05 Q1022;
0122068065999992010012209504+46967+008400FM-15+0450LSZC V0202201N001012200019N0112651N1-00301-00501999999ADDGA1021+004501999GF102991999999999999999999MA1102301999999REMMET053METAR LSZC 220950Z 22002KT 9999 FEW015 M03/M05 Q1023;
0121068065999992010012210204+46967+008400FM-15+0450LSZC V0209999V001012200019N0112651N1+00001-00301999999ADDGA1021+004501999GF102991999999999999999999MA1102201999999REMMET052METAR LSZC 221020Z VRB02KT 9999 FEW015 00/M03 Q1022;
0121068065999992010012210504+46967+008400FM-15+0450LSZC V0209999V001012200019N0112651N1+00101-00301999999ADDGA1021+004501999GF102991999999999999999999MA1102201999999REMMET052METAR LSZC 221050Z VRB02KT 9999 FEW015 01/M03 Q1022;
0129068065999992010012212204+46967+008400FM-15+0450LSZC V0201301N001512200019N0070001N1+00301-00201999999ADDGA1021+004501999GF102991999999999999999999MA1102201999999REMMET060METAR LSZC 221220Z 13003KT 020V190 7000 FEW015 03/M02 Q1022;
0129068065999992010012212504+46967+008400FM-15+0450LSZC V0201601N001512200019N0070001N1+00301-00101999999ADDGA1021+004501999GF102991999999999999999999MA1102201999999REMMET060METAR LSZC 221250Z 16003KT 080V240 7000 FEW015 03/M01 Q1022;
0121068065999992010012213204+46967+008400FM-15+0450LSZC V0209999V001012200019N0070001N1+00301-00201999999ADDGA1021+004501999GF102991999999999999999999MA1102101999999REMMET052METAR LSZC 221320Z VRB02KT 7000 FEW015 03/M02 Q1021;
0121068065999992010012213504+46967+008400FM-15+0450LSZC V0209999V001512200019N0070001N1+00301-00101999999ADDGA1021+004501999GF102991999999999999999999MA1102101999999REMMET052METAR LSZC 221350Z VRB03KT 7000 FEW015 03/M01 Q1021;
0121068065999992010012214204+46967+008400FM-15+0450LSZC V0209999V001012200019N0070001N1+00301-00101999999ADDGA1021+004501999GF102991999999999999999999MA1102201999999REMMET052METAR LSZC 221420Z VRB02KT 7000 FEW015 03/M01 Q1022;
0121068065999992010012214504+46967+008400FM-15+0450LSZC V0201801N002112200019N0070001N1+00201-00201999999ADDGA1021+004501999GF102991999999999999999999MA1102201999999REMMET052METAR LSZC 221450Z 18004KT 7000 FEW015 02/M02 Q1022;
0121068065999992010012215204+46967+008400FM-15+0450LSZC V0201601N000512200019N0070001N1+00101-00201999999ADDGA1021+004501999GF102991999999999999999999MA1102201999999REMMET052METAR LSZC 221520Z 16001KT 7000 FEW015 01/M02 Q1022;
0121068065999992010012215504+46967+008400FM-15+0450LSZC V0201501N001012200019N0070001N1+00001-00201999999ADDGA1021+004501999GF102991999999999999999999MA1102201999999REMMET052METAR LSZC 221550Z 15002KT 7000 FEW015 00/M02 Q1022;
0154068065999992010012506504+46967+008400FM-15+0450LSZC V0202301N001510150019N0045001N1-00101-00301999999ADDGA1021+001501999GA2081+015001999GF108991999999999999999999MA1102301999999MW1101REMMET063METAR LSZC 250650Z 23003KT 4500 BR FEW005 OVC050 M01/M03 Q1023;
0163068065999992010012508504+46967+008400FM-15+0450LSZC V0209999V001510150019N0035001N1+00001-00101999999ADDGA1041+001501999GA2081+015001999GF108991999999999999999999MA1102401999999MW1101MW2711REMMET066METAR LSZC 250850Z VRB03KT 3500 BR -SN SCT005 OVC050 00/M01 Q1024;
0152068065999992010012510204+46967+008400FM-15+0450LSZC V0209999V001010129019N0035001N1+00201+00001999999ADDGA1021+004501999GA2071+012901999GF107991999999999999999999MA1102401999999MW1101REMMET061METAR LSZC 251020Z VRB02KT 3500 BR FEW015 BKN043 02/00 Q1024;
0152068065999992010012510504+46967+008400FM-15+0450LSZC V0202501N001010129019N0035001N1+00201+00001999999ADDGA1021+004501999GA2071+012901999GF107991999999999999999999MA1102401999999MW1101REMMET061METAR LSZC 251050Z 25002KT 3500 BR FEW015 BKN043 02/00 Q1024;
0129068065999992010012512504+46967+008400FM-15+0450LSZC V0209999V000510045019N0040001N1+00301+00001999999ADDGA1081+004501999GF108991999999999999999999MA1102401999999MW1101REMMET054METAR LSZC 251250Z VRB01KT 4000 BR OVC015 03/00 Q1024;
0129068065999992010012513204+46967+008400FM-15+0450LSZC V0202301N001510045019N0050001N1+00301+00001999999ADDGA1081+004501999GF108991999999999999999999MA1102401999999MW1101REMMET054METAR LSZC 251320Z 23003KT 5000 BR OVC015 03/00 Q1024;
0129068065999992010012513504+46967+008400FM-15+0450LSZC V0209999V001010045019N0050001N1+00301+00001999999ADDGA1081+004501999GF108991999999999999999999MA1102401999999MW1101REMMET054METAR LSZC 251350Z VRB02KT 5000 BR OVC015 03/00 Q1024;
0152068065999992010012514204+46967+008400FM-15+0450LSZC V0209999V000510042019N0040001N1+00301+00001999999ADDGA1041+003001999GA2081+004201999GF108991999999999999999999MA1102511999999MW1101REMMET061METAR LSZC 251420Z VRB01KT 4000 BR SCT010 OVC014 03/00 Q1025;
0162068065999992010012515504+46967+008400FM-15+0450LSZC V0201201N000510042019N0040001N1+00201+00001999999ADDGA1041+003001999GA2081+004201999GF108991999999999999999999MA1102511999999MW1101MW2511REMMET065METAR LSZC 251550Z 12001KT 4000 BR -DZ SCT010 OVC014 02/00 Q1025;
0153068065999992010012606504+46967+008400FM-15+0450LSZC V0203301N004610033019N0035001N1+00101-00101999999ADDGA1041+002401999GA2081+003301999GF108991999999999999999999MA1102711999999MW1101REMMET062METAR LSZC 260650Z 33009KT 3500 BR SCT008 OVC011 01/M01 Q1027;
0161068065999992010012607204+46967+008400FM-15+0450LSZC V0203301N005110033019N0035001N1+00001-00201999999ADDGA1041+002401999GA2081+003301999GF108991999999999999999999MA1102711999999MW1101REMMET070METAR LSZC 260720Z 33010KT 310V020 3500 BR SCT008 OVC011 00/M02 Q1027;
0174068065999992010012607504+46967+008400FM-15+0450LSZC V0209999V002610033019N0035001N1+00001-00201999999ADDGA1041+002401999GA2081+003301999GF108991999999999999999999MA1102811999999MW1101MW2711OC100931REMMET069METAR LSZC 260750Z VRB05G18KT 3500 BR -SN SCT008 OVC011 00/M02 Q1028;
0181068065999992010012608204+46967+008400FM-15+0450LSZC V0203201N004110030019N0030001N1+00001-00201999999ADDGA1071+003001999GA2081+005401999GF108991999999999999999999MA1102811999999MW1101MW2731OC101031REMMET076METAR LSZC 260820Z 32008G20KT 280V030 3000 BR SN BKN010 OVC018 00/M02 Q1028;
0146068065999992010012608504+46967+008400FM-15+0450LSZC V0203101N005110021019N0012001N1+00001-00201999999ADDGA1091+002101999GF109991999999000251999999MA1102811999999MW1101MW2731REMMET065METAR LSZC 260850Z 31010KT 260V350 1200 BR SN VV007 00/M02 Q1028;
0137068065999992010012609204+46967+008400FM-15+0450LSZC V0202101N001510009019N0009001N1+00001-00101999999ADDGA1091+000901999GF109991999999000251999999MA1102811999999MW1731REMMET062METAR LSZC 260920Z 21003KT 150V260 0900 SN VV003 00/M01 Q1028;
0130068065999992010012609504+46967+008400FM-15+0450LSZC V0209999V001510018019N0010001N1-00101-00101999999ADDGA1091+001801999GF109991999999000251999999MA1102811999999MW1731REMMET055METAR LSZC 260950Z VRB03KT 1000 SN VV006 M01/M01 Q1028;
0154068065999992010012610204+46967+008400FM-15+0450LSZC V0202301N001510045019N0014001N1-00101-00101999999ADDGA1041+002701999GA2081+004501999GF108991999999999999999999MA1102811999999MW1731REMMET063METAR LSZC 261020Z 23003KT 1400 SN SCT009 OVC015 M01/M01 Q1028;
0154068065999992010012610504+46967+008400FM-15+0450LSZC V0209999V001010045019N0030001N1+00001-00101999999ADDGA1041+002701999GA2081+004501999GF108991999999999999999999MA1102811999999MW1711REMMET063METAR LSZC 261050Z VRB02KT 3000 -SN SCT009 OVC015 00/M01 Q1028;
0171068065999992010012612204+46967+008400FM-15+0450LSZC V0203201N004110072019N0030001N1+00001-00201999999ADDGA1041+002701999GA2081+007201999GF108991999999999999999999MA1102711999999MW1711REMMET080METAR LSZC 261220Z 32008KT 280V360 3000 -SN SCT009 OVC024 00/M02 Q1027 88593099;
0171068065999992010012612504+46967+008400FM-15+0450LSZC V0203401N005110072019N0030001N1+00001-00201999999ADDGA1041+002701999GA2081+007201999GF108991999999999999999999MA1102611999999MW1711REMMET080METAR LSZC 261250Z 34010KT 300V010 3000 -SN SCT009 OVC024 00/M02 Q1026 88593099;
0163068065999992010012613204+46967+008400FM-15+0450LSZC V0203301N006710072019N0030001N1+00001-00201999999ADDGA1041+002701999GA2081+007201999GF108991999999999999999999MA1102611999999MW1711REMMET072METAR LSZC 261320Z 33013KT 3000 -SN SCT009 OVC024 00/M02 Q1026 88593099;
0172068065999992010012613504+46967+008400FM-15+0450LSZC V0203201N004610054019N0030001N1-00101-00301999999ADDGA1041+003001999GA2081+005401999GF108991999999999999999999MA1102611999999MW1711REMMET081METAR LSZC 261350Z 32009KT 280V360 3000 -SN SCT010 OVC018 M01/M03 Q1026 88593099;
0172068065999992010012614204+46967+008400FM-15+0450LSZC V0203201N004610054019N0025001N1-00101-00301999999ADDGA1041+003001999GA2081+005401999GF108991999999999999999999MA1102611999999MW1711REMMET081METAR LSZC 261420Z 32009KT 280V360 2500 -SN SCT010 OVC018 M01/M03 Q1026 88593099;
0171068065999992010012614504+46967+008400FM-15+0450LSZC V0203101N004110054019N0030001N1-00101-00301999999ADDGA1041+003001999GA2081+005401999GF108991999999999999999999MA1102611999999MW1731REMMET080METAR LSZC 261450Z 31008KT 290V350 3000 SN SCT010 OVC018 M01/M03 Q1026 88593099;
0174068065999992010012615204+46967+008400FM-15+0450LSZC V0203301N005710054019N0030001N1-00101-00301999999ADDGA1041+003001999GA2081+005401999GF108991999999999999999999MA1102611999999MW1711OC101131REMMET075METAR LSZC 261520Z 33011G22KT 280V010 3000 -SN SCT010 OVC018 M01/M03 Q1026;
0163068065999992010012615504+46967+008400FM-15+0450LSZC V0203301N004610054019N0030001N1-00101-00301999999ADDGA1041+003001999GA2081+005401999GF108991999999999999999999MA1102611999999MW1711REMMET072METAR LSZC 261550Z 33009KT 300V010 3000 -SN SCT010 OVC018 M01/M03 Q1026;
0154068065999992010012706504+46967+008400FM-15+0450LSZC V0202101N001510084019N0030001N1-00401-00601999999ADDGA1041+004801999GA2081+008401999GF108991999999999999999999MA1102611999999MW1101REMMET063METAR LSZC 270650Z 21003KT 3000 BR SCT016 OVC028 M04/M06 Q1026;
0154068065999992010012707204+46967+008400FM-15+0450LSZC V0203201N004110084019N0035001N1-00401-00601999999ADDGA1041+004801999GA2081+008401999GF108991999999999999999999MA1102711999999MW1101REMMET063METAR LSZC 270720Z 32008KT 3500 BR SCT016 OVC028 M04/M06 Q1027;
0139068065999992010012707504+46967+008400FM-15+0450LSZC V0203201N003610048019N0035001N1-00401-00701999999ADDGA1081+004801999GF108991999999999999999999MA1102711999999MW1101REMMET064METAR LSZC 270750Z 32007KT 260V340 3500 BR OVC016 M04/M07 Q1027;
0131068065999992010012708204+46967+008400FM-15+0450LSZC V0209999V001510048019N0035001N1-00401-00701999999ADDGA1081+004801999GF108991999999999999999999MA1102711999999MW1101REMMET056METAR LSZC 270820Z VRB03KT 3500 BR OVC016 M04/M07 Q1027;
0131068065999992010012708504+46967+008400FM-15+0450LSZC V0209999V000510048019N0035001N1-00401-00701999999ADDGA1081+004801999GF108991999999999999999999MA1102711999999MW1101REMMET056METAR LSZC 270850Z VRB01KT 3500 BR OVC016 M04/M07 Q1027;
0131068065999992010012709204+46967+008400FM-15+0450LSZC V0209999V001510048019N0035001N1-00401-00701999999ADDGA1081+004801999GF108991999999999999999999MA1102711999999MW1101REMMET056METAR LSZC 270920Z VRB03KT 3500 BR OVC016 M04/M07 Q1027;
0131068065999992010012709504+46967+008400FM-15+0450LSZC V0209999V001010048019N0035001N1-00401-00701999999ADDGA1081+004801999GF108991999999999999999999MA1102711999999MW1101REMMET056METAR LSZC 270950Z VRB02KT 3500 BR OVC016 M04/M07 Q1027;
0131068065999992010012710204+46967+008400FM-15+0450LSZC V0209999V001010048019N0035001N1-00401-00701999999ADDGA1081+004801999GF108991999999999999999999MA1102611999999MW1101REMMET056METAR LSZC 271020Z VRB02KT 3500 BR OVC016 M04/M07 Q1026;
0139068065999992010012710504+46967+008400FM-15+0450LSZC V0203101N002610051019N0035001N1-00401-00701999999ADDGA1081+005101999GF108991999999999999999999MA1102711999999MW1101REMMET064METAR LSZC 271050Z 31005KT 280V360 3500 BR OVC017 M04/M07 Q1027;
0131068065999992010012712204+46967+008400FM-15+0450LSZC V0209999V001010051019N0040001N1-00401-00701999999ADDGA1081+005101999GF108991999999999999999999MA1102511999999MW1101REMMET056METAR LSZC 271220Z VRB02KT 4000 BR OVC017 M04/M07 Q1025;
0131068065999992010012712504+46967+008400FM-15+0450LSZC V0209999V001510048019N0040001N1-00401-00701999999ADDGA1081+004801999GF108991999999999999999999MA1102511999999MW1101REMMET056METAR LSZC 271250Z VRB03KT 4000 BR OVC016 M04/M07 Q1025;
0131068065999992010012713204+46967+008400FM-15+0450LSZC V0209999V001010051019N0035001N1-00301-00701999999ADDGA1081+005101999GF108991999999999999999999MA1102401999999MW1101REMMET056METAR LSZC 271320Z VRB02KT 3500 BR OVC017 M03/M07 Q1024;
0154068065999992010012713504+46967+008400FM-15+0450LSZC V0209999V001510069019N0035001N1-00401-00701999999ADDGA1041+005101999GA2081+006901999GF108991999999999999999999MA1102401999999MW1101REMMET063METAR LSZC 271350Z VRB03KT 3500 BR SCT017 OVC023 M04/M07 Q1024;
0154068065999992010012714204+46967+008400FM-15+0450LSZC V0209999V000510066019N0035001N1-00301-00701999999ADDGA1041+005101999GA2081+006601999GF108991999999999999999999MA1102401999999MW1101REMMET063METAR LSZC 271420Z VRB01KT 3500 BR SCT017 OVC022 M03/M07 Q1024;
0154068065999992010012714504+46967+008400FM-15+0450LSZC V0209999C000010066019N0035001N1-00301-00701999999ADDGA1041+005101999GA2071+006601999GF107991999999999999999999MA1102301999999MW1101REMMET063METAR LSZC 271450Z 00000KT 3500 BR SCT017 BKN022 M03/M07 Q1023;
0154068065999992010012715204+46967+008400FM-15+0450LSZC V0202701N001010066019N0035001N1-00401-00701999999ADDGA1041+005101999GA2071+006601999GF107991999999999999999999MA1102301999999MW1101REMMET063METAR LSZC 271520Z 27002KT 3500 BR SCT017 BKN022 M04/M07 Q1023;
0154068065999992010012715504+46967+008400FM-15+0450LSZC V0202301N001010057019N0035001N1-00401-00601999999ADDGA1041+005101999GA2081+005701999GF108991999999999999999999MA1102401999999MW1101REMMET063METAR LSZC 271550Z 23002KT 3500 BR SCT017 OVC019 M04/M06 Q1024;
0139068065999992010012806504+46967+008400FM-15+0450LSZC V0209999V000510015019N0008001N1-00401-00401999999ADDGA1091+001501999GF109991999999000251999999MA1101191999999MW1731REMMET064METAR LSZC 280650Z VRB01KT 0800 SN VV005 M04/M04 Q1012 884990//;
0137068065999992010012807504+46967+008400FM-15+0450LSZC V0209999V001010012019N0006001N1-00301-00401999999ADDGA1091+001201999GF109991999999000251999999MA1101081999999MW1731REMMET062METAR LSZC 280750Z VRB02KT 0600 SN VV004 M03/M04 Q1011 SNOCLO;
0137068065999992010012808204+46967+008400FM-15+0450LSZC V0203601N000510012019N0006001N1-00301-00401999999ADDGA1091+001201999GF109991999999000251999999MA1101191999999MW1731REMMET062METAR LSZC 280820Z 36001KT 0600 SN VV004 M03/M04 Q1012 SNOCLO;
0138068065999992010012808504+46967+008400FM-15+0450LSZC V0202501N002110024019N0010001N1-00301-00301999999ADDGA1091+002401999GF109991999999000251999999MA1101191999999MW1711REMMET063METAR LSZC 280850Z 25004KT 1000 -SN VV008 M03/M03 Q1012 SNOCLO;
0138068065999992010012809204+46967+008400FM-15+0450LSZC V0202601N002110012019N0007001N1-00301-00301999999ADDGA1091+001201999GF109991999999000251999999MA1101081999999MW1751REMMET063METAR LSZC 280920Z 26004KT 0700 +SN VV004 M03/M03 Q1011 SNOCLO;
0137068065999992010012809504+46967+008400FM-15+0450LSZC V0202701N002110033019N0015001N1-00201-00301999999ADDGA1091+003301999GF109991999999000251999999MA1101081999999MW1731REMMET062METAR LSZC 280950Z 27004KT 1500 SN VV011 M02/M03 Q1011 SNOCLO;
0137068065999992010012810204+46967+008400FM-15+0450LSZC V0202401N001510030019N0015001N1-00201-00301999999ADDGA1091+003001999GF109991999999000251999999MA1101191999999MW1731REMMET062METAR LSZC 281020Z 24003KT 1500 SN VV010 M02/M03 Q1012 SNOCLO;
0137068065999992010012810504+46967+008400FM-15+0450LSZC V0202601N001010015019N0009001N1-00201-00301999999ADDGA1091+001501999GF109991999999000251999999MA1101081999999MW1731REMMET062METAR LSZC 281050Z 26002KT 0900 SN VV005 M02/M03 Q1011 SNOCLO;
0137068065999992010012812204+46967+008400FM-15+0450LSZC V0202501N001510030019N0013001N1-00201-00301999999ADDGA1091+003001999GF109991999999000251999999MA1101021999999MW1731REMMET062METAR LSZC 281220Z 25003KT 1300 SN VV010 M02/M03 Q1010 SNOCLO;
0139068065999992010012812504+46967+008400FM-15+0450LSZC V0202401N002610030019N0013001N1-00201-00301999999ADDGA1091+003001999GF109991999999000251999999MA1101021999999MW1731REMMET064METAR LSZC 281250Z 24005KT 1300 SN VV010 M02/M03 Q1010 25//99//;
0164068065999992010012813204+46967+008400FM-15+0450LSZC V0202501N002110045019N0025001N1-00201-00301999999ADDGA1041+003001999GA2081+004501999GF108991999999999999999999MA1100911999999MW1711REMMET073METAR LSZC 281320Z 25004KT 2500 -SN SCT010 OVC015 M02/M03 Q1009 25//99//;
0164068065999992010012813504+46967+008400FM-15+0450LSZC V0202401N002110045019N0020001N1-00201-00301999999ADDGA1071+004501999GA2081+014401999GF108991999999999999999999MA1100911999999MW1711REMMET073METAR LSZC 281350Z 24004KT 2000 -SN BKN015 OVC048 M02/M03 Q1009 25//99//;
0164068065999992010012814204+46967+008400FM-15+0450LSZC V0202701N000510033019N0020001N1-00101-00201999999ADDGA1071+003301999GA2081+014401999GF108991999999999999999999MA1100911999999MW1711REMMET073METAR LSZC 281420Z 27001KT 2000 -SN BKN011 OVC048 M01/M02 Q1009 25//99//;
0140068065999992010012814504+46967+008400FM-15+0450LSZC V0209999V000510030019N0015001N1-00101-00201999999ADDGA1091+003001999GF109991999999000251999999MA1100911999999MW1711REMMET065METAR LSZC 281450Z VRB01KT 1500 -SN VV010 M01/M02 Q1009 25//99//;
0140068065999992010012815204+46967+008400FM-15+0450LSZC V0209999V000510030019N0015001N1-00101-00201999999ADDGA1091+003001999GF109991999999000251999999MA1100911999999MW1711REMMET065METAR LSZC 281520Z VRB01KT 1500 -SN VV010 M01/M02 Q1009 25//99//;
0139068065999992010012815504+46967+008400FM-15+0450LSZC V0209999V000510030019N0012001N1-00101-00201999999ADDGA1091+003001999GF109991999999000251999999MA1100911999999MW1731REMMET064METAR LSZC 281550Z VRB01KT 1200 SN VV010 M01/M02 Q1009 25//99//;
0122068065999992010012906504+46967+008400FM-15+0450LSZC V0209999V001510150019N0112651N1-00201-00401999999ADDGA1081+015001999GF108991999999999999999999MA1100001999999REMMET053METAR LSZC 290650Z VRB03KT 9999 OVC050 M02/M04 Q1000;
0154068065999992010012907204+46967+008400FM-15+0450LSZC V0209999V000510150019N0112651N1-00201-00401999999ADDGA1021+003001999GA2081+015001999GF108991999999999999999999MA1099901999999REMMET069METAR LSZC 290720Z VRB01KT 9999 FEW010 OVC050 M02/M04 Q0999 88798091;
0154068065999992010012908204+46967+008400FM-15+0450LSZC V0209999V001010150019N0112651N1-00101-00401999999ADDGA1021+003001999GA2081+015001999GF108991999999999999999999MA1099901999999REMMET069METAR LSZC 290820Z VRB02KT 9999 FEW010 OVC050 M01/M04 Q0999 88798091;
0153068065999992010012908504+46967+008400FM-15+0450LSZC V0209999V000510090019N0080001N1+00001-00301999999ADDGA1021+003001999GA2081+009001999GF108991999999999999999999MA1099901999999REMMET068METAR LSZC 290850Z VRB01KT 8000 FEW010 OVC030 00/M03 Q0999 88798091;
0131068065999992010012909204+46967+008400FM-15+0450LSZC V0202401N001010120019N0080001N1-00101-00301999999ADDGA1081+012001999GF108991999999999999999999MA1099801999999REMMET062METAR LSZC 290920Z 24002KT 8000 OVC040 M01/M03 Q0998 88798091;
0130068065999992010012909504+46967+008400FM-15+0450LSZC V0202701N002110105019N0080001N1+00001-00301999999ADDGA1081+010501999GF108991999999999999999999MA1099801999999REMMET061METAR LSZC 290950Z 27004KT 8000 OVC035 00/M03 Q0998 88798091;
0130068065999992010012910204+46967+008400FM-15+0450LSZC V0203001N000510135019N0112651N1+00001-00301999999ADDGA1081+013501999GF108991999999999999999999MA1099701999999REMMET061METAR LSZC 291020Z 30001KT 9999 OVC045 00/M03 Q0997 88798091;
0140068065999992010012910504+46967+008400FM-15+0450LSZC V0209999V000510135019N0090001N1+00101-00301999999ADDGA1081+013501999GF108991999999999999999999MA1099701999999MW1711REMMET065METAR LSZC 291050Z VRB01KT 9000 -SN OVC045 01/M03 Q0997 88798091;
0130068065999992010012912204+46967+008400FM-15+0450LSZC V0200601N001510135019N0090001N1+00101-00301999999ADDGA1081+013501999GF108991999999999999999999MA1099391999999REMMET061METAR LSZC 291220Z 06003KT 9000 OVC045 01/M03 Q0994 88556094;
0098068065999992010012912504+46967+008400FM-15+0450LSZC V0200701N001512200019N0050001N1+00101-00201999999ADDMA1099291999999MW1101REMMET065METAR LSZC 291250Z 07003KT 040V110 5000 BR 01/M02 Q0993 88556094;
0147068065999992010012913204+46967+008400FM-15+0450LSZC V0200501N001510030019N0030001N1+00101-00201999999ADDGA1081+003001999GF108991999999999999999999MA1099191999999MW1101REMMET072METAR LSZC 291320Z 05003KT 020V090 3000 BR OVC010 01/M02 Q0992 88556094;
0149068065999992010012913504+46967+008400FM-15+0450LSZC V0209999V001010024019N0015001N1+00001-00101999999ADDGA1081+002401999GF108991999999999999999999MA1099191999999MW1101MW2711REMMET068METAR LSZC 291350Z VRB02KT 1500 BR -SN OVC008 00/M01 Q0992 88556094;
0148068065999992010012914204+46967+008400FM-15+0450LSZC V0209999C000010024019N0015001N1+00001-00101999999ADDGA1081+002401999GF108991999999999999999999MA1099091999999MW1101MW2731REMMET067METAR LSZC 291420Z 00000KT 1500 BR SN OVC008 00/M01 Q0991 88556094;
0129068065999992010012914504+46967+008400FM-15+0450LSZC V0202301N000510030019N0015001N1+00001-00101999999ADDGA1091+003001999GF109991999999000251999999MA1099091999999MW1731REMMET054METAR LSZC 291450Z 23001KT 1500 SN VV010 00/M01 Q0991;
0130068065999992010012915204+46967+008400FM-15+0450LSZC V0202601N001510018019N0009001N1+00001-00101999999ADDGA1091+001801999GF109991999999000251999999MA1099091999999MW1751REMMET055METAR LSZC 291520Z 26003KT 0900 +SN VV006 00/M01 Q0991;
0130068065999992010012915504+46967+008400FM-15+0450LSZC V0209999V000510012019N0007001N1+00001-00101999999ADDGA1091+001201999GF109991999999000251999999MA1098981999999MW1751REMMET055METAR LSZC 291550Z VRB01KT 0700 +SN VV004 00/M01 Q0990;
0122068065999992010020106504+46967+008400FM-15+0450LSZC V0202601N003112200019N0112651N1-01201-01301999999ADDGA1021+012001999GF102991999999999999999999MA1101391999999REMMET053METAR LSZC 010650Z 26006KT 9999 FEW040 M12/M13 Q1014;
0122068065999992010020107204+46967+008400FM-15+0450LSZC V0202701N003612200019N0112651N1-01101-01201999999ADDGA1021+012001999GF102991999999999999999999MA1101391999999REMMET053METAR LSZC 010720Z 27007KT 9999 FEW040 M11/M12 Q1014;
0145068065999992010020107504+46967+008400FM-15+0450LSZC V0202601N003112200019N0112651N1-01101-01201999999ADDGA1021+012001999GA2041+060001999GF104991999999999999999999MA1101391999999REMMET060METAR LSZC 010750Z 26006KT 9999 FEW040 SCT200 M11/M12 Q1014;
0145068065999992010020108204+46967+008400FM-15+0450LSZC V0202301N002612200019N0112651N1-01201-01301999999ADDGA1021+006001999GA2041+060001999GF104991999999999999999999MA1101391999999REMMET060METAR LSZC 010820Z 23005KT 9999 FEW020 SCT200 M12/M13 Q1014;
0145068065999992010020108504+46967+008400FM-15+0450LSZC V0202501N002112200019N0112651N1-01201-01301999999ADDGA1021+006001999GA2041+060001999GF104991999999999999999999MA1101391999999REMMET060METAR LSZC 010850Z 25004KT 9999 FEW020 SCT200 M12/M13 Q1014;
0145068065999992010020109204+46967+008400FM-15+0450LSZC V0202401N001512200019N0112651N1-00901-01201999999ADDGA1021+009001999GA2041+060001999GF104991999999999999999999MA1101391999999REMMET060METAR LSZC 010920Z 24003KT 9999 FEW030 SCT200 M09/M12 Q1014;
0153068065999992010020109504+46967+008400FM-15+0450LSZC V0202101N001512200019N0112651N1-00801-01101999999ADDGA1021+009001999GA2041+060001999GF104991999999999999999999MA1101391999999REMMET068METAR LSZC 010950Z 21003KT 170V240 9999 FEW030 SCT200 M08/M11 Q1014;
0145068065999992010020110204+46967+008400FM-15+0450LSZC V0202301N001010600019N0112651N1-00601-01001999999ADDGA1021+009001999GA2071+060001999GF107991999999999999999999MA1101391999999REMMET060METAR LSZC 011020Z 23002KT 9999 FEW030 BKN200 M06/M10 Q1014;
0168068065999992010020110504+46967+008400FM-15+0450LSZC V0209999V00051030001CN0112651N1-00401-00901999999ADDGA1021+009001999GA2041+030001999GA3071+060001999GF107991999999999999999999MA1101391999999REMMET067METAR LSZC 011050Z VRB01KT 9999 FEW030 SCT100 BKN200 M04/M09 Q1014;
0122068065999992010020112204+46967+008400FM-15+0450LSZC V0202501N000510270019N0112651N1-00401-00901999999ADDGA1081+027001999GF108991999999999999999999MA1101391999999REMMET053METAR LSZC 011220Z 25001KT 9999 OVC094 M04/M09 Q1014;
0122068065999992010020112504+46967+008400FM-15+0450LSZC V0203101N001010270019N0112651N1-00301-00801999999ADDGA1081+027001999GF108991999999999999999999MA1101391999999REMMET053METAR LSZC 011250Z 31002KT 9999 OVC094 M03/M08 Q1014;
0145068065999992010020113204+46967+008400FM-15+0450LSZC V0209999V000510270019N0112651N1-00201-00801999999ADDGA1071+027001999GA2081+060001999GF108991999999999999999999MA1101291999999REMMET060METAR LSZC 011320Z VRB01KT 9999 BKN090 OVC200 M02/M08 Q1013;
0122068065999992010020113504+46967+008400FM-15+0450LSZC V0201901N001510270019N0112651N1-00301-00801999999ADDGA1081+027001999GF108991999999999999999999MA1101391999999REMMET053METAR LSZC 011350Z 19003KT 9999 OVC090 M03/M08 Q1014;
0122068065999992010020114204+46967+008400FM-15+0450LSZC V0202501N001510210019N0112651N1-00301-00801999999ADDGA1081+021001999GF108991999999999999999999MA1101391999999REMMET053METAR LSZC 011420Z 25003KT 9999 OVC070 M03/M08 Q1014;
0122068065999992010020114504+46967+008400FM-15+0450LSZC V0209999V000510150019N0112651N1-00301-00801999999ADDGA1081+015001999GF108991999999999999999999MA1101391999999REMMET053METAR LSZC 011450Z VRB01KT 9999 OVC050 M03/M08 Q1014;
0122068065999992010020115204+46967+008400FM-15+0450LSZC V0209999V000510150019N0112651N1-00301-00801999999ADDGA1081+015001999GF108991999999999999999999MA1101391999999REMMET053METAR LSZC 011520Z VRB01KT 9999 OVC050 M03/M08 Q1014;
0133068065999992010020115504+46967+008400FM-15+0450LSZC V0209999C000010120019N0112651N1-00301-00801999999ADDGA1081+012001999GF108991999999999999999999MA1101391999999MW1161REMMET058METAR LSZC 011550Z 00000KT 9999 VCSH OVC040 M03/M08 Q1014;
0122068065999992010020206204+46967+008400FM-15+0450LSZC V0209999V000510390019N0112651N1-00201-00801999999ADDGA1071+039001999GF107991999999999999999999MA1102101999999REMMET053METAR LSZC 020620Z VRB01KT 9999 BKN130 M02/M08 Q1021;
0122068065999992010020207204+46967+008400FM-15+0450LSZC V0209999V000510390019N0112651N1-00301-00801999999ADDGA1071+039001999GF107991999999999999999999MA1102101999999REMMET053METAR LSZC 020720Z VRB01KT 9999 BKN130 M03/M08 Q1021;
0122068065999992010020207504+46967+008400FM-15+0450LSZC V0209999V000510210019N0112651N1-00201-00801999999ADDGA1071+021001999GF107991999999999999999999MA1102101999999REMMET053METAR LSZC 020750Z VRB01KT 9999 BKN077 M02/M08 Q1021;
0122068065999992010020208204+46967+008400FM-15+0450LSZC V0209999V001010210019N0112651N1-00201-00801999999ADDGA1071+021001999GF107991999999999999999999MA1102101999999REMMET053METAR LSZC 020820Z VRB02KT 9999 BKN077 M02/M08 Q1021;
0122068065999992010020208504+46967+008400FM-15+0450LSZC V0209999V001010210019N0112651N1-00201-00701999999ADDGA1071+021001999GF107991999999999999999999MA1102101999999REMMET053METAR LSZC 020850Z VRB02KT 9999 BKN072 M02/M07 Q1021;
0122068065999992010020209504+46967+008400FM-15+0450LSZC V0202701N00211999999CN0112651N1-00201-00601999999ADDGA1071+999999999GF107991999999999999999999MA1102001999999REMMET053METAR LSZC 020950Z 27004KT 9999 BKN/// M02/M06 Q1020;
0121068065999992010020210204+46967+008400FM-15+0450LSZC V0209999V000510270019N0112651N1+00101-00601999999ADDGA1071+027001999GF107991999999999999999999MA1102001999999REMMET052METAR LSZC 021020Z VRB01KT 9999 BKN090 01/M06 Q1020;
0121068065999992010020210504+46967+008400FM-15+0450LSZC V0209999C000010210019N0112651N1+00401-00601999999ADDGA1081+021001999GF108991999999999999999999MA1102001999999REMMET052METAR LSZC 021050Z 00000KT 9999 OVC075 04/M06 Q1020;
0144068065999992010020211504+46967+008400FM-15+0450LSZC V0209999C000010240019N0112651N1+00301-00601999999ADDGA1021+015001999GA2071+024001999GF107991999999999999999999MA1101901999999REMMET059METAR LSZC 021150Z 00000KT 9999 FEW050 BKN087 03/M06 Q1019;
0144068065999992010020212204+46967+008400FM-15+0450LSZC V0209999C000010660019N0112651N1+00201-00601999999ADDGA1021+015001999GA2071+066001999GF107991999999999999999999MA1101801999999REMMET059METAR LSZC 021220Z 00000KT 9999 FEW050 BKN220 02/M06 Q1018;
0144068065999992010020212504+46967+008400FM-15+0450LSZC V0209999V001010660019N0112651N1+00201-00601999999ADDGA1021+015001999GA2071+066001999GF107991999999999999999999MA1101801999999REMMET059METAR LSZC 021250Z VRB02KT 9999 FEW050 BKN220 02/M06 Q1018;
0144068065999992010020213204+46967+008400FM-15+0450LSZC V0209999V000510660019N0112651N1+00201-00601999999ADDGA1021+015001999GA2081+066001999GF108991999999999999999999MA1101801999999REMMET059METAR LSZC 021320Z VRB01KT 9999 FEW050 OVC220 02/M06 Q1018;
0144068065999992010020213504+46967+008400FM-15+0450LSZC V0209999C000010450019N0112651N1+00201-00501999999ADDGA1021+015001999GA2081+045001999GF108991999999999999999999MA1101801999999REMMET059METAR LSZC 021350Z 00000KT 9999 FEW050 OVC150 02/M05 Q1018;
0121068065999992010020214204+46967+008400FM-15+0450LSZC V0209999V000510210019N0112651N1+00101-00501999999ADDGA1081+021001999GF108991999999999999999999MA1101801999999REMMET052METAR LSZC 021420Z VRB01KT 9999 OVC070 01/M05 Q1018;
0121068065999992010020214504+46967+008400FM-15+0450LSZC V0209999C000010210019N0112651N1+00101-00501999999ADDGA1081+021001999GF108991999999999999999999MA1101691999999REMMET052METAR LSZC 021450Z 00000KT 9999 OVC070 01/M05 Q1017;
0121068065999992010020215204+46967+008400FM-15+0450LSZC V0209999V000510210019N0112651N1+00101-00401999999ADDGA1081+021001999GF108991999999999999999999MA1101691999999REMMET052METAR LSZC 021520Z VRB01KT 9999 OVC070 01/M04 Q1017;
0121068065999992010020215504+46967+008400FM-15+0450LSZC V0209999V000510210019N0112651N1+00101-00501999999ADDGA1081+021001999GF108991999999999999999999MA1101691999999REMMET052METAR LSZC 021550Z VRB01KT 9999 OVC070 01/M05 Q1017;
0121068065999992010020306504+46967+008400FM-15+0450LSZC V0209999V001010090019N0112651N1+00301-00101999999ADDGA1081+009001999GF108991999999999999999999MA1101291999999REMMET052METAR LSZC 030650Z VRB02KT 9999 OVC030 03/M01 Q1013;
0120068065999992010020307204+46967+008400FM-15+0450LSZC V0209999V000510090019N0112651N1+00301+00001999999ADDGA1081+009001999GF108991999999999999999999MA1101291999999REMMET051METAR LSZC 030720Z VRB01KT 9999 OVC030 03/00 Q1013;
0120068065999992010020307504+46967+008400FM-15+0450LSZC V0209999V001510105019N0112651N1+00201+00001999999ADDGA1081+010501999GF108991999999999999999999MA1101291999999REMMET051METAR LSZC 030750Z VRB03KT 9999 OVC035 02/00 Q1013;
0143068065999992010020309204+46967+008400FM-15+0450LSZC V0200401N003110150019N0112651N1+00301+00001999999ADDGA1021+010501999GA2081+015001999GF108991999999999999999999MA1101391999999REMMET058METAR LSZC 030920Z 04006KT 9999 FEW035 OVC056 03/00 Q1014;
0143068065999992010020310504+46967+008400FM-15+0450LSZC V0200601N002610150019N0112651N1+00301+00101999999ADDGA1021+010501999GA2081+015001999GF108991999999999999999999MA1101491999999REMMET058METAR LSZC 031050Z 06005KT 9999 FEW035 OVC056 03/01 Q1015;
0128068065999992010020313504+46967+008400FM-15+0450LSZC V0200501N003110150019N0112651N1+00601+00101999999ADDGA1081+015001999GF108991999999999999999999MA1101391999999REMMET059METAR LSZC 031350Z 05006KT 020V100 9999 OVC056 06/01 Q1014;
0151068065999992010020314204+46967+008400FM-15+0450LSZC V0200601N003110180019N0112651N1+00601+00101999999ADDGA1041+013501999GA2071+018001999GF107991999999999999999999MA1101491999999REMMET066METAR LSZC 031420Z 06006KT 330V110 9999 SCT045 BKN066 06/01 Q1015;
0143068065999992010020314504+46967+008400FM-15+0450LSZC V0200701N004610180019N0112651N1+00701+00001999999ADDGA1041+013501999GA2071+018001999GF107991999999999999999999MA1101491999999REMMET058METAR LSZC 031450Z 07009KT 9999 SCT045 BKN066 07/00 Q1015;
0143068065999992010020315504+46967+008400FM-15+0450LSZC V0209999V001010180019N0112651N1+00601+00101999999ADDGA1041+013501999GA2071+018001999GF107991999999999999999999MA1101491999999REMMET058METAR LSZC 031550Z VRB02KT 9999 SCT045 BKN066 06/01 Q1015;
0074068065999992010020406204+46967+008400FM-15+0450LSZC V0202601N001519999999Y0099001N1-00501-00601999999ADDMA1101491999999REMMET047METAR LSZC 040620Z 26003KT CAVOK M05/M06 Q1015;
0074068065999992010020406504+46967+008400FM-15+0450LSZC V0202601N002119999999Y0099001N1-00501-00601999999ADDMA1101491999999REMMET047METAR LSZC 040650Z 26004KT CAVOK M05/M06 Q1015;
0074068065999992010020407504+46967+008400FM-15+0450LSZC V0202401N002119999999Y0099001N1-00401-00501999999ADDMA1101491999999REMMET047METAR LSZC 040750Z 24004KT CAVOK M04/M05 Q1015;
0074068065999992010020408204+46967+008400FM-15+0450LSZC V0202401N002119999999Y0099001N1-00501-00601999999ADDMA1101491999999REMMET047METAR LSZC 040820Z 24004KT CAVOK M05/M06 Q1015;
0074068065999992010020408504+46967+008400FM-15+0450LSZC V0202701N002119999999Y0099001N1-00501-00601999999ADDMA1101491999999REMMET047METAR LSZC 040850Z 27004KT CAVOK M05/M06 Q1015;
0074068065999992010020409504+46967+008400FM-15+0450LSZC V0202601N001019999999Y0099001N1-00101-00401999999ADDMA1101491999999REMMET047METAR LSZC 040950Z 26002KT CAVOK M01/M04 Q1015;
0073068065999992010020410204+46967+008400FM-15+0450LSZC V0202401N001519999999Y0099001N1+00001-00301999999ADDMA1101491999999REMMET046METAR LSZC 041020Z 24003KT CAVOK 00/M03 Q1015;
0073068065999992010020410504+46967+008400FM-15+0450LSZC V0202401N001019999999Y0099001N1+00101-00301999999ADDMA1101491999999REMMET046METAR LSZC 041050Z 24002KT CAVOK 01/M03 Q1015;
0073068065999992010020412204+46967+008400FM-15+0450LSZC V0209999V000519999999Y0099001N1+00501-00101999999ADDMA1101391999999REMMET046METAR LSZC 041220Z VRB01KT CAVOK 05/M01 Q1014;
0073068065999992010020412504+46967+008400FM-15+0450LSZC V0209999C000019999999Y0099001N1+00801-00101999999ADDMA1101291999999REMMET046METAR LSZC 041250Z 00000KT CAVOK 08/M01 Q1013;
0073068065999992010020413504+46967+008400FM-15+0450LSZC V0209999C000019999999Y0099001N1+00601-00101999999ADDMA1101291999999REMMET046METAR LSZC 041350Z 00000KT CAVOK 06/M01 Q1013;
0073068065999992010020414504+46967+008400FM-15+0450LSZC V0201701N000519999999Y0099001N1+00401-00201999999ADDMA1101291999999REMMET046METAR LSZC 041450Z 17001KT CAVOK 04/M02 Q1013;
0073068065999992010020415204+46967+008400FM-15+0450LSZC V0209999V000519999999Y0099001N1+00401-00101999999ADDMA1101291999999REMMET046METAR LSZC 041520Z VRB01KT CAVOK 04/M01 Q1013;
0073068065999992010020415504+46967+008400FM-15+0450LSZC V0209999V000519999999Y0099001N1+00301-00301999999ADDMA1101191999999REMMET046METAR LSZC 041550Z VRB01KT CAVOK 03/M03 Q1012;
0121068065999992010020507204+46967+008400FM-15+0450LSZC V0209999V001010150019N0112651N1+00201-00101999999ADDGA1081+015001999GF108991999999999999999999MA1100811999999REMMET052METAR LSZC 050720Z VRB02KT 9999 OVC050 02/M01 Q1008;
0121068065999992010020507504+46967+008400FM-15+0450LSZC V0209999V000510150019N0112651N1+00201-00101999999ADDGA1081+015001999GF108991999999999999999999MA1100811999999REMMET052METAR LSZC 050750Z VRB01KT 9999 OVC050 02/M01 Q1008;
0121068065999992010020508204+46967+008400FM-15+0450LSZC V0209999V000510135019N0112651N1+00201-00101999999ADDGA1081+013501999GF108991999999999999999999MA1100711999999REMMET052METAR LSZC 050820Z VRB01KT 9999 OVC045 02/M01 Q1007;
0144068065999992010020509204+46967+008400FM-15+0450LSZC V0209999V000510135019N0112651N1+00201-00101999999ADDGA1021+007501999GA2081+013501999GF108991999999999999999999MA1100811999999REMMET059METAR LSZC 050920Z VRB01KT 9999 FEW025 OVC045 02/M01 Q1008;
0161068065999992010020512204+46967+008400FM-15+0450LSZC V0202501N002110048019N0060001N1+00301+00101999999ADDGA1071+004801999GA2081+013501999GF108991999999999999999999MA1100811999999MW1511REMMET070METAR LSZC 051220Z 25004KT 210V290 6000 -DZ BKN016 OVC045 03/01 Q1008;
0153068065999992010020513204+46967+008400FM-15+0450LSZC V0209999V001510036019N0060001N1+00301+00101999999ADDGA1071+003601999GA2081+006001999GF108991999999999999999999MA1100811999999MW1611REMMET062METAR LSZC 051320Z VRB03KT 6000 -RA BKN012 OVC020 03/01 Q1008;
0153068065999992010020514204+46967+008400FM-15+0450LSZC V0209999V000510036019N0040001N1+00201+00101999999ADDGA1071+003601999GA2081+006001999GF108991999999999999999999MA1100811999999MW1611REMMET062METAR LSZC 051420Z VRB01KT 4000 -RA BKN012 OVC020 02/01 Q1008;
0152068065999992010020515204+46967+008400FM-15+0450LSZC V0202201N000510036019N0040001N1+00201+00101999999ADDGA1071+003601999GA2081+006001999GF108991999999999999999999MA1100911999999MW1631REMMET061METAR LSZC 051520Z 22001KT 4000 RA BKN012 OVC020 02/01 Q1009;
0152068065999992010020515504+46967+008400FM-15+0450LSZC V0202501N001010036019N0040001N1+00201+00101999999ADDGA1071+003601999GA2081+006001999GF108991999999999999999999MA1100911999999MW1631REMMET061METAR LSZC 051550Z 25002KT 4000 RA BKN012 OVC020 02/01 Q1009;
0144068065999992010020806504+46967+008400FM-15+0450LSZC V0209999V000510105019N0060001N1+00101-00301999999ADDGA1021+004501999GA2071+010501999GF107991999999999999999999MA1100811999999REMMET059METAR LSZC 080650Z VRB01KT 6000 FEW015 BKN035 01/M03 Q1008;
0144068065999992010020807204+46967+008400FM-15+0450LSZC V0209999V001510105019N0060001N1+00001-00201999999ADDGA1021+006001999GA2071+010501999GF107991999999999999999999MA1100711999999REMMET059METAR LSZC 080720Z VRB03KT 6000 FEW020 BKN035 00/M02 Q1007;
0152068065999992010020807504+46967+008400FM-15+0450LSZC V0202901N003112200019N0080001N1+00001-00501999999ADDGA1021+009001999GA2041+010501999GF104991999999999999999999MA1100711999999REMMET067METAR LSZC 080750Z 29006KT 250V320 8000 FEW030 SCT035 00/M05 Q1007;
0145068065999992010020808204+46967+008400FM-15+0450LSZC V0202701N003612200019N0080001N1-00101-00501999999ADDGA1021+009001999GA2041+010501999GF104991999999999999999999MA1100711999999REMMET060METAR LSZC 080820Z 27007KT 8000 FEW030 SCT035 M01/M05 Q1007;
0145068065999992010020808504+46967+008400FM-15+0450LSZC V0202501N003112200019N0080001N1-00101-00601999999ADDGA1021+010501999GA2041+012001999GF104991999999999999999999MA1100711999999REMMET060METAR LSZC 080850Z 25006KT 8000 FEW035 SCT040 M01/M06 Q1007;
0144068065999992010020809204+46967+008400FM-15+0450LSZC V0202401N001510114019N0080001N1+00001-00401999999ADDGA1041+006901999GA2071+011401999GF107991999999999999999999MA1100711999999REMMET059METAR LSZC 080920Z 24003KT 8000 SCT023 BKN038 00/M04 Q1007;
0144068065999992010020809504+46967+008400FM-15+0450LSZC V0202601N002110120019N0080001N1+00001-00501999999ADDGA1041+006301999GA2071+012001999GF107991999999999999999999MA1100711999999REMMET059METAR LSZC 080950Z 26004KT 8000 SCT021 BKN040 00/M05 Q1007;
0144068065999992010020810204+46967+008400FM-15+0450LSZC V0209999V001010120019N0080001N1+00101-00401999999ADDGA1041+006601999GA2071+012001999GF107991999999999999999999MA1100611999999REMMET059METAR LSZC 081020Z VRB02KT 8000 SCT022 BKN040 01/M04 Q1006;
0144068065999992010020810504+46967+008400FM-15+0450LSZC V0209999C000010120019N0080001N1+00301-00401999999ADDGA1041+007201999GA2071+012001999GF107991999999999999999999MA1100611999999REMMET059METAR LSZC 081050Z 00000KT 8000 SCT024 BKN040 03/M04 Q1006;
0121068065999992010020812204+46967+008400FM-15+0450LSZC V0202001N001012200019N0080001N1+00201-00401999999ADDGA1041+012001999GF104991999999999999999999MA1100511999999REMMET052METAR LSZC 081220Z 20002KT 8000 SCT040 02/M04 Q1005;
0121068065999992010020812504+46967+008400FM-15+0450LSZC V0209999V001012200019N0080001N1+00201-00401999999ADDGA1041+012001999GF104991999999999999999999MA1100411999999REMMET052METAR LSZC 081250Z VRB02KT 8000 SCT040 02/M04 Q1004;
0121068065999992010020813504+46967+008400FM-15+0450LSZC V0209999V001012200019N0080001N1+00301-00301999999ADDGA1041+012001999GF104991999999999999999999MA1100411999999REMMET052METAR LSZC 081350Z VRB02KT 8000 SCT040 03/M03 Q1004;
0121068065999992010020814204+46967+008400FM-15+0450LSZC V0209999C000012200019N0080001N1+00501-00301999999ADDGA1041+012001999GF104991999999999999999999MA1100411999999REMMET052METAR LSZC 081420Z 00000KT 8000 SCT040 05/M03 Q1004;
0121068065999992010020814504+46967+008400FM-15+0450LSZC V0201701N001012200019N0080001N1+00201-00301999999ADDGA1041+012001999GF104991999999999999999999MA1100411999999REMMET052METAR LSZC 081450Z 17002KT 8000 SCT040 02/M03 Q1004;
0121068065999992010020815204+46967+008400FM-15+0450LSZC V0201901N001512200019N0080001N1+00201-00301999999ADDGA1041+012001999GF104991999999999999999999MA1100311999999REMMET052METAR LSZC 081520Z 19003KT 8000 SCT040 02/M03 Q1003;
0122068065999992010020907204+46967+008400FM-15+0450LSZC V0202601N001512200019N0070001N1-00601-00701999999ADDGA1041+004501999GF104991999999999999999999MA1100101999999REMMET053METAR LSZC 090720Z 26003KT 7000 SCT015 M06/M07 Q1001;
0122068065999992010020907504+46967+008400FM-15+0450LSZC V0202501N002612200019N0070001N1-00601-00701999999ADDGA1041+004501999GF104991999999999999999999MA1100101999999REMMET053METAR LSZC 090750Z 25005KT 7000 SCT015 M06/M07 Q1001;
0122068065999992010020908204+46967+008400FM-15+0450LSZC V0202501N002112200019N0070001N1-00501-00701999999ADDGA1021+004501999GF102991999999999999999999MA1100101999999REMMET053METAR LSZC 090820Z 25004KT 7000 FEW015 M05/M07 Q1001;
0122068065999992010020908504+46967+008400FM-15+0450LSZC V0202401N001512200019N0080001N1-00401-00701999999ADDGA1021+004501999GF102991999999999999999999MA1100001999999REMMET053METAR LSZC 090850Z 24003KT 8000 FEW015 M04/M07 Q1000;
0153068065999992010020912204+46967+008400FM-15+0450LSZC V0209999V000510450019N0050001N1+00101-00401999999ADDGA1021+004501999GA2081+045001999GF108991999999999999999999MA1100001999999MW1051REMMET062METAR LSZC 091220Z VRB01KT 5000 HZ FEW015 OVC150 01/M04 Q1000;
0161068065999992010020912504+46967+008400FM-15+0450LSZC V0201701N001510450019N0050001N1+00001-00401999999ADDGA1021+004501999GA2081+045001999GF108991999999999999999999MA1100001999999MW1051REMMET070METAR LSZC 091250Z 17003KT 140V220 5000 HZ FEW015 OVC150 00/M04 Q1000;
0121068065999992010020913204+46967+008400FM-15+0450LSZC V0202101N000510300019N0060001N1+00101-00301999999ADDGA1081+030001999GF108991999999999999999999MA1099901999999REMMET052METAR LSZC 091320Z 21001KT 6000 OVC100 01/M03 Q0999;
0121068065999992010020913504+46967+008400FM-15+0450LSZC V0209999C000010300019N0050001N1+00101-00401999999ADDGA1081+030001999GF108991999999999999999999MA1099901999999REMMET052METAR LSZC 091350Z 00000KT 5000 OVC100 01/M04 Q0999;
0121068065999992010020914504+46967+008400FM-15+0450LSZC V0202501N001010300019N0050001N1+00101-00301999999ADDGA1081+030001999GF108991999999999999999999MA1099901999999REMMET052METAR LSZC 091450Z 25002KT 5000 OVC100 01/M03 Q0999;
0121068065999992010020915204+46967+008400FM-15+0450LSZC V0209999V000510300019N0050001N1+00101-00301999999ADDGA1081+030001999GF108991999999999999999999MA1099901999999REMMET052METAR LSZC 091520Z VRB01KT 5000 OVC100 01/M03 Q0999;
0140068065999992010021006204+46967+008400FM-15+0450LSZC V0209999V001010048019N0025001N1-00101-00301999999ADDGA1081+004801999GF108991999999999999999999MA1100201999999MW1101MW2731REMMET059METAR LSZC 100620Z VRB02KT 2500 BR SN OVC016 M01/M03 Q1002;
0140068065999992010021006504+46967+008400FM-15+0450LSZC V0209999V001510048019N0025001N1-00101-00401999999ADDGA1081+004801999GF108991999999999999999999MA1100201999999MW1101MW2731REMMET059METAR LSZC 100650Z VRB03KT 2500 BR SN OVC016 M01/M04 Q1002;
0140068065999992010021007204+46967+008400FM-15+0450LSZC V0209999V001510048019N0025001N1-00101-00401999999ADDGA1081+004801999GF108991999999999999999999MA1100311999999MW1101MW2731REMMET059METAR LSZC 100720Z VRB03KT 2500 BR SN OVC016 M01/M04 Q1003;
0140068065999992010021007504+46967+008400FM-15+0450LSZC V0209999V001010048019N0025001N1-00201-00401999999ADDGA1081+004801999GF108991999999999999999999MA1100311999999MW1101MW2731REMMET059METAR LSZC 100750Z VRB02KT 2500 BR SN OVC016 M02/M04 Q1003;
0148068065999992010021008204+46967+008400FM-15+0450LSZC V0202001N002610048019N0025001N1-00201-00401999999ADDGA1081+004801999GF108991999999999999999999MA1100311999999MW1101MW2731REMMET067METAR LSZC 100820Z 20005KT 170V250 2500 BR SN OVC016 M02/M04 Q1003;
0141068065999992010021010504+46967+008400FM-15+0450LSZC V0209999V001510048019N0025001N1-00201-00501999999ADDGA1081+004801999GF108991999999999999999999MA1100411999999MW1101MW2711REMMET060METAR LSZC 101050Z VRB03KT 2500 BR -SN OVC016 M02/M05 Q1004;
0160068065999992010021012504+46967+008400FM-15+0450LSZC V0203201N004110075019N0025001N1-00201-00501999999ADDGA1081+007501999GF108991999999999999999999MA1100311999999MW1101MW2711OC100931REMMET071METAR LSZC 101250Z 32008G18KT 260V360 2500 BR -SN OVC025 M02/M05 Q1003;
0141068065999992010021013204+46967+008400FM-15+0450LSZC V0203201N006210075019N0025001N1-00301-00601999999ADDGA1081+007501999GF108991999999999999999999MA1100311999999MW1101MW2711REMMET060METAR LSZC 101320Z 32012KT 2500 BR -SN OVC025 M03/M06 Q1003;
0149068065999992010021013504+46967+008400FM-15+0450LSZC V0203201N005110084019N0025001N1-00301-00601999999ADDGA1081+008401999GF108991999999999999999999MA1100311999999MW1101MW2711REMMET068METAR LSZC 101350Z 32010KT 290V360 2500 BR -SN OVC028 M03/M06 Q1003;
0140068065999992010021014504+46967+008400FM-15+0450LSZC V0203301N005710036019N0025001N1-00301-00601999999ADDGA1081+003601999GF108991999999999999999999MA1100311999999MW1101MW2731REMMET059METAR LSZC 101450Z 33011KT 2500 BR SN OVC012 M03/M06 Q1003;
0148068065999992010021015204+46967+008400FM-15+0450LSZC V0203001N005110036019N0025001N1-00401-00601999999ADDGA1081+003601999GF108991999999999999999999MA1100311999999MW1101MW2731REMMET067METAR LSZC 101520Z 30010KT 260V350 2500 BR SN OVC012 M04/M06 Q1003;
0148068065999992010021107504+46967+008400FM-15+0450LSZC V0203201N004110036019N0025001N1-00701-00901999999ADDGA1081+003601999GF108991999999999999999999MA1100101999999MW1101MW2731REMMET067METAR LSZC 110750Z 32008KT 270V030 2500 BR SN OVC012 M07/M09 Q1001;
0149068065999992010021108504+46967+008400FM-15+0450LSZC V0203101N003610036019N0020001N1-00701-01001999999ADDGA1081+003601999GF108991999999999999999999MA1100101999999MW1101MW2711REMMET068METAR LSZC 110850Z 31007KT 270V340 2000 BR -SN OVC012 M07/M10 Q1001;
0148068065999992010021109204+46967+008400FM-15+0450LSZC V0203101N003110036019N0020001N1-00701-01001999999ADDGA1081+003601999GF108991999999999999999999MA1100101999999MW1101MW2731REMMET067METAR LSZC 110920Z 31006KT 270V350 2000 BR SN OVC012 M07/M10 Q1001;
0138068065999992010021109504+46967+008400FM-15+0450LSZC V0202901N002110030019N0015001N1-00701-00901999999ADDGA1091+003001999GF109991999999000251999999MA1100101999999MW1731REMMET063METAR LSZC 110950Z 29004KT 230V020 1500 SN VV010 M07/M09 Q1001;
0130068065999992010021110204+46967+008400FM-15+0450LSZC V0209999V000510030019N0015001N1-00601-00901999999ADDGA1091+003001999GF109991999999000251999999MA1100201999999MW1731REMMET055METAR LSZC 111020Z VRB01KT 1500 SN VV010 M06/M09 Q1002;
0130068065999992010021110504+46967+008400FM-15+0450LSZC V0209999V001010039019N0020001N1-00601-00901999999ADDGA1091+003901999GF109991999999000251999999MA1100101999999MW1731REMMET055METAR LSZC 111050Z VRB02KT 2000 SN VV013 M06/M09 Q1001;
0140068065999992010021112504+46967+008400FM-15+0450LSZC V0203201N003610045019N0035001N1-00501-00901999999ADDGA1081+004501999GF108991999999999999999999MA1100101999999MW1711REMMET065METAR LSZC 111250Z 32007KT 280V350 3500 -SN OVC015 M05/M09 Q1001;
0132068065999992010021113504+46967+008400FM-15+0450LSZC V0209999V001510045019N0030001N1-00501-00901999999ADDGA1081+004501999GF108991999999999999999999MA1100101999999MW1711REMMET057METAR LSZC 111350Z VRB03KT 3000 -SN OVC015 M05/M09 Q1001;
0155068065999992010021114204+46967+008400FM-15+0450LSZC V0209999V001010063019N0025001N1-00501-00901999999ADDGA1021+004501999GA2081+006301999GF108991999999999999999999MA1100101999999MW1711REMMET064METAR LSZC 111420Z VRB02KT 2500 -SN FEW015 OVC021 M05/M09 Q1001;
0155068065999992010021114504+46967+008400FM-15+0450LSZC V0209999V001510078019N0030001N1-00501-00901999999ADDGA1021+004501999GA2081+007801999GF108991999999999999999999MA1100101999999MW1711REMMET064METAR LSZC 111450Z VRB03KT 3000 -SN FEW015 OVC026 M05/M09 Q1001;
0163068065999992010021115204+46967+008400FM-15+0450LSZC V0203501N002610090019N0032001N1-00501-00901999999ADDGA1041+005101999GA2081+009001999GF108991999999999999999999MA1100101999999MW1711REMMET072METAR LSZC 111520Z 35005KT 320V040 3200 -SN SCT017 OVC030 M05/M09 Q1001;
0155068065999992010021115504+46967+008400FM-15+0450LSZC V0200101N003110090019N0045001N1-00501-00901999999ADDGA1041+005101999GA2081+009001999GF108991999999999999999999MA1100201999999MW1711REMMET064METAR LSZC 111550Z 01006KT 4500 -SN SCT017 OVC030 M05/M09 Q1002;
0131068065999992010021206504+46967+008400FM-15+0450LSZC V0202301N001010120019N0050001N1-00601-01001999999ADDGA1081+012001999GF108991999999999999999999MA1100811999999MW1101REMMET056METAR LSZC 120650Z 23002KT 5000 BR OVC040 M06/M10 Q1008;
0131068065999992010021207204+46967+008400FM-15+0450LSZC V0202601N001010120019N0050001N1-00601-00901999999ADDGA1081+012001999GF108991999999999999999999MA1100911999999MW1101REMMET056METAR LSZC 120720Z 26002KT 5000 BR OVC040 M06/M09 Q1009;
0131068065999992010021207504+46967+008400FM-15+0450LSZC V0202501N001510120019N0050001N1-00601-01001999999ADDGA1081+012001999GF108991999999999999999999MA1100911999999MW1101REMMET056METAR LSZC 120750Z 25003KT 5000 BR OVC040 M06/M10 Q1009;
0131068065999992010021208204+46967+008400FM-15+0450LSZC V0202601N002110120019N0050001N1-00501-00901999999ADDGA1081+012001999GF108991999999999999999999MA1100911999999MW1101REMMET056METAR LSZC 120820Z 26004KT 5000 BR OVC040 M05/M09 Q1009;
0131068065999992010021209504+46967+008400FM-15+0450LSZC V0202501N002110060019N0040001N1-00501-00901999999ADDGA1081+006001999GF108991999999999999999999MA1101021999999MW1101REMMET056METAR LSZC 120950Z 25004KT 4000 BR OVC020 M05/M09 Q1010;
0131068065999992010021210504+46967+008400FM-15+0450LSZC V0202501N001510060019N0050001N1-00401-00801999999ADDGA1081+006001999GF108991999999999999999999MA1101021999999MW1101REMMET056METAR LSZC 121050Z 25003KT 5000 BR OVC020 M04/M08 Q1010;
0140068065999992010021212204+46967+008400FM-15+0450LSZC V0202001N001510075019N0050001N1-00401-00701999999ADDGA1081+007501999GF108991999999999999999999MA1101021999999MW1711REMMET065METAR LSZC 121220Z 20003KT 170V240 5000 -SN OVC025 M04/M07 Q1010;
0131068065999992010021212504+46967+008400FM-15+0450LSZC V0201801N002110075019N0050001N1-00401-00701999999ADDGA1081+007501999GF108991999999999999999999MA1101021999999MW1101REMMET056METAR LSZC 121250Z 18004KT 5000 BR OVC025 M04/M07 Q1010;
0131068065999992010021214204+46967+008400FM-15+0450LSZC V0209999V001010060019N0030001N1-00301-00801999999ADDGA1081+006001999GF108991999999999999999999MA1101021999999MW1101REMMET056METAR LSZC 121420Z VRB02KT 3000 BR OVC020 M03/M08 Q1010;
0139068065999992010021214504+46967+008400FM-15+0450LSZC V0203101N003110060019N0030001N1-00301-00801999999ADDGA1081+006001999GF108991999999999999999999MA1101081999999MW1101REMMET064METAR LSZC 121450Z 31006KT 270V030 3000 BR OVC020 M03/M08 Q1011;
0139068065999992010021506504+46967+008400FM-15+0450LSZC V0202401N002610078019N0040001N1-00401-01001999999ADDGA1081+007801999GF108991999999999999999999MA1100811999999MW1101REMMET064METAR LSZC 150650Z 24005KT 210V270 4000 BR OVC026 M04/M10 Q1008;
0131068065999992010021507204+46967+008400FM-15+0450LSZC V0202401N003110078019N0040001N1-00401-01001999999ADDGA1081+007801999GF108991999999999999999999MA1100811999999MW1101REMMET056METAR LSZC 150720Z 24006KT 4000 BR OVC026 M04/M10 Q1008;
0131068065999992010021507504+46967+008400FM-15+0450LSZC V0202401N003610078019N0040001N1-00401-00901999999ADDGA1081+007801999GF108991999999999999999999MA1100711999999MW1101REMMET056METAR LSZC 150750Z 24007KT 4000 BR OVC026 M04/M09 Q1007;
0131068065999992010021508204+46967+008400FM-15+0450LSZC V0202201N004610078019N0045001N1-00401-01001999999ADDGA1081+007801999GF108991999999999999999999MA1100711999999MW1101REMMET056METAR LSZC 150820Z 22009KT 4500 BR OVC026 M04/M10 Q1007;
0131068065999992010021509204+46967+008400FM-15+0450LSZC V0202301N002610078019N0045001N1-00401-00901999999ADDGA1081+007801999GF108991999999999999999999MA1100711999999MW1101REMMET056METAR LSZC 150920Z 23005KT 4500 BR OVC026 M04/M09 Q1007;
0131068065999992010021509504+46967+008400FM-15+0450LSZC V0202401N002110078019N0050001N1-00401-00901999999ADDGA1081+007801999GF108991999999999999999999MA1100711999999MW1101REMMET056METAR LSZC 150950Z 24004KT 5000 BR OVC026 M04/M09 Q1007;
0122068065999992010021510204+46967+008400FM-15+0450LSZC V0202301N002110075019N0060001N1-00301-00901999999ADDGA1081+007501999GF108991999999999999999999MA1100711999999REMMET053METAR LSZC 151020Z 23004KT 6000 OVC025 M03/M09 Q1007;
0122068065999992010021510504+46967+008400FM-15+0450LSZC V0209999V000510075019N0060001N1-00201-00901999999ADDGA1071+007501999GF107991999999999999999999MA1100711999999REMMET053METAR LSZC 151050Z VRB01KT 6000 BKN025 M02/M09 Q1007;
0121068065999992010021512204+46967+008400FM-15+0450LSZC V0209999V001010075019N0060001N1+00001-00801999999ADDGA1071+007501999GF107991999999999999999999MA1100611999999REMMET052METAR LSZC 151220Z VRB02KT 6000 BKN025 00/M08 Q1006;
0122068065999992010021512504+46967+008400FM-15+0450LSZC V0209999V001010075019N0060001N1-00101-00801999999ADDGA1071+007501999GF107991999999999999999999MA1100611999999REMMET053METAR LSZC 151250Z VRB02KT 6000 BKN025 M01/M08 Q1006;
0122068065999992010021513204+46967+008400FM-15+0450LSZC V0209999V001012200019N0060001N1-00101-00801999999ADDGA1041+007501999GF104991999999999999999999MA1100611999999REMMET053METAR LSZC 151320Z VRB02KT 6000 SCT025 M01/M08 Q1006;
0121068065999992010021513504+46967+008400FM-15+0450LSZC V0209999V000512200019N0060001N1+00001-00801999999ADDGA1041+007501999GF104991999999999999999999MA1100611999999REMMET052METAR LSZC 151350Z VRB01KT 6000 SCT025 00/M08 Q1006;
0122068065999992010021514204+46967+008400FM-15+0450LSZC V0201801N001512200019N0060001N1-00101-00701999999ADDGA1041+007501999GF104991999999999999999999MA1100511999999REMMET053METAR LSZC 151420Z 18003KT 6000 SCT025 M01/M07 Q1005;
0122068065999992010021514504+46967+008400FM-15+0450LSZC V0201901N001012200019N0060001N1-00201-00701999999ADDGA1041+007501999GF104991999999999999999999MA1100511999999REMMET053METAR LSZC 151450Z 19002KT 6000 SCT025 M02/M07 Q1005;
0122068065999992010021515504+46967+008400FM-15+0450LSZC V0201901N001012200019N0050001N1-00201-00801999999ADDGA1021+007501999GF102991999999999999999999MA1100511999999REMMET053METAR LSZC 151550Z 19002KT 5000 FEW025 M02/M08 Q1005;
0131068065999992010021606504+46967+008400FM-15+0450LSZC V0202701N002110015019N0025001N1-00801-00901999999ADDGA1081+001501999GF108991999999999999999999MA1100311999999MW1101REMMET056METAR LSZC 160650Z 27004KT 2500 BR OVC005 M08/M09 Q1003;
0131068065999992010021607204+46967+008400FM-15+0450LSZC V0202501N002110009019N0025001N1-00701-00801999999ADDGA1081+000901999GF108991999999999999999999MA1100311999999MW1101REMMET056METAR LSZC 160720Z 25004KT 2500 BR OVC003 M07/M08 Q1003;
0131068065999992010021608204+46967+008400FM-15+0450LSZC V0202501N003110003019N0005001N1-00601-00701999999ADDGA1081+000301999GF108991999999999999999999MA1100311999999MW1441REMMET056METAR LSZC 160820Z 25006KT 0500 FG OVC001 M06/M07 Q1003;
0131068065999992010021608504+46967+008400FM-15+0450LSZC V0202401N002610006019N0010001N1-00601-00601999999ADDGA1081+000601999GF108991999999999999999999MA1100311999999MW1441REMMET056METAR LSZC 160850Z 24005KT 1000 FG OVC002 M06/M06 Q1003;
0131068065999992010021609504+46967+008400FM-15+0450LSZC V0202501N002610006019N0010001N1-00501-00601999999ADDGA1081+000601999GF108991999999999999999999MA1100311999999MW1441REMMET056METAR LSZC 160950Z 25005KT 1000 FG OVC002 M05/M06 Q1003;
0131068065999992010021610204+46967+008400FM-15+0450LSZC V0202501N001010006019N0015001N1-00401-00501999999ADDGA1081+000601999GF108991999999999999999999MA1100311999999MW1101REMMET056METAR LSZC 161020Z 25002KT 1500 BR OVC002 M04/M05 Q1003;
0131068065999992010021610504+46967+008400FM-15+0450LSZC V0202401N001510006019N0015001N1-00401-00501999999ADDGA1081+000601999GF108991999999999999999999MA1100311999999MW1101REMMET056METAR LSZC 161050Z 24003KT 1500 BR OVC002 M04/M05 Q1003;
0081068065999992010021612504+46967+008400FM-15+0450LSZC V0202401N000512200019N0050001N1+00001-00501999999ADDMA1100101999999MW1101REMMET048METAR LSZC 161250Z 24001KT 5000 BR 00/M05 Q1001;
0081068065999992010021613204+46967+008400FM-15+0450LSZC V0209999C000012200019N0050001N1+00301-00501999999ADDMA1100101999999MW1101REMMET048METAR LSZC 161320Z 00000KT 5000 BR 03/M05 Q1001;
0081068065999992010021613504+46967+008400FM-15+0450LSZC V0209999C000012200019N0080001N1+00201-00501999999ADDMA1100001999999MW1101REMMET048METAR LSZC 161350Z 00000KT 8000 BR 02/M05 Q1000;
0131068065999992010021706204+46967+008400FM-15+0450LSZC V0202601N002612200019N0060001N1-00401-00501999999ADDGA1041+036001999GF104991999999999999999999MA1099391999999MW1101REMMET056METAR LSZC 170620Z 26005KT 6000 BR SCT120 M04/M05 Q0994;
0131068065999992010021706504+46967+008400FM-15+0450LSZC V0202401N002112200019N0060001N1-00401-00601999999ADDGA1041+036001999GF104991999999999999999999MA1099491999999MW1101REMMET056METAR LSZC 170650Z 24004KT 6000 BR SCT120 M04/M06 Q0995;
0131068065999992010021707204+46967+008400FM-15+0450LSZC V0209999V001010360019N0040001N1-00301-00501999999ADDGA1071+036001999GF107991999999999999999999MA1099391999999MW1101REMMET056METAR LSZC 170720Z VRB02KT 4000 BR BKN120 M03/M05 Q0994;
0131068065999992010021707504+46967+008400FM-15+0450LSZC V0209999V001510360019N0040001N1-00301-00501999999ADDGA1071+036001999GF107991999999999999999999MA1099391999999MW1101REMMET056METAR LSZC 170750Z VRB03KT 4000 BR BKN120 M03/M05 Q0994;
0131068065999992010021708204+46967+008400FM-15+0450LSZC V0209999V000510360019N0040001N1-00201-00501999999ADDGA1071+036001999GF107991999999999999999999MA1099391999999MW1101REMMET056METAR LSZC 170820Z VRB01KT 4000 BR BKN120 M02/M05 Q0994;
0131068065999992010021708504+46967+008400FM-15+0450LSZC V0209999V001010360019N0040001N1-00201-00501999999ADDGA1081+036001999GF108991999999999999999999MA1099291999999MW1101REMMET056METAR LSZC 170850Z VRB02KT 4000 BR OVC120 M02/M05 Q0993;
0131068065999992010021709504+46967+008400FM-15+0450LSZC V0202501N001012200019N0060001N1-00101-00401999999ADDGA1041+036001999GF104991999999999999999999MA1099291999999MW1101REMMET056METAR LSZC 170950Z 25002KT 6000 BR SCT120 M01/M04 Q0993;
0130068065999992010021712204+46967+008400FM-15+0450LSZC V0209999V001012200019N0060001N1+00301-00301999999ADDGA1041+036001999GF104991999999999999999999MA1099291999999MW1101REMMET055METAR LSZC 171220Z VRB02KT 6000 BR SCT120 03/M03 Q0993;
0130068065999992010021712504+46967+008400FM-15+0450LSZC V0202501N000510360019N0060001N1+00301-00301999999ADDGA1071+036001999GF107991999999999999999999MA1099291999999MW1101REMMET055METAR LSZC 171250Z 25001KT 6000 BR BKN120 03/M03 Q0993;
0130068065999992010021713204+46967+008400FM-15+0450LSZC V0202601N001010360019N0060001N1+00301-00301999999ADDGA1081+036001999GF108991999999999999999999MA1099391999999MW1101REMMET055METAR LSZC 171320Z 26002KT 6000 BR OVC120 03/M03 Q0994;
0121068065999992010021713504+46967+008400FM-15+0450LSZC V0202301N001010360019N0060001N1+00301-00201999999ADDGA1071+036001999GF107991999999999999999999MA1099391999999REMMET052METAR LSZC 171350Z 23002KT 6000 BKN120 03/M02 Q0994;
0121068065999992010021714204+46967+008400FM-15+0450LSZC V0209999C000010360019N0080001N1+00401-00301999999ADDGA1071+036001999GF107991999999999999999999MA1099391999999REMMET052METAR LSZC 171420Z 00000KT 8000 BKN120 04/M03 Q0994;
0121068065999992010021714504+46967+008400FM-15+0450LSZC V0209999V001012200019N0080001N1+00301-00301999999ADDGA1041+036001999GF104991999999999999999999MA1099391999999REMMET052METAR LSZC 171450Z VRB02KT 8000 SCT120 03/M03 Q0994;
0144068065999992010021715204+46967+008400FM-15+0450LSZC V0202301N002112200019N0080001N1+00301-00201999999ADDGA1021+009001999GA2041+018001999GF104991999999999999999999MA1099391999999REMMET059METAR LSZC 171520Z 23004KT 8000 FEW030 SCT060 03/M02 Q0994;
0130068065999992010021806504+46967+008400FM-15+0450LSZC V0209999C000010210019N0070001N1+00101-00101999999ADDGA1081+021001999GF108991999999999999999999MA1099801999999MW1101REMMET055METAR LSZC 180650Z 00000KT 7000 BR OVC070 01/M01 Q0998;
0129068065999992010021807204+46967+008400FM-15+0450LSZC V0202701N002110210019N0060001N1+00201+00001999999ADDGA1081+021001999GF108991999999999999999999MA1099901999999MW1101REMMET054METAR LSZC 180720Z 27004KT 6000 BR OVC070 02/00 Q0999;
0129068065999992010021807504+46967+008400FM-15+0450LSZC V0209999V000510210019N0060001N1+00201+00001999999ADDGA1081+021001999GF108991999999999999999999MA1099901999999MW1101REMMET054METAR LSZC 180750Z VRB01KT 6000 BR OVC070 02/00 Q0999;
0152068065999992010021808504+46967+008400FM-15+0450LSZC V0209999V001010300019N0070001N1+00201+00001999999ADDGA1041+015001999GA2071+030001999GF107991999999999999999999MA1099901999999MW1101REMMET061METAR LSZC 180850Z VRB02KT 7000 BR SCT055 BKN100 02/00 Q0999;
0120068065999992010021812204+46967+008400FM-15+0450LSZC V0200601N002112200019N0080001N1+00601+00101999999ADDGA1041+015001999GF104991999999999999999999MA1100101999999REMMET051METAR LSZC 181220Z 06004KT 8000 SCT050 06/01 Q1001;
0120068065999992010021813204+46967+008400FM-15+0450LSZC V0209999V001012200019N0080001N1+00701+00101999999ADDGA1041+015001999GF104991999999999999999999MA1100001999999REMMET051METAR LSZC 181320Z VRB02KT 8000 SCT050 07/01 Q1000;
0120068065999992010021813504+46967+008400FM-15+0450LSZC V0209999V000512200019N0080001N1+00801+00101999999ADDGA1041+015001999GF104991999999999999999999MA1100001999999REMMET051METAR LSZC 181350Z VRB01KT 8000 SCT050 08/01 Q1000;
0120068065999992010021814504+46967+008400FM-15+0450LSZC V0200801N001512200019N0080001N1+00701+00201999999ADDGA1041+015001999GF104991999999999999999999MA1099901999999REMMET051METAR LSZC 181450Z 08003KT 8000 SCT050 07/02 Q0999;
0120068065999992010021906204+46967+008400FM-15+0450LSZC V0202801N001010030019N0080001N1+00101+00001999999ADDGA1071+003001999GF107991999999999999999999MA1099291999999REMMET051METAR LSZC 190620Z 28002KT 8000 BKN010 01/00 Q0993;
0120068065999992010021906504+46967+008400FM-15+0450LSZC V0209999V000510300019N0080001N1+00101+00001999999ADDGA1071+030001999GF107991999999999999999999MA1099291999999REMMET051METAR LSZC 190650Z VRB01KT 8000 BKN100 01/00 Q0993;
0120068065999992010021907204+46967+008400FM-15+0450LSZC V0209999V000510300019N0080001N1+00101+00001999999ADDGA1071+030001999GF107991999999999999999999MA1099291999999REMMET051METAR LSZC 190720Z VRB01KT 8000 BKN100 01/00 Q0993;
0120068065999992010021907504+46967+008400FM-15+0450LSZC V0209999V000510300019N0080001N1+00101+00001999999ADDGA1071+030001999GF107991999999999999999999MA1099291999999REMMET051METAR LSZC 190750Z VRB01KT 8000 BKN100 01/00 Q0993;
0129068065999992010021909204+46967+008400FM-15+0450LSZC V0200401N001010015019N0025001N1+00301+00101999999ADDGA1081+001501999GF108991999999999999999999MA1099191999999MW1101REMMET054METAR LSZC 190920Z 04002KT 2500 BR OVC005 03/01 Q0992;
0152068065999992010021909504+46967+008400FM-15+0450LSZC V0209999V001010015019N0025001N1+00301+00101999999ADDGA1071+001501999GA2081+018001999GF108991999999999999999999MA1099191999999MW1101REMMET061METAR LSZC 190950Z VRB02KT 2500 BR BKN005 OVC060 03/01 Q0992;
0152068065999992010021910504+46967+008400FM-15+0450LSZC V0209999V000510180019N0040001N1+00401+00201999999ADDGA1021+001501999GA2081+018001999GF108991999999999999999999MA1099191999999MW1101REMMET061METAR LSZC 191050Z VRB01KT 4000 BR FEW005 OVC060 04/02 Q0992;
0152068065999992010021912204+46967+008400FM-15+0450LSZC V0209999C000010210019N0040001N1+00501+00201999999ADDGA1021+012001999GA2081+021001999GF108991999999999999999999MA1099091999999MW1101REMMET061METAR LSZC 191220Z 00000KT 4000 BR FEW040 OVC070 05/02 Q0991;
0152068065999992010021913204+46967+008400FM-15+0450LSZC V0202601N000510150019N0040001N1+00401+00101999999ADDGA1041+009001999GA2081+015001999GF108991999999999999999999MA1099191999999MW1101REMMET061METAR LSZC 191320Z 26001KT 4000 BR SCT030 OVC050 04/01 Q0992;
0152068065999992010021913504+46967+008400FM-15+0450LSZC V0209999C000010120019N0040001N1+00401+00201999999ADDGA1041+007501999GA2081+012001999GF108991999999999999999999MA1099191999999MW1101REMMET061METAR LSZC 191350Z 00000KT 4000 BR SCT025 OVC040 04/02 Q0992;
0152068065999992010021914204+46967+008400FM-15+0450LSZC V0209999V001010018019N0030001N1+00401+00201999999ADDGA1071+001801999GA2081+006001999GF108991999999999999999999MA1099191999999MW1101REMMET061METAR LSZC 191420Z VRB02KT 3000 BR BKN006 OVC020 04/02 Q0992;
0161068065999992010021914504+46967+008400FM-15+0450LSZC V0209999V001010036019N0030001N1+00401+00201999999ADDGA1071+003601999GA2081+006001999GF108991999999999999999999MA1099291999999MW1101MW2631REMMET064METAR LSZC 191450Z VRB02KT 3000 BR RA BKN012 OVC020 04/02 Q0993;
0121068065999992010022012504+46967+008400FM-15+0450LSZC V0209999V000510210019N0112651N1+00301-00401999999ADDGA1071+021001999GF107991999999999999999999MA1100101999999REMMET052METAR LSZC 201250Z VRB01KT 9999 BKN075 03/M04 Q1001;
0121068065999992010022206204+46967+008400FM-15+0450LSZC V0209999V001010210019N0112651N1+00201-00201999999ADDGA1071+021001999GF107991999999999999999999MA1099901999999REMMET052METAR LSZC 220620Z VRB02KT 9999 BKN075 02/M02 Q0999;
0121068065999992010022207504+46967+008400FM-15+0450LSZC V0209999V000510210019N0112651N1+00301-00201999999ADDGA1071+021001999GF107991999999999999999999MA1099901999999REMMET052METAR LSZC 220750Z VRB01KT 9999 BKN075 03/M02 Q0999;
0121068065999992010022209204+46967+008400FM-15+0450LSZC V0209999V001012200019N0112651N1+00501-00201999999ADDGA1041+039001999GF104991999999999999999999MA1099801999999REMMET052METAR LSZC 220920Z VRB02KT 9999 SCT130 05/M02 Q0998;
0121068065999992010022209504+46967+008400FM-15+0450LSZC V0209999V001512200019N0112651N1+00501-00201999999ADDGA1021+039001999GF102991999999999999999999MA1099801999999REMMET052METAR LSZC 220950Z VRB03KT 9999 FEW130 05/M02 Q0998;
0121068065999992010022210204+46967+008400FM-15+0450LSZC V0209999V000512200019N0112651N1+00701-00201999999ADDGA1041+039001999GF104991999999999999999999MA1099801999999REMMET052METAR LSZC 221020Z VRB01KT 9999 SCT130 07/M02 Q0998;
0121068065999992010022210504+46967+008400FM-15+0450LSZC V0209999V001012200019N0112651N1+00701-00201999999ADDGA1041+039001999GF104991999999999999999999MA1099801999999REMMET052METAR LSZC 221050Z VRB02KT 9999 SCT130 07/M02 Q0998;
0120068065999992010022213204+46967+008400FM-15+0450LSZC V0209999V001012200019N0112651N1+01001+00001999999ADDGA1041+039001999GF104991999999999999999999MA1099591999999REMMET051METAR LSZC 221320Z VRB02KT 9999 SCT130 10/00 Q0996;
0072068065999992010022214504+46967+008400FM-15+0450LSZC V0209999C000019999999Y0099001N1+01301+00001999999ADDMA1099491999999REMMET045METAR LSZC 221450Z 00000KT CAVOK 13/00 Q0995;
0072068065999992010022215204+46967+008400FM-15+0450LSZC V0209999V001519999999Y0099001N1+01001+00001999999ADDMA1099491999999REMMET045METAR LSZC 221520Z VRB03KT CAVOK 10/00 Q0995;
0120068065999992010022215504+46967+008400FM-15+0450LSZC V0200701N001012200019N0112651N1+00901+00101999999ADDGA1041+039001999GF104991999999999999999999MA1099491999999REMMET051METAR LSZC 221550Z 07002KT 9999 SCT130 09/01 Q0995;
0073068065999992010022216204+46967+008400FM-15+0450LSZC V0209999V000519999999Y0099001N1+00901-00101999999ADDMA1099491999999REMMET046METAR LSZC 221620Z VRB01KT CAVOK 09/M01 Q0995;
0121068065999992010022306504+46967+008400FM-15+0450LSZC V0209999C000010270019N0112651N1+00401-00101999999ADDGA1071+027001999GF107991999999999999999999MA1099701999999REMMET052METAR LSZC 230650Z 00000KT 9999 BKN095 04/M01 Q0997;
0120068065999992010022307204+46967+008400FM-15+0450LSZC V0203001N002610270019N0112651N1+00401+00001999999ADDGA1071+027001999GF107991999999999999999999MA1099701999999REMMET051METAR LSZC 230720Z 30005KT 9999 BKN095 04/00 Q0997;
0120068065999992010022307504+46967+008400FM-15+0450LSZC V0209999C000010270019N0112651N1+00501+00001999999ADDGA1071+027001999GF107991999999999999999999MA1099701999999REMMET051METAR LSZC 230750Z 00000KT 9999 BKN095 05/00 Q0997;
0120068065999992010022308204+46967+008400FM-15+0450LSZC V0209999V000510270019N0112651N1+00701+00101999999ADDGA1071+027001999GF107991999999999999999999MA1099701999999REMMET051METAR LSZC 230820Z VRB01KT 9999 BKN095 07/01 Q0997;
0120068065999992010022308504+46967+008400FM-15+0450LSZC V0209999V001010270019N0112651N1+00801+00101999999ADDGA1071+027001999GF107991999999999999999999MA1099801999999REMMET051METAR LSZC 230850Z VRB02KT 9999 BKN095 08/01 Q0998;
0131068065999992010022309504+46967+008400FM-15+0450LSZC V0209999V000510270019N0112651N1+00801+00001999999ADDGA1081+027001999GF108991999999999999999999MA1099901999999MW1161REMMET056METAR LSZC 230950Z VRB01KT 9999 VCSH OVC095 08/00 Q0999;
0130068065999992010022310204+46967+008400FM-15+0450LSZC V0209999V000510120019N0075001N1+00701+00401999999ADDGA1081+012001999GF108991999999999999999999MA1099901999999MW1611REMMET055METAR LSZC 231020Z VRB01KT 7500 -RA OVC040 07/04 Q0999;
0128068065999992010022310504+46967+008400FM-15+0450LSZC V0201601N001510135019N0112651N1+00701+00301999999ADDGA1081+013501999GF108991999999999999999999MA1100001999999REMMET059METAR LSZC 231050Z 16003KT 120V210 9999 OVC045 07/03 Q1000;
0151068065999992010022312204+46967+008400FM-15+0450LSZC V0200401N003112200019N0112651N1+01001+00401999999ADDGA1021+013501999GA2041+045001999GF104991999999999999999999MA1099801999999REMMET066METAR LSZC 231220Z 04006KT 010V090 9999 FEW045 SCT150 10/04 Q0998;
0151068065999992010022312504+46967+008400FM-15+0450LSZC V0200801N002112200019N0112651N1+01101+00301999999ADDGA1021+013501999GA2041+045001999GF104991999999999999999999MA1099801999999REMMET066METAR LSZC 231250Z 08004KT 030V120 9999 FEW045 SCT150 11/03 Q0998;
0128068065999992010022313204+46967+008400FM-15+0450LSZC V0201601N001512200019N0112651N1+01101+00401999999ADDGA1041+015001999GF104991999999999999999999MA1099801999999REMMET059METAR LSZC 231320Z 16003KT 100V200 9999 SCT050 11/04 Q0998;
0128068065999992010022313504+46967+008400FM-15+0450LSZC V0201201N002112200019N0112651N1+01101+00301999999ADDGA1041+015001999GF104991999999999999999999MA1099901999999REMMET059METAR LSZC 231350Z 12004KT 070V170 9999 SCT050 11/03 Q0999;
0121068065999992010022406504+46967+008400FM-15+0450LSZC V0202501N002112200019N0112651N1+00101-00101999999ADDGA1021+036001999GF102991999999999999999999MA1100201999999REMMET052METAR LSZC 240650Z 25004KT 9999 FEW120 01/M01 Q1002;
0128068065999992010022407504+46967+008400FM-15+0450LSZC V0202601N002110300019N0112651N1+00301+00101999999ADDGA1071+030001999GF107991999999999999999999MA1100201999999REMMET059METAR LSZC 240750Z 26004KT 160V280 9999 BKN100 03/01 Q1002;
0120068065999992010022408204+46967+008400FM-15+0450LSZC V0209999V001012200019N0112651N1+00501+00101999999ADDGA1041+036001999GF104991999999999999999999MA1100311999999REMMET051METAR LSZC 240820Z VRB02KT 9999 SCT120 05/01 Q1003;
0120068065999992010022408504+46967+008400FM-15+0450LSZC V0209999V000510360019N0112651N1+00701+00201999999ADDGA1071+036001999GF107991999999999999999999MA1100311999999REMMET051METAR LSZC 240850Z VRB01KT 9999 BKN120 07/02 Q1003;
0120068065999992010022409204+46967+008400FM-15+0450LSZC V0209999V000510360019N0112651N1+00601+00201999999ADDGA1071+036001999GF107991999999999999999999MA1100311999999REMMET051METAR LSZC 240920Z VRB01KT 9999 BKN120 06/02 Q1003;
0120068065999992010022410204+46967+008400FM-15+0450LSZC V0209999V001012200019N0112651N1+00701+00201999999ADDGA1041+036001999GF104991999999999999999999MA1100311999999REMMET051METAR LSZC 241020Z VRB02KT 9999 SCT120 07/02 Q1003;
0143068065999992010022410504+46967+008400FM-15+0450LSZC V0209999V001012200019N0112651N1+00801+00301999999ADDGA1021+009001999GA2041+045001999GF104991999999999999999999MA1100311999999REMMET058METAR LSZC 241050Z VRB02KT 9999 FEW030 SCT150 08/03 Q1003;
0128068065999992010022412204+46967+008400FM-15+0450LSZC V0200701N001512200019N0112651N1+01001+00301999999ADDGA1041+036001999GF104991999999999999999999MA1100201999999REMMET059METAR LSZC 241220Z 07003KT 030V120 9999 SCT120 10/03 Q1002;
0128068065999992010022412504+46967+008400FM-15+0450LSZC V0200501N002612200019N0112651N1+01001+00301999999ADDGA1041+030001999GF104991999999999999999999MA1100201999999REMMET059METAR LSZC 241250Z 05005KT 020V080 9999 SCT100 10/03 Q1002;
0128068065999992010022413504+46967+008400FM-15+0450LSZC V0200701N002112200019N0112651N1+01001+00301999999ADDGA1041+030001999GF104991999999999999999999MA1100201999999REMMET059METAR LSZC 241350Z 07004KT 030V110 9999 SCT100 10/03 Q1002;
0120068065999992010022414204+46967+008400FM-15+0450LSZC V0209999V000510300019N0112651N1+01101+00401999999ADDGA1071+030001999GF107991999999999999999999MA1100311999999REMMET051METAR LSZC 241420Z VRB01KT 9999 BKN100 11/04 Q1003;
0143068065999992010022414504+46967+008400FM-15+0450LSZC V0209999V001010300019N0112651N1+01101+00401999999ADDGA1021+006001999GA2071+030001999GF107991999999999999999999MA1100311999999REMMET058METAR LSZC 241450Z VRB02KT 9999 FEW020 BKN100 11/04 Q1003;
0143068065999992010022506504+46967+008400FM-15+0450LSZC V0209999V001010300019N0112651N1+00201+00001999999ADDGA1021+006001999GA2071+030001999GF107991999999999999999999MA1100411999999REMMET058METAR LSZC 250650Z VRB02KT 9999 FEW020 BKN100 02/00 Q1004;
0120068065999992010022508504+46967+008400FM-15+0450LSZC V0209999V001512200019N0112651N1+00601+00001999999ADDGA1041+030001999GF104991999999999999999999MA1100311999999REMMET051METAR LSZC 250850Z VRB03KT 9999 SCT100 06/00 Q1003;
0080068065999992010022510204+46967+008400FM-15+0450LSZC V0200701N001519999999Y0099001N1+00801+00101999999ADDMA1100201999999REMMET053METAR LSZC 251020Z 07003KT 030V120 CAVOK 08/01 Q1002;
0080068065999992010022510504+46967+008400FM-15+0450LSZC V0200801N001519999999Y0099001N1+00901+00201999999ADDMA1100201999999REMMET053METAR LSZC 251050Z 08003KT 040V120 CAVOK 09/02 Q1002;
0080068065999992010022514504+46967+008400FM-15+0450LSZC V0200901N002619999999Y0099001N1+00901+00201999999ADDMA1099901999999REMMET053METAR LSZC 251450Z 09005KT 050V140 CAVOK 09/02 Q0999;
0072068065999992010022515204+46967+008400FM-15+0450LSZC V0209999V000519999999Y0099001N1+01001+00201999999ADDMA1099901999999REMMET045METAR LSZC 251520Z VRB01KT CAVOK 10/02 Q0999;
0120068065999992010022606504+46967+008400FM-15+0450LSZC V0209999V000510210019N0112651N1+00601+00401999999ADDGA1081+021001999GF108991999999999999999999MA1099801999999REMMET051METAR LSZC 260650Z VRB01KT 9999 OVC070 06/04 Q0998;
0120068065999992010022607204+46967+008400FM-15+0450LSZC V0209999V001510210019N0112651N1+00601+00301999999ADDGA1081+021001999GF108991999999999999999999MA1099801999999REMMET051METAR LSZC 260720Z VRB03KT 9999 OVC070 06/03 Q0998;
0120068065999992010022607504+46967+008400FM-15+0450LSZC V0209999V001010210019N0112651N1+00601+00401999999ADDGA1081+021001999GF108991999999999999999999MA1099801999999REMMET051METAR LSZC 260750Z VRB02KT 9999 OVC070 06/04 Q0998;
0128068065999992010022608204+46967+008400FM-15+0450LSZC V0200301N002610210019N0112651N1+00701+00301999999ADDGA1081+021001999GF108991999999999999999999MA1099801999999REMMET059METAR LSZC 260820Z 03005KT 340V070 9999 OVC070 07/03 Q0998;
0120068065999992010022608504+46967+008400FM-15+0450LSZC V0200301N003610210019N0112651N1+00801+00401999999ADDGA1081+021001999GF108991999999999999999999MA1099801999999REMMET051METAR LSZC 260850Z 03007KT 9999 OVC070 08/04 Q0998;
0143068065999992010022609504+46967+008400FM-15+0450LSZC V0209999V002110300019N0112651N1+00801+00301999999ADDGA1021+018001999GA2071+030001999GF107991999999999999999999MA1099701999999REMMET058METAR LSZC 260950Z VRB04KT 9999 FEW060 BKN100 08/03 Q0997;
0151068065999992010022610204+46967+008400FM-15+0450LSZC V0200601N002112200019N0112651N1+00801+00401999999ADDGA1021+018001999GA2041+030001999GF104991999999999999999999MA1099701999999REMMET066METAR LSZC 261020Z 06004KT 020V090 9999 FEW060 SCT100 08/04 Q0997;
0154068065999992010022610504+46967+008400FM-15+0450LSZC V0209999V004112200019N0112651N1+01101+00001999999ADDGA1041+018001999GA2041+030001999GF104991999999999999999999MA1099701999999OC101231REMMET061METAR LSZC 261050Z VRB08G24KT 9999 SCT060 SCT100 11/00 Q0997;
0121068065999992010022612204+46967+008400FM-15+0450LSZC V0202501N011310180019N0112651N1+01201-00301999999ADDGA1071+018001999GF107991999999999999999999MA1099901999999REMMET052METAR LSZC 261220Z 25022KT 9999 BKN060 12/M03 Q0999;
0132068065999992010022612504+46967+008400FM-15+0450LSZC V0202501N009810150019N0112651N1+01101-00301999999ADDGA1081+015001999GF108991999999999999999999MA1100001999999MW1161REMMET057METAR LSZC 261250Z 25019KT 9999 VCSH OVC050 11/M03 Q1000;
0151068065999992010022613204+46967+008400FM-15+0450LSZC V0202501N011810150019N0112651N1+00701-00101999999ADDGA1081+015001999GF108991999999999999999999MA1100311999999MW1161OC101851REMMET068METAR LSZC 261320Z 25023G36KT 210V290 9999 VCSH OVC050 07/M01 Q1003;
0152068065999992010022614504+46967+008400FM-15+0450LSZC V0202501N008210150019N0112651N1+00801-00101999999ADDGA1081+015001999GF108991999999999999999999MA1100411999999MW1801OC101391REMMET069METAR LSZC 261450Z 25016G27KT 200V290 9999 -SHRA OVC050 08/M01 Q1004;
0121068065999992010022615504+46967+008400FM-15+0450LSZC V0202701N004610150019N0112651N1+00801-00201999999ADDGA1071+015001999GF107991999999999999999999MA1100411999999REMMET052METAR LSZC 261550Z 27009KT 9999 BKN050 08/M02 Q1004;
0073068065999992010030106204+46967+008400FM-15+0450LSZC V0202401N001019999999Y0099001N1+00201-00201999999ADDMA1101081999999REMMET046METAR LSZC 010620Z 24002KT CAVOK 02/M02 Q1011;
0073068065999992010030106504+46967+008400FM-15+0450LSZC V0202301N001519999999Y0099001N1+00201-00101999999ADDMA1101081999999REMMET046METAR LSZC 010650Z 23003KT CAVOK 02/M01 Q1011;
0072068065999992010030108204+46967+008400FM-15+0450LSZC V0202301N001519999999Y0099001N1+00501+00001999999ADDMA1101191999999REMMET045METAR LSZC 010820Z 23003KT CAVOK 05/00 Q1012;
0072068065999992010030108504+46967+008400FM-15+0450LSZC V0209999V000519999999Y0099001N1+00701+00001999999ADDMA1101081999999REMMET045METAR LSZC 010850Z VRB01KT CAVOK 07/00 Q1011;
0072068065999992010030109204+46967+008400FM-15+0450LSZC V0209999V000519999999Y0099001N1+00901+00001999999ADDMA1101081999999REMMET045METAR LSZC 010920Z VRB01KT CAVOK 09/00 Q1011;
0072068065999992010030109504+46967+008400FM-15+0450LSZC V0200601N002119999999Y0099001N1+00801+00001999999ADDMA1101081999999REMMET045METAR LSZC 010950Z 06004KT CAVOK 08/00 Q1011;
0079068065999992010030110204+46967+008400FM-15+0450LSZC V0200701N001512200019N0112651N1+00801+00001999999ADDMA1101081999999REMMET052METAR LSZC 011020Z 07003KT 040V110 9999 08/00 Q1011;
0080068065999992010030110504+46967+008400FM-15+0450LSZC V0200701N002119999999Y0099001N1+00901+00001999999ADDMA1101081999999REMMET053METAR LSZC 011050Z 07004KT 030V140 CAVOK 09/00 Q1011;
0080068065999992010030112504+46967+008400FM-15+0450LSZC V0200901N001519999999Y0099001N1+01101+00001999999ADDMA1101021999999REMMET053METAR LSZC 011250Z 09003KT 030V130 CAVOK 11/00 Q1010;
0080068065999992010030113504+46967+008400FM-15+0450LSZC V0201001N002119999999Y0099001N1+01201+00001999999ADDMA1101021999999REMMET053METAR LSZC 011350Z 10004KT 050V160 CAVOK 12/00 Q1010;
0081068065999992010030114204+46967+008400FM-15+0450LSZC V0201001N002119999999Y0099001N1+01101-00101999999ADDMA1101021999999REMMET054METAR LSZC 011420Z 10004KT 060V140 CAVOK 11/M01 Q1010;
0121068065999992010030114504+46967+008400FM-15+0450LSZC V0209999V001512200019N0112651N1+01101-00101999999ADDGA1041+039001999GF104991999999999999999999MA1101021999999REMMET052METAR LSZC 011450Z VRB03KT 9999 SCT130 11/M01 Q1010;
0120068065999992010030115504+46967+008400FM-15+0450LSZC V0209999V001012200019N0112651N1+01101+00101999999ADDGA1041+039001999GF104991999999999999999999MA1101081999999REMMET051METAR LSZC 011550Z VRB02KT 9999 SCT130 11/01 Q1011;
0128068065999992010030206504+46967+008400FM-15+0450LSZC V0203001N001510360019N0112651N1+00401+00101999999ADDGA1071+036001999GF107991999999999999999999MA1101901999999REMMET059METAR LSZC 020650Z 30003KT 260V050 9999 BKN120 04/01 Q1019;
0151068065999992010030207504+46967+008400FM-15+0450LSZC V0200501N001512200019N0112651N1+00601+00201999999ADDGA1021+024001999GA2041+036001999GF104991999999999999999999MA1101901999999REMMET066METAR LSZC 020750Z 05003KT 020V080 9999 FEW080 SCT120 06/02 Q1019;
0143068065999992010030208504+46967+008400FM-15+0450LSZC V0209999V000510360019N0112651N1+00601+00201999999ADDGA1041+013501999GA2071+036001999GF107991999999999999999999MA1102001999999REMMET058METAR LSZC 020850Z VRB01KT 9999 SCT045 BKN120 06/02 Q1020;
0143068065999992010030209504+46967+008400FM-15+0450LSZC V0200601N002110360019N0112651N1+00701+00201999999ADDGA1041+015001999GA2081+036001999GF108991999999999999999999MA1102001999999REMMET058METAR LSZC 020950Z 06004KT 9999 SCT055 OVC120 07/02 Q1020;
0128068065999992010030212504+46967+008400FM-15+0450LSZC V0200401N002110180019N0112651N1+00801+00101999999ADDGA1071+018001999GF107991999999999999999999MA1102001999999REMMET059METAR LSZC 021250Z 04004KT 360V070 9999 BKN065 08/01 Q1020;
0128068065999992010030213204+46967+008400FM-15+0450LSZC V0200401N002610180019N0112651N1+00801+00201999999ADDGA1071+018001999GF107991999999999999999999MA1102001999999REMMET059METAR LSZC 021320Z 04005KT 010V070 9999 BKN065 08/02 Q1020;
0128068065999992010030213504+46967+008400FM-15+0450LSZC V0200401N002110180019N0112651N1+00801+00201999999ADDGA1071+018001999GF107991999999999999999999MA1102001999999REMMET059METAR LSZC 021350Z 04004KT 010V070 9999 BKN065 08/02 Q1020;
0144068065999992010030306504+46967+008400FM-15+0450LSZC V0202301N001510090019N0080001N1+00001-00301999999ADDGA1041+004501999GA2071+009001999GF107991999999999999999999MA1101801999999REMMET059METAR LSZC 030650Z 23003KT 8000 SCT015 BKN030 00/M03 Q1018;
0144068065999992010030307504+46967+008400FM-15+0450LSZC V0209999C000010090019N0080001N1+00201-00101999999ADDGA1041+004501999GA2071+009001999GF107991999999999999999999MA1101691999999REMMET059METAR LSZC 030750Z 00000KT 8000 SCT015 BKN030 02/M01 Q1017;
0144068065999992010030308204+46967+008400FM-15+0450LSZC V0209999V001010090019N0080001N1+00301-00101999999ADDGA1041+004501999GA2071+009001999GF107991999999999999999999MA1101591999999REMMET059METAR LSZC 030820Z VRB02KT 8000 SCT015 BKN030 03/M01 Q1016;
0143068065999992010030308504+46967+008400FM-15+0450LSZC V0209999V001010090019N0080001N1+00301+00001999999ADDGA1041+004501999GA2071+009001999GF107991999999999999999999MA1101591999999REMMET058METAR LSZC 030850Z VRB02KT 8000 SCT015 BKN030 03/00 Q1016;
0151068065999992010030310504+46967+008400FM-15+0450LSZC V0202101N004110105019N0070001N1+00601+00001999999ADDGA1041+006001999GA2071+010501999GF107991999999999999999999MA1101391999999REMMET066METAR LSZC 031050Z 21008KT 160V250 7000 SCT020 BKN035 06/00 Q1014;
0120068065999992010030312204+46967+008400FM-15+0450LSZC V0209999V002110360019N0112651N1+00701+00101999999ADDGA1071+036001999GF107991999999999999999999MA1101191999999REMMET051METAR LSZC 031220Z VRB04KT 9999 BKN120 07/01 Q1012;
0128068065999992010030312504+46967+008400FM-15+0450LSZC V0200701N002110360019N0112651N1+00701+00101999999ADDGA1071+036001999GF107991999999999999999999MA1101191999999REMMET059METAR LSZC 031250Z 07004KT 010V110 9999 BKN120 07/01 Q1012;
0120068065999992010030313204+46967+008400FM-15+0450LSZC V0209999V002110360019N0112651N1+00701+00101999999ADDGA1071+036001999GF107991999999999999999999MA1101081999999REMMET051METAR LSZC 031320Z VRB04KT 9999 BKN120 07/01 Q1011;
0120068065999992010030313504+46967+008400FM-15+0450LSZC V0209999V001010360019N0112651N1+00801+00101999999ADDGA1071+036001999GF107991999999999999999999MA1101081999999REMMET051METAR LSZC 031350Z VRB02KT 9999 BKN120 08/01 Q1011;
0073068065999992010030315204+46967+008400FM-15+0450LSZC V0209999V001019999999Y0099001N1+00801-00101999999ADDMA1100911999999REMMET046METAR LSZC 031520Z VRB02KT CAVOK 08/M01 Q1009;
0138068065999992010030406504+46967+008400FM-15+0450LSZC V0203201N002110072019N0045001N1+00201-00301999999ADDGA1081+007201999GF108991999999999999999999MA1100711999999MW1101REMMET063METAR LSZC 040650Z 32004KT 270V350 4500 BR OVC024 02/M03 Q1007;
0138068065999992010030407204+46967+008400FM-15+0450LSZC V0203101N003110072019N0045001N1+00201-00301999999ADDGA1081+007201999GF108991999999999999999999MA1100811999999MW1101REMMET063METAR LSZC 040720Z 31006KT 280V340 4500 BR OVC024 02/M03 Q1008;
0130068065999992010030407504+46967+008400FM-15+0450LSZC V0203301N004110072019N0045001N1+00201-00301999999ADDGA1081+007201999GF108991999999999999999999MA1100811999999MW1101REMMET055METAR LSZC 040750Z 33008KT 4500 BR OVC024 02/M03 Q1008;
0140068065999992010030408204+46967+008400FM-15+0450LSZC V0203301N004610060019N0040001N1+00101-00201999999ADDGA1081+006001999GF108991999999999999999999MA1100911999999MW1101MW2711REMMET059METAR LSZC 040820Z 33009KT 4000 -SN BR OVC020 01/M02 Q1009;
0147068065999992010030408504+46967+008400FM-15+0450LSZC V0203201N004110045019N0030001N1+00101-00201999999ADDGA1081+004501999GF108991999999999999999999MA1100911999999MW1101MW2731REMMET066METAR LSZC 040850Z 32008KT 290V350 3000 SN BR OVC015 01/M02 Q1009;
0147068065999992010030409204+46967+008400FM-15+0450LSZC V0203201N003610045019N0030001N1+00101-00101999999ADDGA1081+004501999GF108991999999999999999999MA1100911999999MW1101MW2731REMMET066METAR LSZC 040920Z 32007KT 280V340 3000 SN BR OVC015 01/M01 Q1009;
0139068065999992010030409504+46967+008400FM-15+0450LSZC V0209999V001510042019N0030001N1+00101-00101999999ADDGA1081+004201999GF108991999999999999999999MA1100911999999MW1101MW2731REMMET058METAR LSZC 040950Z VRB03KT 3000 SN BR OVC014 01/M01 Q1009;
0147068065999992010030410204+46967+008400FM-15+0450LSZC V0203001N002110045019N0030001N1+00101-00101999999ADDGA1081+004501999GF108991999999999999999999MA1101021999999MW1101MW2731REMMET066METAR LSZC 041020Z 30004KT 210V350 3000 SN BR OVC015 01/M01 Q1010;
0139068065999992010030410504+46967+008400FM-15+0450LSZC V0209999V001010045019N0030001N1+00101-00101999999ADDGA1081+004501999GF108991999999999999999999MA1101021999999MW1101MW2731REMMET058METAR LSZC 041050Z VRB02KT 3000 SN BR OVC015 01/M01 Q1010;
0147068065999992010030412204+46967+008400FM-15+0450LSZC V0203201N003110045019N0030001N1+00101-00201999999ADDGA1081+004501999GF108991999999999999999999MA1101081999999MW1101MW2731REMMET066METAR LSZC 041220Z 32006KT 280V360 3000 SN BR OVC015 01/M02 Q1011;
0139068065999992010030412504+46967+008400FM-15+0450LSZC V0209999V001010045019N0030001N1+00101-00101999999ADDGA1081+004501999GF108991999999999999999999MA1101081999999MW1101MW2731REMMET058METAR LSZC 041250Z VRB02KT 3000 SN BR OVC015 01/M01 Q1011;
0130068065999992010030414204+46967+008400FM-15+0450LSZC V0202201N002610090019N0030001N1+00101-00101999999ADDGA1081+009001999GF108991999999999999999999MA1101191999999MW1101REMMET055METAR LSZC 041420Z 22005KT 3000 BR OVC030 01/M01 Q1012;
0153068065999992010030415204+46967+008400FM-15+0450LSZC V0209999V001010090019N0050001N1+00201-00201999999ADDGA1041+006001999GA2081+009001999GF108991999999999999999999MA1101191999999MW1101REMMET062METAR LSZC 041520Z VRB02KT 5000 BR SCT020 OVC030 02/M02 Q1012;
0153068065999992010030415504+46967+008400FM-15+0450LSZC V0209999V001510105019N0080001N1+00201-00201999999ADDGA1071+010501999GA2081+015001999GF108991999999999999999999MA1101291999999MW1101REMMET062METAR LSZC 041550Z VRB03KT 8000 BR BKN035 OVC050 02/M02 Q1013;
0130068065999992010030506504+46967+008400FM-15+0450LSZC V0202701N002610150019N0112651N1-00101-00801999999ADDGA1071+015001999GF107991999999999999999999MA1102101999999REMMET061METAR LSZC 050650Z 27005KT 190V340 9999 BKN050 M01/M08 Q1021;
0121068065999992010030507204+46967+008400FM-15+0450LSZC V0209999V001512200019N0112651N1+00001-00901999999ADDGA1041+015001999GF104991999999999999999999MA1102101999999REMMET052METAR LSZC 050720Z VRB03KT 9999 SCT050 00/M09 Q1021;
0144068065999992010030508204+46967+008400FM-15+0450LSZC V0203201N004612200019N0112651N1+00001-00901999999ADDGA1041+015001999GA2041+027001999GF104991999999999999999999MA1102201999999REMMET059METAR LSZC 050820Z 32009KT 9999 SCT050 SCT090 00/M09 Q1022;
0144068065999992010030508504+46967+008400FM-15+0450LSZC V0203301N004612200019N0112651N1+00001-00801999999ADDGA1041+015001999GA2041+027001999GF104991999999999999999999MA1102201999999REMMET059METAR LSZC 050850Z 33009KT 9999 SCT050 SCT090 00/M08 Q1022;
0162068065999992010030509504+46967+008400FM-15+0450LSZC V0203101N005110180019N0030001N1-00101-00601999999ADDGA1041+009001999GA2081+018001999GF108991999999999999999999MA1102301999999MW1731REMMET071METAR LSZC 050950Z 31010KT 280V350 3000 SN SCT030 OVC060 M01/M06 Q1023;
0169068065999992010030510204+46967+008400FM-15+0450LSZC V0202401N003610150019N0060001N1-00201-00401999999ADDGA1041+009001999GA2071+015001999GF107991999999999999999999MA1102301999999MW1711REMMET078METAR LSZC 051020Z 24007KT 170V300 6000 3000W -SN SCT030 BKN050 M02/M04 Q1023;
0152068065999992010030512504+46967+008400FM-15+0450LSZC V0202401N002612200019N0112651N1+00101-00701999999ADDGA1041+012001999GA2041+024001999GF104991999999999999999999MA1102301999999REMMET067METAR LSZC 051250Z 24005KT 200V290 9999 SCT040 SCT080 01/M07 Q1023;
0152068065999992010030513204+46967+008400FM-15+0450LSZC V0200901N002612200019N0112651N1+00101-00601999999ADDGA1041+012001999GA2041+024001999GF104991999999999999999999MA1102301999999REMMET067METAR LSZC 051320Z 09005KT 060V140 9999 SCT040 SCT080 01/M06 Q1023;
0152068065999992010030514204+46967+008400FM-15+0450LSZC V0202401N002110240019N0112651N1+00101-00901999999ADDGA1041+015001999GA2071+024001999GF107991999999999999999999MA1102301999999REMMET067METAR LSZC 051420Z 24004KT 200V290 9999 SCT050 BKN080 01/M09 Q1023;
0167068065999992010030515204+46967+008400FM-15+0450LSZC V0201601N001512200019N0070001N1+00001-00601999999ADDGA1041+006001999GA2041+024001999GF104991999999999999999999MA1102301999999MW1731REMMET076METAR LSZC 051520Z 16003KT 130V200 7000 3000E SN SCT020 SCT080 00/M06 Q1023;
0153068065999992010030806504+46967+008400FM-15+0450LSZC V0203101N003610105019N0050001N1-00401-00801999999ADDGA1041+006001999GA2081+010501999GF108991999999999999999999MA1101801999999REMMET068METAR LSZC 080650Z 31007KT 260V330 5000 SCT020 OVC035 M04/M08 Q1018;
0139068065999992010030808204+46967+008400FM-15+0450LSZC V0203201N002110075019N0050001N1-00401-00801999999ADDGA1081+007501999GF108991999999999999999999MA1101801999999MW1101REMMET064METAR LSZC 080820Z 32004KT 290V360 5000 BR OVC025 M04/M08 Q1018;
0131068065999992010030809504+46967+008400FM-15+0450LSZC V0209999V001010054019N0050001N1-00401-00801999999ADDGA1081+005401999GF108991999999999999999999MA1101801999999MW1101REMMET056METAR LSZC 080950Z VRB02KT 5000 BR OVC018 M04/M08 Q1018;
0131068065999992010030810204+46967+008400FM-15+0450LSZC V0209999V001010063019N0050001N1-00401-00801999999ADDGA1081+006301999GF108991999999999999999999MA1101801999999MW1101REMMET056METAR LSZC 081020Z VRB02KT 5000 BR OVC021 M04/M08 Q1018;
0139068065999992010030810504+46967+008400FM-15+0450LSZC V0203501N001510066019N0050001N1-00301-00801999999ADDGA1081+006601999GF108991999999999999999999MA1101801999999MW1101REMMET064METAR LSZC 081050Z 35003KT 290V070 5000 BR OVC022 M03/M08 Q1018;
0131068065999992010030812204+46967+008400FM-15+0450LSZC V0201601N001010066019N0050001N1-00201-00801999999ADDGA1071+006601999GF107991999999999999999999MA1101691999999MW1101REMMET056METAR LSZC 081220Z 16002KT 5000 BR BKN022 M02/M08 Q1017;
0130068065999992010030813504+46967+008400FM-15+0450LSZC V0201801N002612200019N0080001N1-00201-00801999999ADDGA1041+012001999GF104991999999999999999999MA1101591999999REMMET061METAR LSZC 081350Z 18005KT 150V230 8000 SCT040 M02/M08 Q1016;
0130068065999992010030814204+46967+008400FM-15+0450LSZC V0209999V001012200019N0080001N1+00001-00901999999ADDGA1021+015001999GF102991999999999999999999MA1101491999999MW1101REMMET055METAR LSZC 081420Z VRB02KT 8000 BR FEW050 00/M09 Q1015;
0130068065999992010030815204+46967+008400FM-15+0450LSZC V0209999C000012200019N0080001N1+00201-00801999999ADDGA1021+015001999GF102991999999999999999999MA1101491999999MW1101REMMET055METAR LSZC 081520Z 00000KT 8000 BR FEW050 02/M08 Q1015;
0130068065999992010030815504+46967+008400FM-15+0450LSZC V0209999C000012200019N0080001N1+00001-00901999999ADDGA1021+015001999GF102991999999999999999999MA1101491999999MW1101REMMET055METAR LSZC 081550Z 00000KT 8000 BR FEW050 00/M09 Q1015;
0131068065999992010030906204+46967+008400FM-15+0450LSZC V0209999V001510090019N0080001N1-00501-01101999999ADDGA1081+009001999GF108991999999999999999999MA1101291999999MW1101REMMET056METAR LSZC 090620Z VRB03KT 8000 BR OVC030 M05/M11 Q1013;
0155068065999992010030908204+46967+008400FM-15+0450LSZC V0209999V001010135019N0080001N1-00501-01001999999ADDGA1041+009001999GA2071+013501999GF107991999999999999999999MA1101291999999MW1711REMMET064METAR LSZC 090820Z VRB02KT 8000 -SN SCT030 BKN045 M05/M10 Q1013;
0139068065999992010030909504+46967+008400FM-15+0450LSZC V0200501N002110105019N0060001N1-00401-01101999999ADDGA1081+010501999GF108991999999999999999999MA1101291999999MW1101REMMET064METAR LSZC 090950Z 05004KT 340V090 6000 BR OVC035 M04/M11 Q1013;
0140068065999992010030910204+46967+008400FM-15+0450LSZC V0209999V001010105019N0060001N1-00401-01101999999ADDGA1081+010501999GF108991999999999999999999MA1101291999999MW1101MW2731REMMET059METAR LSZC 091020Z VRB02KT 6000 BR SN OVC035 M04/M11 Q1013;
0145068065999992010030914204+46967+008400FM-15+0450LSZC V0209999V001010135019N0080001N1-00201-01101999999ADDGA1021+010501999GA2081+013501999GF108991999999999999999999MA1101291999999REMMET060METAR LSZC 091420Z VRB02KT 8000 FEW035 OVC045 M02/M11 Q1013;
0122068065999992010030914504+46967+008400FM-15+0450LSZC V0209999V001010129019N0070001N1-00201-01101999999ADDGA1081+012901999GF108991999999999999999999MA1101291999999REMMET053METAR LSZC 091450Z VRB02KT 7000 OVC043 M02/M11 Q1013;
0122068065999992010031006204+46967+008400FM-15+0450LSZC V0202801N001510105019N0080001N1-00401-00801999999ADDGA1081+010501999GF108991999999999999999999MA1101021999999REMMET053METAR LSZC 100620Z 28003KT 8000 OVC035 M04/M08 Q1010;
0122068065999992010031008504+46967+008400FM-15+0450LSZC V0209999V001010105019N0080001N1-00201-00801999999ADDGA1081+010501999GF108991999999999999999999MA1101081999999REMMET053METAR LSZC 100850Z VRB02KT 8000 OVC035 M02/M08 Q1011;
0130068065999992010031010504+46967+008400FM-15+0450LSZC V0202901N002610090019N0060001N1-00201-00901999999ADDGA1081+009001999GF108991999999999999999999MA1101081999999REMMET061METAR LSZC 101050Z 29005KT 240V340 6000 OVC030 M02/M09 Q1011;
0122068065999992010031014204+46967+008400FM-15+0450LSZC V0209999V001510090019N0060001N1-00201-00801999999ADDGA1081+009001999GF108991999999999999999999MA1101081999999REMMET053METAR LSZC 101420Z VRB03KT 6000 OVC030 M02/M08 Q1011;
0122068065999992010031014504+46967+008400FM-15+0450LSZC V0209999V001010090019N0060001N1-00201-00901999999ADDGA1081+009001999GF108991999999999999999999MA1101081999999REMMET053METAR LSZC 101450Z VRB02KT 6000 OVC030 M02/M09 Q1011;
0131068065999992010031106504+46967+008400FM-15+0450LSZC V0202401N001510015019N0015001N1-00301-00401999999ADDGA1081+001501999GF108991999999999999999999MA1101191999999MW1731REMMET056METAR LSZC 110650Z 24003KT 1500 SN OVC005 M03/M04 Q1012;
0131068065999992010031108204+46967+008400FM-15+0450LSZC V0202601N001510015019N0015001N1-00201-00401999999ADDGA1081+001501999GF108991999999999999999999MA1101191999999MW1731REMMET056METAR LSZC 110820Z 26003KT 1500 SN OVC005 M02/M04 Q1012;
0130068065999992010031109504+46967+008400FM-15+0450LSZC V0209999V000510060019N0025001N1+00101-00501999999ADDGA1081+006001999GF108991999999999999999999MA1101191999999MW1101REMMET055METAR LSZC 110950Z VRB01KT 2500 BR OVC020 01/M05 Q1012;
0130068065999992010031110504+46967+008400FM-15+0450LSZC V0209999V001010060019N0025001N1+00001-00401999999ADDGA1081+006001999GF108991999999999999999999MA1101191999999MW1101REMMET055METAR LSZC 111050Z VRB02KT 2500 BR OVC020 00/M04 Q1012;
0140068065999992010031114504+46967+008400FM-15+0450LSZC V0201601N001510045019N0020001N1-00101-00201999999ADDGA1081+004501999GF108991999999999999999999MA1101191999999MW1101MW2731REMMET059METAR LSZC 111450Z 16003KT 2000 BR SN OVC015 M01/M02 Q1012;
0139068065999992010031206504+46967+008400FM-15+0450LSZC V0202701N002610045019N0040001N1-00301-00501999999ADDGA1081+004501999GF108991999999999999999999MA1101691999999MW1101REMMET064METAR LSZC 120650Z 27005KT 240V300 4000 BR OVC015 M03/M05 Q1017;
0131068065999992010031208204+46967+008400FM-15+0450LSZC V0202701N002110045019N0040001N1-00201-00601999999ADDGA1081+004501999GF108991999999999999999999MA1101691999999MW1101REMMET056METAR LSZC 120820Z 27004KT 4000 BR OVC015 M02/M06 Q1017;
0130068065999992010031210204+46967+008400FM-15+0450LSZC V0209999V000510075019N0040001N1+00001-00501999999ADDGA1071+007501999GF107991999999999999999999MA1101801999999MW1101REMMET055METAR LSZC 121020Z VRB01KT 4000 BR BKN025 00/M05 Q1018;
0130068065999992010031210504+46967+008400FM-15+0450LSZC V0209999V001510075019N0040001N1+00001-00501999999ADDGA1071+007501999GF107991999999999999999999MA1101801999999MW1101REMMET055METAR LSZC 121050Z VRB03KT 4000 BR BKN025 00/M05 Q1018;
0138068065999992010031212204+46967+008400FM-15+0450LSZC V0200801N002110075019N0040001N1+00101-00501999999ADDGA1071+007501999GF107991999999999999999999MA1101691999999MW1101REMMET063METAR LSZC 121220Z 08004KT 030V120 4000 BR BKN025 01/M05 Q1017;
0138068065999992010031213504+46967+008400FM-15+0450LSZC V0200701N002110075019N0050001N1+00101-00401999999ADDGA1071+007501999GF107991999999999999999999MA1101691999999MW1101REMMET063METAR LSZC 121350Z 07004KT 010V120 5000 BR BKN025 01/M04 Q1017;
0130068065999992010031214504+46967+008400FM-15+0450LSZC V0209999V001510075019N0040001N1+00201-00401999999ADDGA1071+007501999GF107991999999999999999999MA1101801999999MW1101REMMET055METAR LSZC 121450Z VRB03KT 4000 BR BKN025 02/M04 Q1018;
0153068065999992010031507504+46967+008400FM-15+0450LSZC V0209999V000510180019N0060001N1+00301-00201999999ADDGA1041+009001999GA2071+018001999GF107991999999999999999999MA1102611999999MW1101REMMET062METAR LSZC 150750Z VRB01KT 6000 BR SCT030 BKN060 03/M02 Q1026;
0161068065999992010031508204+46967+008400FM-15+0450LSZC V0200901N001510180019N0060001N1+00401-00201999999ADDGA1021+009001999GA2071+018001999GF107991999999999999999999MA1102611999999MW1101REMMET070METAR LSZC 150820Z 09003KT 050V130 6000 BR FEW030 BKN060 04/M02 Q1026;
0161068065999992010031509204+46967+008400FM-15+0450LSZC V0200801N002610180019N0080001N1+00401-00101999999ADDGA1021+013501999GA2081+018001999GF108991999999999999999999MA1102611999999MW1101REMMET070METAR LSZC 150920Z 08005KT 040V120 8000 BR FEW045 OVC060 04/M01 Q1026;
0129068065999992010031509504+46967+008400FM-15+0450LSZC V0200701N002610132019N0112651N1+00401-00101999999ADDGA1071+013201999GF107991999999999999999999MA1102611999999REMMET060METAR LSZC 150950Z 07005KT 030V100 9999 BKN044 04/M01 Q1026;
0129068065999992010031510504+46967+008400FM-15+0450LSZC V0200501N002110138019N0112651N1+00401-00201999999ADDGA1071+013801999GF107991999999999999999999MA1102611999999REMMET060METAR LSZC 151050Z 05004KT 020V090 9999 BKN046 04/M02 Q1026;
0121068065999992010031512204+46967+008400FM-15+0450LSZC V0200601N003110138019N0112651N1+00501-00101999999ADDGA1071+013801999GF107991999999999999999999MA1102611999999REMMET052METAR LSZC 151220Z 06006KT 9999 BKN046 05/M01 Q1026;
0121068065999992010031512504+46967+008400FM-15+0450LSZC V0200701N003110138019N0112651N1+00601-00101999999ADDGA1071+013801999GF107991999999999999999999MA1102611999999REMMET052METAR LSZC 151250Z 07006KT 9999 BKN046 06/M01 Q1026;
0121068065999992010031513204+46967+008400FM-15+0450LSZC V0200601N002610138019N0112651N1+00601-00201999999ADDGA1071+013801999GF107991999999999999999999MA1102511999999REMMET052METAR LSZC 151320Z 06005KT 9999 BKN046 06/M02 Q1025;
0144068065999992010031515204+46967+008400FM-15+0450LSZC V0209999V001510600019N0112651N1+00701-00101999999ADDGA1041+013801999GA2071+060001999GF107991999999999999999999MA1102511999999REMMET059METAR LSZC 151520Z VRB03KT 9999 SCT046 BKN200 07/M01 Q1025;
0144068065999992010031515504+46967+008400FM-15+0450LSZC V0200601N001510270019N0112651N1+00701-00201999999ADDGA1041+013801999GA2071+027001999GF107991999999999999999999MA1102511999999REMMET059METAR LSZC 151550Z 06003KT 9999 SCT046 BKN097 07/M02 Q1025;
0170068065999992010031606504+46967+008400FM-15+0450LSZC V0209999V001010030019N0035001N1+00101+00001999999ADDGA1041+001501999GA2081+003001999GF108991999999999999999999MA1102611999999MW1101MW2631MW3731REMMET067METAR LSZC 160650Z VRB02KT 3500 RA SN BR SCT005 OVC010 01/00 Q1026;
0185068065999992010031607204+46967+008400FM-15+0450LSZC V0200601N00151004501CN0040001N1+00101+00001999999ADDGA1021+001501999GA2041+004501999GA3081+013801999GF108991999999999999999999MA1102611999999MW1101MW2511REMMET072METAR LSZC 160720Z 06003KT 4000 -DZ BR FEW005 SCT015 OVC046 01/00 Q1026;
0166068065999992010031607504+46967+008400FM-15+0450LSZC V0200601N00151004501CN0060001N1+00101+00001999999ADDGA1021+001501999GA2041+004501999GA3081+013801999GF108991999999999999999999MA1102611999999REMMET065METAR LSZC 160750Z 06003KT 6000 FEW005 SCT015 OVC046 01/00 Q1026;
0192068065999992010031608204+46967+008400FM-15+0450LSZC V0200501N002110045019N0040001N1+00201+00101999999ADDGA1021+000601999GA2071+004501999GA3081+012001999GF108991999999999999999999MA1102711999999MW1101MW2531REMMET079METAR LSZC 160820Z 05004KT 020V090 4000 DZ BR FEW002 BKN015 OVC040 02/01 Q1027;
0184068065999992010031608504+46967+008400FM-15+0450LSZC V0200601N002610045019N0040001N1+00201+00101999999ADDGA1041+000901999GA2071+004501999GA3081+012001999GF108991999999999999999999MA1102711999999MW1101MW2631REMMET071METAR LSZC 160850Z 06005KT 4000 RA BR SCT003 BKN015 OVC040 02/01 Q1027;
0192068065999992010031609204+46967+008400FM-15+0450LSZC V0200701N002110045019N0040001N1+00201+00101999999ADDGA1041+000901999GA2071+004501999GA3081+012001999GF108991999999999999999999MA1102711999999MW1101MW2631REMMET079METAR LSZC 160920Z 07004KT 030V100 4000 RA BR SCT003 BKN015 OVC040 02/01 Q1027;
0184068065999992010031610504+46967+008400FM-15+0450LSZC V0201001N001510045019N0050001N1+00301+00201999999ADDGA1041+000901999GA2071+004501999GA3081+012001999GF108991999999999999999999MA1102811999999MW1101MW2631REMMET071METAR LSZC 161050Z 10003KT 5000 RA BR SCT003 BKN015 OVC040 03/02 Q1028;
0176068065999992010031612204+46967+008400FM-15+0450LSZC V0200601N002610120019N0070001N1+00401+00201999999ADDGA1041+001801999GA2071+012001999GA3071+015001999GF107991999999999999999999MA1102811999999MW1611REMMET069METAR LSZC 161220Z 06005KT 7000 -RA SCT006 BKN040 BKN051 04/02 Q1028;
0185068065999992010031612504+46967+008400FM-15+0450LSZC V0200601N003610120019N0070001N1+00401+00201999999ADDGA1041+001801999GA2071+012001999GA3071+015001999GF107991999999999999999999MA1102811999999MW1161REMMET078METAR LSZC 161250Z 06007KT 030V090 7000 VCSH SCT006 BKN040 BKN051 04/02 Q1028;
0177068065999992010031613204+46967+008400FM-15+0450LSZC V0200401N00311012001CN0112651N1+00401+00201999999ADDGA1041+001801999GA2041+012001999GA3071+015001999GF107991999999999999999999MA1102811999999MW1161REMMET070METAR LSZC 161320Z 04006KT 9999 VCSH SCT006 SCT040 BKN051 04/02 Q1028;
0143068065999992010031613504+46967+008400FM-15+0450LSZC V0200701N003110210019N0112651N1+00501+00201999999ADDGA1041+010501999GA2071+021001999GF107991999999999999999999MA1102711999999REMMET058METAR LSZC 161350Z 07006KT 9999 SCT035 BKN070 05/02 Q1027;
0143068065999992010031614504+46967+008400FM-15+0450LSZC V0200301N002610210019N0112651N1+00601+00201999999ADDGA1041+010501999GA2071+021001999GF107991999999999999999999MA1102711999999REMMET058METAR LSZC 161450Z 03005KT 9999 SCT035 BKN070 06/02 Q1027;
0151068065999992010031615504+46967+008400FM-15+0450LSZC V0200501N003610210019N0112651N1+00701+00201999999ADDGA1041+010501999GA2071+021001999GF107991999999999999999999MA1102711999999REMMET066METAR LSZC 161550Z 05007KT 020V080 9999 SCT035 BKN070 07/02 Q1027;
0074068065999992010031706504+46967+008400FM-15+0450LSZC V0209999V000519999999Y0099001N1-00101-00401999999ADDMA1102911999999REMMET047METAR LSZC 170650Z VRB01KT CAVOK M01/M04 Q1029;
0073068065999992010031707204+46967+008400FM-15+0450LSZC V0202601N002119999999Y0099001N1+00001-00301999999ADDMA1102911999999REMMET046METAR LSZC 170720Z 26004KT CAVOK 00/M03 Q1029;
0073068065999992010031708204+46967+008400FM-15+0450LSZC V0209999V001019999999Y0099001N1+00301-00301999999ADDMA1102911999999REMMET046METAR LSZC 170820Z VRB02KT CAVOK 03/M03 Q1029;
0073068065999992010031708504+46967+008400FM-15+0450LSZC V0209999V000519999999Y0099001N1+00501-00201999999ADDMA1102911999999REMMET046METAR LSZC 170850Z VRB01KT CAVOK 05/M02 Q1029;
0073068065999992010031709204+46967+008400FM-15+0450LSZC V0209999V000519999999Y0099001N1+00701-00301999999ADDMA1102911999999REMMET046METAR LSZC 170920Z VRB01KT CAVOK 07/M03 Q1029;
0073068065999992010031709504+46967+008400FM-15+0450LSZC V0209999V001019999999Y0099001N1+00701-00301999999ADDMA1102911999999REMMET046METAR LSZC 170950Z VRB02KT CAVOK 07/M03 Q1029;
0073068065999992010031710204+46967+008400FM-15+0450LSZC V0200701N002119999999Y0099001N1+00601-00301999999ADDMA1102911999999REMMET046METAR LSZC 171020Z 07004KT CAVOK 06/M03 Q1029;
0081068065999992010031710504+46967+008400FM-15+0450LSZC V0200601N002619999999Y0099001N1+00601-00401999999ADDMA1102811999999REMMET054METAR LSZC 171050Z 06005KT 030V100 CAVOK 06/M04 Q1028;
0081068065999992010031712204+46967+008400FM-15+0450LSZC V0200801N002119999999Y0099001N1+00901-00501999999ADDMA1102811999999REMMET054METAR LSZC 171220Z 08004KT 050V110 CAVOK 09/M05 Q1028;
0073068065999992010031712504+46967+008400FM-15+0450LSZC V0200701N002619999999Y0099001N1+00901-00301999999ADDMA1102811999999REMMET046METAR LSZC 171250Z 07005KT CAVOK 09/M03 Q1028;
0081068065999992010031713504+46967+008400FM-15+0450LSZC V0200901N001519999999Y0099001N1+01001-00201999999ADDMA1102711999999REMMET054METAR LSZC 171350Z 09003KT 050V140 CAVOK 10/M02 Q1027;
0081068065999992010031714204+46967+008400FM-15+0450LSZC V0200901N002119999999Y0099001N1+01001-00201999999ADDMA1102711999999REMMET054METAR LSZC 171420Z 09004KT 050V120 CAVOK 10/M02 Q1027;
0073068065999992010031806504+46967+008400FM-15+0450LSZC V0202501N000519999999Y0099001N1+00201-00201999999ADDMA1102711999999REMMET046METAR LSZC 180650Z 25001KT CAVOK 02/M02 Q1027;
0073068065999992010031807504+46967+008400FM-15+0450LSZC V0209999V000519999999Y0099001N1+00601-00101999999ADDMA1102711999999REMMET046METAR LSZC 180750Z VRB01KT CAVOK 06/M01 Q1027;
0073068065999992010031808204+46967+008400FM-15+0450LSZC V0209999V001019999999Y0099001N1+00801-00101999999ADDMA1102711999999REMMET046METAR LSZC 180820Z VRB02KT CAVOK 08/M01 Q1027;
0081068065999992010031808504+46967+008400FM-15+0450LSZC V0200701N002119999999Y0099001N1+00801-00101999999ADDMA1102711999999REMMET054METAR LSZC 180850Z 07004KT 020V110 CAVOK 08/M01 Q1027;
0072068065999992010031809204+46967+008400FM-15+0450LSZC V0209999V001519999999Y0099001N1+00801+00001999999ADDMA1102711999999REMMET045METAR LSZC 180920Z VRB03KT CAVOK 08/00 Q1027;
0073068065999992010031809504+46967+008400FM-15+0450LSZC V0209999V001519999999Y0099001N1+00901-00301999999ADDMA1102611999999REMMET046METAR LSZC 180950Z VRB03KT CAVOK 09/M03 Q1026;
0072068065999992010031810504+46967+008400FM-15+0450LSZC V0200701N002119999999Y0099001N1+01001+00001999999ADDMA1102611999999REMMET045METAR LSZC 181050Z 07004KT CAVOK 10/00 Q1026;
0081068065999992010031812204+46967+008400FM-15+0450LSZC V0200901N002119999999Y0099001N1+01301-00301999999ADDMA1102511999999REMMET054METAR LSZC 181220Z 09004KT 060V120 CAVOK 13/M03 Q1025;
0081068065999992010031812504+46967+008400FM-15+0450LSZC V0200801N002119999999Y0099001N1+01301-00401999999ADDMA1102401999999REMMET054METAR LSZC 181250Z 08004KT 050V120 CAVOK 13/M04 Q1024;
0081068065999992010031813204+46967+008400FM-15+0450LSZC V0200701N002619999999Y0099001N1+01401-00201999999ADDMA1102401999999REMMET054METAR LSZC 181320Z 07005KT 040V110 CAVOK 14/M02 Q1024;
0081068065999992010031813504+46967+008400FM-15+0450LSZC V0200801N002119999999Y0099001N1+01401-00201999999ADDMA1102401999999REMMET054METAR LSZC 181350Z 08004KT 040V110 CAVOK 14/M02 Q1024;
0073068065999992010031814504+46967+008400FM-15+0450LSZC V0200601N002119999999Y0099001N1+01501-00201999999ADDMA1102301999999REMMET046METAR LSZC 181450Z 06004KT CAVOK 15/M02 Q1023;
0072068065999992010031815504+46967+008400FM-15+0450LSZC V0209999V001019999999Y0099001N1+01201+00001999999ADDMA1102301999999REMMET045METAR LSZC 181550Z VRB02KT CAVOK 12/00 Q1023;
0143068065999992010032206204+46967+008400FM-15+0450LSZC V0200901N001010105019N0080001N1+00801+00701999999ADDGA1021+004501999GA2071+010501999GF107991999999999999999999MA1102201999999REMMET058METAR LSZC 220620Z 09002KT 8000 FEW015 BKN035 08/07 Q1022;
0143068065999992010032206504+46967+008400FM-15+0450LSZC V0209999C000010105019N0080001N1+00801+00701999999ADDGA1021+004501999GA2071+010501999GF107991999999999999999999MA1102201999999REMMET058METAR LSZC 220650Z 00000KT 8000 FEW015 BKN035 08/07 Q1022;
0143068065999992010032207204+46967+008400FM-15+0450LSZC V0209999C000010105019N0080001N1+00801+00701999999ADDGA1021+004501999GA2071+010501999GF107991999999999999999999MA1102201999999REMMET058METAR LSZC 220720Z 00000KT 8000 FEW015 BKN035 08/07 Q1022;
0143068065999992010032207504+46967+008400FM-15+0450LSZC V0200801N001010105019N0080001N1+00901+00701999999ADDGA1021+004501999GA2071+010501999GF107991999999999999999999MA1102201999999REMMET058METAR LSZC 220750Z 08002KT 8000 FEW015 BKN035 09/07 Q1022;
0143068065999992010032208204+46967+008400FM-15+0450LSZC V0209999V001012200019N0112651N1+00901+00701999999ADDGA1021+004501999GA2041+010501999GF104991999999999999999999MA1102101999999REMMET058METAR LSZC 220820Z VRB02KT 9999 FEW015 SCT035 09/07 Q1021;
0143068065999992010032208504+46967+008400FM-15+0450LSZC V0209999V001012200019N0112651N1+01101+00601999999ADDGA1021+004501999GA2041+010501999GF104991999999999999999999MA1102101999999REMMET058METAR LSZC 220850Z VRB02KT 9999 FEW015 SCT035 11/06 Q1021;
0120068065999992010032209204+46967+008400FM-15+0450LSZC V0200701N002112200019N0112651N1+01001+00701999999ADDGA1041+004501999GF104991999999999999999999MA1102101999999REMMET051METAR LSZC 220920Z 07004KT 9999 SCT015 10/07 Q1021;
0128068065999992010032209504+46967+008400FM-15+0450LSZC V0200801N002612200019N0112651N1+01101+00701999999ADDGA1041+005401999GF104991999999999999999999MA1102101999999REMMET059METAR LSZC 220950Z 08005KT 060V120 9999 SCT018 11/07 Q1021;
0120068065999992010032210204+46967+008400FM-15+0450LSZC V0200701N002612200019N0112651N1+01101+00701999999ADDGA1041+005401999GF104991999999999999999999MA1102101999999REMMET051METAR LSZC 221020Z 07005KT 9999 SCT018 11/07 Q1021;
0143068065999992010032210504+46967+008400FM-15+0450LSZC V0209999V001010750019N0112651N1+01201+00801999999ADDGA1021+005401999GA2071+075001999GF107991999999999999999999MA1102101999999REMMET058METAR LSZC 221050Z VRB02KT 9999 FEW018 BKN250 12/08 Q1021;
0151068065999992010032212204+46967+008400FM-15+0450LSZC V0200601N002110750019N0112651N1+01301+00801999999ADDGA1021+005401999GA2071+075001999GF107991999999999999999999MA1102001999999REMMET066METAR LSZC 221220Z 06004KT 030V100 9999 FEW018 BKN250 13/08 Q1020;
0143068065999992010032212504+46967+008400FM-15+0450LSZC V0209999V001510750019N0112651N1+01301+00701999999ADDGA1021+005401999GA2071+075001999GF107991999999999999999999MA1102001999999REMMET058METAR LSZC 221250Z VRB03KT 9999 FEW018 BKN250 13/07 Q1020;
0151068065999992010032213204+46967+008400FM-15+0450LSZC V0200601N002110750019N0112651N1+01401+00801999999ADDGA1041+012001999GA2071+075001999GF107991999999999999999999MA1102001999999REMMET066METAR LSZC 221320Z 06004KT 020V120 9999 SCT040 BKN250 14/08 Q1020;
0151068065999992010032213504+46967+008400FM-15+0450LSZC V0200701N002110750019N0112651N1+01401+00801999999ADDGA1041+012001999GA2071+075001999GF107991999999999999999999MA1102001999999REMMET066METAR LSZC 221350Z 07004KT 020V100 9999 SCT040 BKN250 14/08 Q1020;
0151068065999992010032214204+46967+008400FM-15+0450LSZC V0200801N002110750019N0112651N1+01401+00901999999ADDGA1041+012001999GA2071+075001999GF107991999999999999999999MA1102001999999REMMET066METAR LSZC 221420Z 08004KT 050V110 9999 SCT040 BKN250 14/09 Q1020;
0143068065999992010032214504+46967+008400FM-15+0450LSZC V0200601N002610750019N0112651N1+01301+00701999999ADDGA1041+013501999GA2071+075001999GF107991999999999999999999MA1102001999999REMMET058METAR LSZC 221450Z 06005KT 9999 SCT045 BKN250 13/07 Q1020;
0143068065999992010032215204+46967+008400FM-15+0450LSZC V0200801N002110750019N0112651N1+01401+00701999999ADDGA1021+013501999GA2071+075001999GF107991999999999999999999MA1101901999999REMMET058METAR LSZC 221520Z 08004KT 9999 FEW045 BKN250 14/07 Q1019;
0143068065999992010032215504+46967+008400FM-15+0450LSZC V0200701N002110750019N0112651N1+01401+00801999999ADDGA1021+013501999GA2071+075001999GF107991999999999999999999MA1101901999999REMMET058METAR LSZC 221550Z 07004KT 9999 FEW045 BKN250 14/08 Q1019;
0120068065999992010032306504+46967+008400FM-15+0450LSZC V0209999C000012200019N0090001N1+00601+00401999999ADDGA1021+012001999GF102991999999999999999999MA1102101999999REMMET051METAR LSZC 230650Z 00000KT 9000 FEW040 06/04 Q1021;
0120068065999992010032307204+46967+008400FM-15+0450LSZC V0209999C000012200019N0090001N1+00701+00501999999ADDGA1021+012001999GF102991999999999999999999MA1102101999999REMMET051METAR LSZC 230720Z 00000KT 9000 FEW040 07/05 Q1021;
0120068065999992010032307504+46967+008400FM-15+0450LSZC V0209999V001012200019N0090001N1+00801+00601999999ADDGA1021+012001999GF102991999999999999999999MA1102101999999REMMET051METAR LSZC 230750Z VRB02KT 9000 FEW040 08/06 Q1021;
0120068065999992010032308204+46967+008400FM-15+0450LSZC V0209999V001012200019N0090001N1+00801+00601999999ADDGA1041+012001999GF104991999999999999999999MA1102101999999REMMET051METAR LSZC 230820Z VRB02KT 9000 SCT040 08/06 Q1021;
0128068065999992010032309204+46967+008400FM-15+0450LSZC V0200601N002112200019N0090001N1+01001+00701999999ADDGA1041+013501999GF104991999999999999999999MA1102101999999REMMET059METAR LSZC 230920Z 06004KT 030V110 9000 SCT045 10/07 Q1021;
0120068065999992010032309504+46967+008400FM-15+0450LSZC V0209999V001012200019N0112651N1+01101+00701999999ADDGA1041+013501999GF104991999999999999999999MA1102101999999REMMET051METAR LSZC 230950Z VRB02KT 9999 SCT045 11/07 Q1021;
0120068065999992010032310204+46967+008400FM-15+0450LSZC V0200701N002112200019N0112651N1+01101+00701999999ADDGA1041+013501999GF104991999999999999999999MA1102101999999REMMET051METAR LSZC 231020Z 07004KT 9999 SCT045 11/07 Q1021;
0128068065999992010032310504+46967+008400FM-15+0450LSZC V0200601N002112200019N0112651N1+01201+00701999999ADDGA1021+013501999GF102991999999999999999999MA1102001999999REMMET059METAR LSZC 231050Z 06004KT 020V080 9999 FEW045 12/07 Q1020;
0128068065999992010032312204+46967+008400FM-15+0450LSZC V0200601N002112200019N0090001N1+01401+00801999999ADDGA1021+013501999GF102991999999999999999999MA1101901999999REMMET059METAR LSZC 231220Z 06004KT 020V100 9000 FEW045 14/08 Q1019;
0120068065999992010032312504+46967+008400FM-15+0450LSZC V0209999V001512200019N0070001N1+01501+00701999999ADDGA1021+013501999GF102991999999999999999999MA1101801999999REMMET051METAR LSZC 231250Z VRB03KT 7000 FEW045 15/07 Q1018;
0128068065999992010032313504+46967+008400FM-15+0450LSZC V0200701N002112200019N0070001N1+01601+00801999999ADDGA1021+013501999GF102991999999999999999999MA1101691999999REMMET059METAR LSZC 231350Z 07004KT 030V110 7000 FEW045 16/08 Q1017;
0128068065999992010032314204+46967+008400FM-15+0450LSZC V0200901N002112200019N0070001N1+01601+00701999999ADDGA1021+013501999GF102991999999999999999999MA1101691999999REMMET059METAR LSZC 231420Z 09004KT 050V140 7000 FEW045 16/07 Q1017;
0120068065999992010032314504+46967+008400FM-15+0450LSZC V0201001N002612200019N0090001N1+01601+00801999999ADDGA1021+013501999GF102991999999999999999999MA1101691999999REMMET051METAR LSZC 231450Z 10005KT 9000 FEW045 16/08 Q1017;
0128068065999992010032315204+46967+008400FM-15+0450LSZC V0200901N001512200019N0090001N1+01601+00601999999ADDGA1021+013501999GF102991999999999999999999MA1101591999999REMMET059METAR LSZC 231520Z 09003KT 040V120 9000 FEW045 16/06 Q1016;
0120068065999992010032315504+46967+008400FM-15+0450LSZC V0209999V001512200019N0090001N1+01701+00601999999ADDGA1021+013501999GF102991999999999999999999MA1101591999999REMMET051METAR LSZC 231550Z VRB03KT 9000 FEW045 17/06 Q1016;
0081068065999992010032406504+46967+008400FM-15+0450LSZC V0209999V001012200019N0112651N1+00501+00301999999ADDMA1101491999999REMMET054METAR LSZC 240650Z VRB02KT 9999 ///////// 05/03 Q1015;
0081068065999992010032407204+46967+008400FM-15+0450LSZC V0209999C000012200019N0112651N1+00701+00301999999ADDMA1101491999999REMMET054METAR LSZC 240720Z 00000KT 9999 ///////// 07/03 Q1015;
0081068065999992010032408204+46967+008400FM-15+0450LSZC V0209999C000012200019N0112651N1+01101+00401999999ADDMA1101491999999REMMET054METAR LSZC 240820Z 00000KT 9999 ///////// 11/04 Q1015;
0081068065999992010032408504+46967+008400FM-15+0450LSZC V0200701N002112200019N0112651N1+00901+00501999999ADDMA1101491999999REMMET054METAR LSZC 240850Z 07004KT 9999 ///////// 09/05 Q1015;
0080068065999992010032409504+46967+008400FM-15+0450LSZC V0200701N002119999999Y0099001N1+01101+00501999999ADDMA1101391999999REMMET053METAR LSZC 240950Z 07004KT 030V110 CAVOK 11/05 Q1014;
0072068065999992010032410204+46967+008400FM-15+0450LSZC V0209999V001519999999Y0099001N1+01201+00501999999ADDMA1101391999999REMMET045METAR LSZC 241020Z VRB03KT CAVOK 12/05 Q1014;
0080068065999992010032412204+46967+008400FM-15+0450LSZC V0200801N002619999999Y0099001N1+01401+00701999999ADDMA1101291999999REMMET053METAR LSZC 241220Z 08005KT 050V110 CAVOK 14/07 Q1013;
0072068065999992010032412504+46967+008400FM-15+0450LSZC V0209999V001519999999Y0099001N1+01601+00701999999ADDMA1101191999999REMMET045METAR LSZC 241250Z VRB03KT CAVOK 16/07 Q1012;
0072068065999992010032413504+46967+008400FM-15+0450LSZC V0200701N002619999999Y0099001N1+01601+00701999999ADDMA1101081999999REMMET045METAR LSZC 241350Z 07005KT CAVOK 16/07 Q1011;
0080068065999992010032414204+46967+008400FM-15+0450LSZC V0200801N002119999999Y0099001N1+01601+00701999999ADDMA1101081999999REMMET053METAR LSZC 241420Z 08004KT 050V110 CAVOK 16/07 Q1011;
0072068065999992010032415504+46967+008400FM-15+0450LSZC V0200801N002119999999Y0099001N1+01701+00801999999ADDMA1101081999999REMMET045METAR LSZC 241550Z 08004KT CAVOK 17/08 Q1011;
0072068065999992010032507204+46967+008400FM-15+0450LSZC V0202501N003619999999Y0099001N1+01001+00401999999ADDMA1101021999999REMMET045METAR LSZC 250720Z 25007KT CAVOK 10/04 Q1010;
0072068065999992010032507504+46967+008400FM-15+0450LSZC V0202601N002619999999Y0099001N1+01001+00401999999ADDMA1100911999999REMMET045METAR LSZC 250750Z 26005KT CAVOK 10/04 Q1009;
0072068065999992010032508204+46967+008400FM-15+0450LSZC V0202501N002619999999Y0099001N1+01301+00401999999ADDMA1100911999999REMMET045METAR LSZC 250820Z 25005KT CAVOK 13/04 Q1009;
0072068065999992010032509204+46967+008400FM-15+0450LSZC V0200701N001519999999Y0099001N1+01301+00601999999ADDMA1100911999999REMMET045METAR LSZC 250920Z 07003KT CAVOK 13/06 Q1009;
0128068065999992010032510504+46967+008400FM-15+0450LSZC V0200701N001510330019N0112651N1+01701+00301999999ADDGA1071+033001999GF107991999999999999999999MA1100911999999REMMET059METAR LSZC 251050Z 07003KT 030V100 9999 BKN110 17/03 Q1009;
0128068065999992010032513504+46967+008400FM-15+0450LSZC V0200501N005110330019N0112651N1+01801+00301999999ADDGA1071+033001999GF107991999999999999999999MA1100811999999REMMET059METAR LSZC 251350Z 05010KT 020V090 9999 BKN110 18/03 Q1008;
0120068065999992010032514204+46967+008400FM-15+0450LSZC V0200601N006210330019N0112651N1+01701+00301999999ADDGA1071+033001999GF107991999999999999999999MA1100811999999REMMET051METAR LSZC 251420Z 06012KT 9999 BKN110 17/03 Q1008;
0128068065999992010032514504+46967+008400FM-15+0450LSZC V0200601N004112200019N0112651N1+01801+00201999999ADDGA1021+033001999GF102991999999999999999999MA1100811999999REMMET059METAR LSZC 251450Z 06008KT 010V110 9999 FEW110 18/02 Q1008;
0128068065999992010032515504+46967+008400FM-15+0450LSZC V0200601N005112200019N0112651N1+01601+00301999999ADDGA1021+033001999GF102991999999999999999999MA1100811999999REMMET059METAR LSZC 251550Z 06010KT 030V090 9999 FEW110 16/03 Q1008;
0120068065999992010032607504+46967+008400FM-15+0450LSZC V0209999V001012200019N0112651N1+01201+00601999999ADDGA1021+018001999GF102991999999999999999999MA1100511999999REMMET051METAR LSZC 260750Z VRB02KT 9999 FEW065 12/06 Q1005;
0120068065999992010032608504+46967+008400FM-15+0450LSZC V0209999V001012200019N0112651N1+01401+00601999999ADDGA1021+018001999GF102991999999999999999999MA1100411999999REMMET051METAR LSZC 260850Z VRB02KT 9999 FEW065 14/06 Q1004;
0162068065999992010032609204+46967+008400FM-15+0450LSZC V0203301N006210450019N0112651N1+01501+00701999999ADDGA1021+013501999GA2071+045001999GF107991999999999999999999MA1100611999999OC101591REMMET069METAR LSZC 260920Z 33012G31KT 260V070 9999 FEW045 BKN150 15/07 Q1006;
0151068065999992010032609504+46967+008400FM-15+0450LSZC V0200801N006210150019N0112651N1+01401+00701999999ADDGA1071+015001999GA2081+036001999GF108991999999999999999999MA1100611999999REMMET066METAR LSZC 260950Z 08012KT 340V120 9999 BKN050 OVC120 14/07 Q1006;
0172068065999992010032610204+46967+008400FM-15+0450LSZC V0203201N008210120019N0112651N1+01201+00501999999ADDGA1071+012001999GA2081+036001999GF108991999999999999999999MA1100711999999MW1611OC101541REMMET073METAR LSZC 261020Z 32016G30KT 280V350 9999 -RA BKN040 OVC120 12/05 Q1007;
0145068065999992010032612204+46967+008400FM-15+0450LSZC V0202701N001510090019N0112651N1+00801+00501999999ADDGA1081+009001999GF108991999999999999999999MA1101191999999MW1811MW2951REMMET064METAR LSZC 261220Z 27003KT 240V300 9999 TSRA OVC030 08/05 Q1012;
0142068065999992010032612504+46967+008400FM-15+0450LSZC V0202501N003110090019N0112651N1+00801+00401999999ADDGA1081+009001999GF108991999999999999999999MA1101191999999MW1631REMMET067METAR LSZC 261250Z 25006KT 200V280 9999 RA OVC030 08/04 Q1012 RETS;
0160068065999992010032613504+46967+008400FM-15+0450LSZC V0203601N001510090019N0112651N1+00701+00501999999ADDGA1041+003001999GA2081+009001999GF108991999999999999999999MA1101291999999MW1631REMMET069METAR LSZC 261350Z 36003KT 310V070 9999 RA SCT010 OVC030 07/05 Q1013;
0153068065999992010032614204+46967+008400FM-15+0450LSZC V0209999V001510150019N0112651N1+00601+00401999999ADDGA1041+003001999GA2081+015001999GF108991999999999999999999MA1101191999999MW1611REMMET062METAR LSZC 261420Z VRB03KT 9999 -RA SCT010 OVC050 06/04 Q1012;
0161068065999992010032614504+46967+008400FM-15+0450LSZC V0203601N002110120019N0112651N1+00601+00401999999ADDGA1041+004501999GA2081+012001999GF108991999999999999999999MA1101191999999MW1611REMMET070METAR LSZC 261450Z 36004KT 280V060 9999 -RA SCT015 OVC040 06/04 Q1012;
0120068065999992010032906504+46967+008400FM-15+0450LSZC V0209999V001010360019N0112651N1+00801+00601999999ADDGA1081+036001999GF108991999999999999999999MA1101081999999REMMET051METAR LSZC 290650Z VRB02KT 9999 OVC120 08/06 Q1011;
0143068065999992010032908204+46967+008400FM-15+0450LSZC V0209999V000512200019N0112651N1+01101+00701999999ADDGA1021+015001999GA2041+045001999GF104991999999999999999999MA1101081999999REMMET058METAR LSZC 290820Z VRB01KT 9999 FEW050 SCT150 11/07 Q1011;
0143068065999992010032908504+46967+008400FM-15+0450LSZC V0200601N002112200019N0112651N1+01001+00601999999ADDGA1021+015001999GA2041+045001999GF104991999999999999999999MA1101081999999REMMET058METAR LSZC 290850Z 06004KT 9999 FEW050 SCT150 10/06 Q1011;
0151068065999992010032909204+46967+008400FM-15+0450LSZC V0200701N002112200019N0112651N1+01101+00601999999ADDGA1021+015001999GA2041+045001999GF104991999999999999999999MA1101081999999REMMET066METAR LSZC 290920Z 07004KT 040V100 9999 FEW050 SCT150 11/06 Q1011;
0143068065999992010032909504+46967+008400FM-15+0450LSZC V0209999V001010390019N0112651N1+01201+00701999999ADDGA1021+015001999GA2071+039001999GF107991999999999999999999MA1101021999999REMMET058METAR LSZC 290950Z VRB02KT 9999 FEW050 BKN130 12/07 Q1010;
0120068065999992010032912504+46967+008400FM-15+0450LSZC V0209999V000510330019N0112651N1+01501+00601999999ADDGA1071+033001999GF107991999999999999999999MA1100811999999REMMET051METAR LSZC 291250Z VRB01KT 9999 BKN110 15/06 Q1008;
0120068065999992010032913204+46967+008400FM-15+0450LSZC V0200701N002110330019N0112651N1+01401+00801999999ADDGA1071+033001999GF107991999999999999999999MA1100711999999REMMET051METAR LSZC 291320Z 07004KT 9999 BKN110 14/08 Q1007;
0120068065999992010032913504+46967+008400FM-15+0450LSZC V0200801N002112200019N0112651N1+01501+00601999999ADDGA1041+033001999GF104991999999999999999999MA1100711999999REMMET051METAR LSZC 291350Z 08004KT 9999 SCT110 15/06 Q1007;
0128068065999992010032914204+46967+008400FM-15+0450LSZC V0200701N002112200019N0112651N1+01501+00701999999ADDGA1041+033001999GF104991999999999999999999MA1100711999999REMMET059METAR LSZC 291420Z 07004KT 030V110 9999 SCT110 15/07 Q1007;
0120068065999992010032914504+46967+008400FM-15+0450LSZC V0200701N002112200019N0112651N1+01401+00701999999ADDGA1021+033001999GF102991999999999999999999MA1100611999999REMMET051METAR LSZC 291450Z 07004KT 9999 FEW110 14/07 Q1006;
0072068065999992010033006504+46967+008400FM-15+0450LSZC V0209999V001019999999Y0099001N1+00701+00501999999ADDMA1099701999999REMMET045METAR LSZC 300650Z VRB02KT CAVOK 07/05 Q0997;
0120068065999992010033007504+46967+008400FM-15+0450LSZC V0209999V001012200019N0112651N1+01001+00501999999ADDGA1021+024001999GF102991999999999999999999MA1099701999999REMMET051METAR LSZC 300750Z VRB02KT 9999 FEW080 10/05 Q0997;
0120068065999992010033011204+46967+008400FM-15+0450LSZC V0209999V001510300019N0112651N1+01601+00401999999ADDGA1071+030001999GF107991999999999999999999MA1099391999999REMMET051METAR LSZC 301120Z VRB03KT 9999 BKN100 16/04 Q0994;
0120068065999992010033011504+46967+008400FM-15+0450LSZC V0209999V001012200019N0112651N1+01701+00401999999ADDGA1041+030001999GF104991999999999999999999MA1099391999999REMMET051METAR LSZC 301150Z VRB02KT 9999 SCT100 17/04 Q0994;
0128068065999992010033012504+46967+008400FM-15+0450LSZC V0203201N007210180019N0112651N1+01601+00501999999ADDGA1071+018001999GF107991999999999999999999MA1099491999999REMMET059METAR LSZC 301250Z 32014KT 290V350 9999 BKN060 16/05 Q0995;
0128068065999992010033013204+46967+008400FM-15+0450LSZC V0203301N006710180019N0112651N1+01501+00301999999ADDGA1071+018001999GF107991999999999999999999MA1099591999999REMMET059METAR LSZC 301320Z 33013KT 290V010 9999 BKN060 15/03 Q0996;
0139068065999992010033013504+46967+008400FM-15+0450LSZC V0203501N004110180019N0112651N1+01501+00301999999ADDGA1081+018001999GF108991999999999999999999MA1099591999999OC101081REMMET062METAR LSZC 301350Z 35008G21KT 290V050 9999 OVC060 15/03 Q0996;
0120068065999992010033106504+46967+008400FM-15+0450LSZC V0209999V001512200019N0112651N1+00401+00101999999ADDGA1021+024001999GF102991999999999999999999MA1100611999999REMMET051METAR LSZC 310650Z VRB03KT 9999 FEW080 04/01 Q1006;
0120068065999992010033107504+46967+008400FM-15+0450LSZC V0209999V001512200019N0112651N1+00701+00101999999ADDGA1021+024001999GF102991999999999999999999MA1100611999999REMMET051METAR LSZC 310750Z VRB03KT 9999 FEW080 07/01 Q1006;
0128068065999992010033108504+46967+008400FM-15+0450LSZC V0200901N002112200019N0112651N1+00801+00101999999ADDGA1021+024001999GF102991999999999999999999MA1100611999999REMMET059METAR LSZC 310850Z 09004KT 040V140 9999 FEW080 08/01 Q1006;
0120068065999992010033109204+46967+008400FM-15+0450LSZC V0209999V000512200019N0112651N1+01001+00101999999ADDGA1021+024001999GF102991999999999999999999MA1100611999999REMMET051METAR LSZC 310920Z VRB01KT 9999 FEW080 10/01 Q1006;
0160068065999992010033112204+46967+008400FM-15+0450LSZC V0203601N002610135019N0112651N1+00901+00201999999ADDGA1041+007501999GA2081+013501999GF108991999999999999999999MA1100611999999MW1631REMMET069METAR LSZC 311220Z 36005KT 320V070 9999 RA SCT025 OVC045 09/02 Q1006;
0160068065999992010033113204+46967+008400FM-15+0450LSZC V0200701N004110135019N0112651N1+00801+00401999999ADDGA1041+007501999GA2081+013501999GF108991999999999999999999MA1100711999999MW1631REMMET069METAR LSZC 311320Z 07008KT 030V100 9999 RA SCT025 OVC045 08/04 Q1007;
0162068065999992010033113504+46967+008400FM-15+0450LSZC V0200601N004610135019N0112651N1+00601+00301999999ADDGA1041+007501999GA2071+013501999GF107991999999999999999999MA1100711999999MW1161REMMET071METAR LSZC 311350Z 06009KT 030V100 9999 VCSH SCT025 BKN045 06/03 Q1007;
0136068065999992010040105504+46967+008400FM-15+0450LSZC V0203301N002110030019N0015001N1+00101+00001999999ADDGA1091+003001999GF109991999999000251999999MA1101291999999MW1631MW2731REMMET055METAR LSZC 010550Z 33004KT 1500 RASN VV010 01/00 Q1013;
0136068065999992010040106204+46967+008400FM-15+0450LSZC V0209999V001510045019N0025001N1+00101+00001999999ADDGA1091+004501999GF109991999999000251999999MA1101291999999MW1631MW2731REMMET055METAR LSZC 010620Z VRB03KT 2500 RASN VV015 01/00 Q1013;
0136068065999992010040106504+46967+008400FM-15+0450LSZC V0209999V000510051019N0030001N1+00101+00001999999ADDGA1091+005101999GF109991999999000251999999MA1101291999999MW1631MW2731REMMET055METAR LSZC 010650Z VRB01KT 3000 RASN VV017 01/00 Q1013;
0138068065999992010040107204+46967+008400FM-15+0450LSZC V0209999C000010048019N0040001N1+00101+00001999999ADDGA1081+004801999GF108991999999999999999999MA1101391999999MW1611MW2711REMMET057METAR LSZC 010720Z 00000KT 4000 -RASN OVC016 01/00 Q1014;
0161068065999992010040107504+46967+008400FM-15+0450LSZC V0209999C000010051019N0040001N1+00101+00001999999ADDGA1021+000901999GA2081+005101999GF108991999999999999999999MA1101391999999MW1611MW2711REMMET064METAR LSZC 010750Z 00000KT 4000 -RASN FEW003 OVC017 01/00 Q1014;
0137068065999992010040108504+46967+008400FM-15+0450LSZC V0209999C000010015019N0030001N1+00101+00001999999ADDGA1081+001501999GF108991999999999999999999MA1101391999999MW1631MW2731REMMET056METAR LSZC 010850Z 00000KT 3000 RASN OVC005 01/00 Q1014;
0160068065999992010040109204+46967+008400FM-15+0450LSZC V0209999V000510036019N0030001N1+00101+00001999999ADDGA1021+001501999GA2081+003601999GF108991999999999999999999MA1101491999999MW1631MW2731REMMET063METAR LSZC 010920Z VRB01KT 3000 RASN FEW005 OVC012 01/00 Q1015;
0152068065999992010040109504+46967+008400FM-15+0450LSZC V0209999V000510120019N0030001N1+00101+00001999999ADDGA1041+001501999GA2081+012001999GF108991999999999999999999MA1101491999999MW1731REMMET061METAR LSZC 010950Z VRB01KT 3000 SN SCT005 OVC040 01/00 Q1015;
0151068065999992010040111204+46967+008400FM-15+0450LSZC V0200401N001510210019N0112651N1+00301+00101999999ADDGA1041+003601999GA2081+021001999GF108991999999999999999999MA1101591999999REMMET066METAR LSZC 011120Z 04003KT 350V080 9999 SCT012 OVC070 03/01 Q1016;
0143068065999992010040111504+46967+008400FM-15+0450LSZC V0209999V001010210019N0112651N1+00401+00101999999ADDGA1041+003001999GA2081+021001999GF108991999999999999999999MA1101591999999REMMET058METAR LSZC 011150Z VRB02KT 9999 SCT010 OVC070 04/01 Q1016;
0143068065999992010040112204+46967+008400FM-15+0450LSZC V0209999V000510210019N0112651N1+00501+00001999999ADDGA1021+003001999GA2081+021001999GF108991999999999999999999MA1101591999999REMMET058METAR LSZC 011220Z VRB01KT 9999 FEW010 OVC070 05/00 Q1016;
0151068065999992010040113204+46967+008400FM-15+0450LSZC V0200701N002110210019N0112651N1+00501+00001999999ADDGA1021+006001999GA2081+021001999GF108991999999999999999999MA1101591999999REMMET066METAR LSZC 011320Z 07004KT 010V100 9999 FEW020 OVC070 05/00 Q1016;
0128068065999992010040114204+46967+008400FM-15+0450LSZC V0200701N002112200019N0112651N1+00601+00101999999ADDGA1041+021001999GF104991999999999999999999MA1101591999999REMMET059METAR LSZC 011420Z 07004KT 010V110 9999 SCT070 06/01 Q1016;
0082068065999992010040605204+46967+008400FM-15+0450LSZC V0202301N001519999999Y0099001N1-00101-00401999999ADDMA1102611999999REMMET055METAR LSZC 060520Z 23003KT 200V310 CAVOK M01/M04 Q1026;
0073068065999992010040606504+46967+008400FM-15+0450LSZC V0202501N002119999999Y0099001N1+00301-00201999999ADDMA1102611999999REMMET046METAR LSZC 060650Z 25004KT CAVOK 03/M02 Q1026;
0073068065999992010040607504+46967+008400FM-15+0450LSZC V0209999V000519999999Y0099001N1+00601-00101999999ADDMA1102511999999REMMET046METAR LSZC 060750Z VRB01KT CAVOK 06/M01 Q1025;
0073068065999992010040608204+46967+008400FM-15+0450LSZC V0209999V000519999999Y0099001N1+00701-00201999999ADDMA1102511999999REMMET046METAR LSZC 060820Z VRB01KT CAVOK 07/M02 Q1025;
0080068065999992010040608504+46967+008400FM-15+0450LSZC V0200601N001519999999Y0099001N1+00701+00001999999ADDMA1102511999999REMMET053METAR LSZC 060850Z 06003KT 020V110 CAVOK 07/00 Q1025;
0080068065999992010040609204+46967+008400FM-15+0450LSZC V0200801N001519999999Y0099001N1+00801+00001999999ADDMA1102401999999REMMET053METAR LSZC 060920Z 08003KT 020V130 CAVOK 08/00 Q1024;
0080068065999992010040609504+46967+008400FM-15+0450LSZC V0200701N002119999999Y0099001N1+00801+00101999999ADDMA1102401999999REMMET053METAR LSZC 060950Z 07004KT 010V140 CAVOK 08/01 Q1024;
0072068065999992010040613204+46967+008400FM-15+0450LSZC V0200601N002619999999Y0099001N1+01201+00101999999ADDMA1102101999999REMMET045METAR LSZC 061320Z 06005KT CAVOK 12/01 Q1021;
0072068065999992010040613504+46967+008400FM-15+0450LSZC V0200701N002119999999Y0099001N1+01301+00101999999ADDMA1102101999999REMMET045METAR LSZC 061350Z 07004KT CAVOK 13/01 Q1021;
0080068065999992010040614204+46967+008400FM-15+0450LSZC V0200701N002619999999Y0099001N1+01301+00101999999ADDMA1102001999999REMMET053METAR LSZC 061420Z 07005KT 020V090 CAVOK 13/01 Q1020;
0072068065999992010040614504+46967+008400FM-15+0450LSZC V0200901N002119999999Y0099001N1+01401+00001999999ADDMA1102001999999REMMET045METAR LSZC 061450Z 09004KT CAVOK 14/00 Q1020;
0073068065999992010040705504+46967+008400FM-15+0450LSZC V0202301N001519999999Y0099001N1+00101-00101999999ADDMA1101901999999REMMET046METAR LSZC 070550Z 23003KT CAVOK 01/M01 Q1019;
0072068065999992010040706204+46967+008400FM-15+0450LSZC V0202601N001519999999Y0099001N1+00301+00001999999ADDMA1101901999999REMMET045METAR LSZC 070620Z 26003KT CAVOK 03/00 Q1019;
0072068065999992010040706504+46967+008400FM-15+0450LSZC V0202501N001019999999Y0099001N1+00501+00101999999ADDMA1101901999999REMMET045METAR LSZC 070650Z 25002KT CAVOK 05/01 Q1019;
0072068065999992010040707204+46967+008400FM-15+0450LSZC V0209999V001019999999Y0099001N1+00701+00201999999ADDMA1101901999999REMMET045METAR LSZC 070720Z VRB02KT CAVOK 07/02 Q1019;
0072068065999992010040707504+46967+008400FM-15+0450LSZC V0209999V000519999999Y0099001N1+00901+00101999999ADDMA1101901999999REMMET045METAR LSZC 070750Z VRB01KT CAVOK 09/01 Q1019;
0072068065999992010040708504+46967+008400FM-15+0450LSZC V0200701N002119999999Y0099001N1+00901+00401999999ADDMA1101901999999REMMET045METAR LSZC 070850Z 07004KT CAVOK 09/04 Q1019;
0080068065999992010040709204+46967+008400FM-15+0450LSZC V0200701N001519999999Y0099001N1+01101+00401999999ADDMA1101901999999REMMET053METAR LSZC 070920Z 07003KT 030V130 CAVOK 11/04 Q1019;
0080068065999992010040709504+46967+008400FM-15+0450LSZC V0200801N002119999999Y0099001N1+01101+00301999999ADDMA1101901999999REMMET053METAR LSZC 070950Z 08004KT 040V110 CAVOK 11/03 Q1019;
0072068065999992010040711204+46967+008400FM-15+0450LSZC V0200801N002119999999Y0099001N1+01301+00401999999ADDMA1101801999999REMMET045METAR LSZC 071120Z 08004KT CAVOK 13/04 Q1018;
0072068065999992010040712204+46967+008400FM-15+0450LSZC V0200701N002119999999Y0099001N1+01401+00501999999ADDMA1101691999999REMMET045METAR LSZC 071220Z 07004KT CAVOK 14/05 Q1017;
0080068065999992010040712504+46967+008400FM-15+0450LSZC V0200701N002619999999Y0099001N1+01501+00601999999ADDMA1101691999999REMMET053METAR LSZC 071250Z 07005KT 030V110 CAVOK 15/06 Q1017;
0080068065999992010040713204+46967+008400FM-15+0450LSZC V0201001N002619999999Y0099001N1+01701+00601999999ADDMA1101691999999REMMET053METAR LSZC 071320Z 10005KT 060V120 CAVOK 17/06 Q1017;
0080068065999992010040714204+46967+008400FM-15+0450LSZC V0200801N002619999999Y0099001N1+01801+00601999999ADDMA1101691999999REMMET053METAR LSZC 071420Z 08005KT 030V140 CAVOK 18/06 Q1017;
0120068065999992010040805504+46967+008400FM-15+0450LSZC V0209999C000010105019N0112651N1+00801+00401999999ADDGA1081+010501999GF108991999999999999999999MA1102201999999REMMET051METAR LSZC 080550Z 00000KT 9999 OVC035 08/04 Q1022;
0120068065999992010040806204+46967+008400FM-15+0450LSZC V0209999V000510105019N0112651N1+00901+00501999999ADDGA1081+010501999GF108991999999999999999999MA1102201999999REMMET051METAR LSZC 080620Z VRB01KT 9999 OVC035 09/05 Q1022;
0120068065999992010040806504+46967+008400FM-15+0450LSZC V0209999C000010105019N0112651N1+00901+00501999999ADDGA1081+010501999GF108991999999999999999999MA1102201999999REMMET051METAR LSZC 080650Z 00000KT 9999 OVC035 09/05 Q1022;
0120068065999992010040807204+46967+008400FM-15+0450LSZC V0209999V000510105019N0112651N1+01001+00501999999ADDGA1081+010501999GF108991999999999999999999MA1102201999999REMMET051METAR LSZC 080720Z VRB01KT 9999 OVC035 10/05 Q1022;
0120068065999992010040807504+46967+008400FM-15+0450LSZC V0209999V000510105019N0112651N1+01001+00501999999ADDGA1081+010501999GF108991999999999999999999MA1102201999999REMMET051METAR LSZC 080750Z VRB01KT 9999 OVC035 10/05 Q1022;
0143068065999992010040808204+46967+008400FM-15+0450LSZC V0209999V000510150019N0112651N1+01101+00601999999ADDGA1041+012001999GA2081+015001999GF108991999999999999999999MA1102301999999REMMET058METAR LSZC 080820Z VRB01KT 9999 SCT040 OVC050 11/06 Q1023;
0143068065999992010040808504+46967+008400FM-15+0450LSZC V0209999V000510210019N0112651N1+01301+00601999999ADDGA1041+012001999GA2071+021001999GF107991999999999999999999MA1102301999999REMMET058METAR LSZC 080850Z VRB01KT 9999 SCT040 BKN070 13/06 Q1023;
0143068065999992010040809204+46967+008400FM-15+0450LSZC V0209999V001010150019N0112651N1+01401+00601999999ADDGA1041+012001999GA2071+015001999GF107991999999999999999999MA1102301999999REMMET058METAR LSZC 080920Z VRB02KT 9999 SCT040 BKN058 14/06 Q1023;
0151068065999992010040809504+46967+008400FM-15+0450LSZC V0200901N002110150019N0112651N1+01301+00601999999ADDGA1041+012001999GA2071+015001999GF107991999999999999999999MA1102301999999REMMET066METAR LSZC 080950Z 09004KT 050V120 9999 SCT040 BKN058 13/06 Q1023;
0143068065999992010040811204+46967+008400FM-15+0450LSZC V0209999V001510150019N0112651N1+01401+00601999999ADDGA1041+012001999GA2071+015001999GF107991999999999999999999MA1102301999999REMMET058METAR LSZC 081120Z VRB03KT 9999 SCT040 BKN058 14/06 Q1023;
0143068065999992010040811504+46967+008400FM-15+0450LSZC V0209999V001510150019N0080001N1+01401+00701999999ADDGA1041+012001999GA2071+015001999GF107991999999999999999999MA1102201999999REMMET058METAR LSZC 081150Z VRB03KT 8000 SCT040 BKN058 14/07 Q1022;
0143068065999992010040812504+46967+008400FM-15+0450LSZC V0209999V001510150019N0070001N1+01501+00601999999ADDGA1041+012001999GA2071+015001999GF107991999999999999999999MA1102201999999REMMET058METAR LSZC 081250Z VRB03KT 7000 SCT040 BKN058 15/06 Q1022;
0128068065999992010040813204+46967+008400FM-15+0450LSZC V0203401N002110135019N0070001N1+01501+00701999999ADDGA1071+013501999GF107991999999999999999999MA1102201999999REMMET059METAR LSZC 081320Z 34004KT 270V040 7000 BKN045 15/07 Q1022;
0143068065999992010040813504+46967+008400FM-15+0450LSZC V0209999V002610180019N0070001N1+01501+00701999999ADDGA1041+013501999GA2071+018001999GF107991999999999999999999MA1102201999999REMMET058METAR LSZC 081350Z VRB05KT 7000 SCT045 BKN062 15/07 Q1022;
0143068065999992010040814204+46967+008400FM-15+0450LSZC V0209999V002110180019N0070001N1+01501+00701999999ADDGA1041+013501999GA2071+018001999GF107991999999999999999999MA1102201999999REMMET058METAR LSZC 081420Z VRB04KT 7000 SCT045 BKN062 15/07 Q1022;
0128068065999992010040814504+46967+008400FM-15+0450LSZC V0203401N001510150019N0080001N1+01501+00601999999ADDGA1071+015001999GF107991999999999999999999MA1102201999999REMMET059METAR LSZC 081450Z 34003KT 280V020 8000 BKN055 15/06 Q1022;
0137068065999992010040905504+46967+008400FM-15+0450LSZC V0203201N001510072019N0040001N1+01001+00501999999ADDGA1081+007201999GF108991999999999999999999MA1102711999999MW1101REMMET062METAR LSZC 090550Z 32003KT 260V020 4000 BR OVC024 10/05 Q1027;
0137068065999992010040906204+46967+008400FM-15+0450LSZC V0203201N002110066019N0040001N1+01001+00601999999ADDGA1071+006601999GF107991999999999999999999MA1102711999999MW1101REMMET062METAR LSZC 090620Z 32004KT 280V350 4000 BR BKN022 10/06 Q1027;
0129068065999992010040906504+46967+008400FM-15+0450LSZC V0209999V000510066019N0040001N1+01001+00601999999ADDGA1071+006601999GF107991999999999999999999MA1102711999999MW1101REMMET054METAR LSZC 090650Z VRB01KT 4000 BR BKN022 10/06 Q1027;
0137068065999992010040907204+46967+008400FM-15+0450LSZC V0201001N001512200019N0040001N1+01001+00601999999ADDGA1041+008101999GF104991999999999999999999MA1102711999999MW1101REMMET062METAR LSZC 090720Z 10003KT 050V120 4000 BR SCT027 10/06 Q1027;
0129068065999992010040907504+46967+008400FM-15+0450LSZC V0209999V001012200019N0040001N1+01001+00601999999ADDGA1041+008101999GF104991999999999999999999MA1102811999999MW1101REMMET054METAR LSZC 090750Z VRB02KT 4000 BR SCT027 10/06 Q1028;
0129068065999992010040908504+46967+008400FM-15+0450LSZC V0209999V001512200019N0040001N1+01101+00601999999ADDGA1041+008101999GF104991999999999999999999MA1102811999999MW1101REMMET054METAR LSZC 090850Z VRB03KT 4000 BR SCT027 11/06 Q1028;
0129068065999992010040909204+46967+008400FM-15+0450LSZC V0209999V001012200019N0040001N1+01201+00801999999ADDGA1041+008101999GF104991999999999999999999MA1102811999999MW1101REMMET054METAR LSZC 090920Z VRB02KT 4000 BR SCT027 12/08 Q1028;
0129068065999992010040909504+46967+008400FM-15+0450LSZC V0209999V000512200019N0040001N1+01201+00601999999ADDGA1041+008101999GF104991999999999999999999MA1102811999999MW1101REMMET054METAR LSZC 090950Z VRB01KT 4000 BR SCT027 12/06 Q1028;
0129068065999992010040910504+46967+008400FM-15+0450LSZC V0209999V001012200019N0040001N1+01201+00601999999ADDGA1041+008101999GF104991999999999999999999MA1102811999999MW1101REMMET054METAR LSZC 091050Z VRB02KT 4000 BR SCT027 12/06 Q1028;
0129068065999992010040911204+46967+008400FM-15+0450LSZC V0209999V001012200019N0040001N1+01201+00601999999ADDGA1041+008101999GF104991999999999999999999MA1102811999999MW1101REMMET054METAR LSZC 091120Z VRB02KT 4000 BR SCT027 12/06 Q1028;
0129068065999992010040911504+46967+008400FM-15+0450LSZC V0209999V001512200019N0040001N1+01301+00701999999ADDGA1041+008101999GF104991999999999999999999MA1102711999999MW1101REMMET054METAR LSZC 091150Z VRB03KT 4000 BR SCT027 13/07 Q1027;
0137068065999992010040912204+46967+008400FM-15+0450LSZC V0202001N003112200019N0040001N1+01301+00701999999ADDGA1041+009001999GF104991999999999999999999MA1102711999999MW1051REMMET062METAR LSZC 091220Z 20006KT 160V240 4000 HZ SCT030 13/07 Q1027;
0137068065999992010040912504+46967+008400FM-15+0450LSZC V0202001N002112200019N0040001N1+01301+00701999999ADDGA1041+009001999GF104991999999999999999999MA1102711999999MW1051REMMET062METAR LSZC 091250Z 20004KT 130V250 4000 HZ SCT030 13/07 Q1027;
0137068065999992010040913204+46967+008400FM-15+0450LSZC V0202101N002110090019N0040001N1+01401+00701999999ADDGA1071+009001999GF107991999999999999999999MA1102711999999MW1051REMMET062METAR LSZC 091320Z 21004KT 160V250 4000 HZ BKN030 14/07 Q1027;
0137068065999992010040913504+46967+008400FM-15+0450LSZC V0202101N002110090019N0040001N1+01401+00701999999ADDGA1071+009001999GF107991999999999999999999MA1102711999999MW1051REMMET062METAR LSZC 091350Z 21004KT 170V240 4000 HZ BKN030 14/07 Q1027;
0120068065999992010041205504+46967+008400FM-15+0450LSZC V0203301N004110060019N0080001N1+00401+00001999999ADDGA1081+006001999GF108991999999999999999999MA1101291999999REMMET051METAR LSZC 120550Z 33008KT 8000 OVC020 04/00 Q1013;
0129068065999992010041206204+46967+008400FM-15+0450LSZC V0203001N002610060019N0080001N1+00401-00101999999ADDGA1081+006001999GF108991999999999999999999MA1101291999999REMMET060METAR LSZC 120620Z 30005KT 230V350 8000 OVC020 04/M01 Q1013;
0128068065999992010041206504+46967+008400FM-15+0450LSZC V0203001N003110060019N0080001N1+00401+00001999999ADDGA1081+006001999GF108991999999999999999999MA1101291999999REMMET059METAR LSZC 120650Z 30006KT 260V330 8000 OVC020 04/00 Q1013;
0152068065999992010041207204+46967+008400FM-15+0450LSZC V0203101N003610060019N0080001N1+00401-00101999999ADDGA1071+006001999GA2081+007501999GF108991999999999999999999MA1101291999999REMMET067METAR LSZC 120720Z 31007KT 270V340 8000 BKN020 OVC025 04/M01 Q1013;
0143068065999992010041207504+46967+008400FM-15+0450LSZC V0203001N002610075019N0080001N1+00401+00001999999ADDGA1041+005401999GA2081+007501999GF108991999999999999999999MA1101291999999REMMET058METAR LSZC 120750Z 30005KT 8000 SCT018 OVC025 04/00 Q1013;
0152068065999992010041208204+46967+008400FM-15+0450LSZC V0203201N002610075019N0080001N1+00501-00101999999ADDGA1041+005401999GA2081+007501999GF108991999999999999999999MA1101291999999REMMET067METAR LSZC 120820Z 32005KT 260V360 8000 SCT018 OVC025 05/M01 Q1013;
0143068065999992010041208504+46967+008400FM-15+0450LSZC V0209999V001510084019N0090001N1+00501+00001999999ADDGA1041+005701999GA2081+008401999GF108991999999999999999999MA1101291999999REMMET058METAR LSZC 120850Z VRB03KT 9000 SCT019 OVC028 05/00 Q1013;
0143068065999992010041209204+46967+008400FM-15+0450LSZC V0209999V001010087019N0090001N1+00501+00001999999ADDGA1041+005701999GA2081+008701999GF108991999999999999999999MA1101291999999REMMET058METAR LSZC 120920Z VRB02KT 9000 SCT019 OVC029 05/00 Q1013;
0143068065999992010041209504+46967+008400FM-15+0450LSZC V0209999V001010087019N0090001N1+00501+00001999999ADDGA1041+005701999GA2081+008701999GF108991999999999999999999MA1101291999999REMMET058METAR LSZC 120950Z VRB02KT 9000 SCT019 OVC029 05/00 Q1013;
0144068065999992010041211204+46967+008400FM-15+0450LSZC V0209999V001010120019N0090001N1+00601-00101999999ADDGA1041+006001999GA2081+012001999GF108991999999999999999999MA1101291999999REMMET059METAR LSZC 121120Z VRB02KT 9000 SCT020 OVC040 06/M01 Q1013;
0143068065999992010041211504+46967+008400FM-15+0450LSZC V0209999V001010120019N0090001N1+00701+00001999999ADDGA1041+006001999GA2081+012001999GF108991999999999999999999MA1101191999999REMMET058METAR LSZC 121150Z VRB02KT 9000 SCT020 OVC040 07/00 Q1012;
0143068065999992010041212204+46967+008400FM-15+0450LSZC V0209999V001010120019N0090001N1+00701+00001999999ADDGA1041+006001999GA2081+012001999GF108991999999999999999999MA1101191999999REMMET058METAR LSZC 121220Z VRB02KT 9000 SCT020 OVC040 07/00 Q1012;
0143068065999992010041212504+46967+008400FM-15+0450LSZC V0209999V001010120019N0090001N1+00701+00001999999ADDGA1041+006001999GA2081+012001999GF108991999999999999999999MA1101191999999REMMET058METAR LSZC 121250Z VRB02KT 9000 SCT020 OVC040 07/00 Q1012;
0121068065999992010041213204+46967+008400FM-15+0450LSZC V0209999V000510126019N0090001N1+00701-00101999999ADDGA1071+012601999GF107991999999999999999999MA1101191999999REMMET052METAR LSZC 121320Z VRB01KT 9000 BKN042 07/M01 Q1012;
0120068065999992010041213504+46967+008400FM-15+0450LSZC V0209999V000510132019N0090001N1+00801+00001999999ADDGA1071+013201999GF107991999999999999999999MA1101191999999REMMET051METAR LSZC 121350Z VRB01KT 9000 BKN044 08/00 Q1012;
0128068065999992010041214204+46967+008400FM-15+0450LSZC V0201201N001510132019N0090001N1+00801+00101999999ADDGA1071+013201999GF107991999999999999999999MA1101081999999REMMET059METAR LSZC 121420Z 12003KT 070V200 9000 BKN044 08/01 Q1011;
0120068065999992010041214504+46967+008400FM-15+0450LSZC V0209999V001010132019N0090001N1+00801+00001999999ADDGA1071+013201999GF107991999999999999999999MA1101081999999REMMET051METAR LSZC 121450Z VRB02KT 9000 BKN044 08/00 Q1011;
0121068065999992010041305504+46967+008400FM-15+0450LSZC V0202101N000510066019N0070001N1+00301-00101999999ADDGA1071+006601999GF107991999999999999999999MA1101191999999REMMET052METAR LSZC 130550Z 21001KT 7000 BKN022 03/M01 Q1012;
0120068065999992010041306204+46967+008400FM-15+0450LSZC V0209999V001012200019N0070001N1+00201+00001999999ADDGA1041+006601999GF104991999999999999999999MA1101191999999REMMET051METAR LSZC 130620Z VRB02KT 7000 SCT022 02/00 Q1012;
0120068065999992010041306504+46967+008400FM-15+0450LSZC V0209999C000012200019N0070001N1+00501+00101999999ADDGA1041+006601999GF104991999999999999999999MA1101191999999REMMET051METAR LSZC 130650Z 00000KT 7000 SCT022 05/01 Q1012;
0120068065999992010041307204+46967+008400FM-15+0450LSZC V0209999V000512200019N0070001N1+00601+00101999999ADDGA1041+006901999GF104991999999999999999999MA1101191999999REMMET051METAR LSZC 130720Z VRB01KT 7000 SCT023 06/01 Q1012;
0128068065999992010041307504+46967+008400FM-15+0450LSZC V0200501N001512200019N0070001N1+00601+00101999999ADDGA1041+006901999GF104991999999999999999999MA1101191999999REMMET059METAR LSZC 130750Z 05003KT 340V110 7000 SCT023 06/01 Q1012;
0120068065999992010041308204+46967+008400FM-15+0450LSZC V0200701N002112200019N0060001N1+00601+00101999999ADDGA1041+006901999GF104991999999999999999999MA1101191999999REMMET051METAR LSZC 130820Z 07004KT 6000 SCT023 06/01 Q1012;
0128068065999992010041308504+46967+008400FM-15+0450LSZC V0200901N002612200019N0060001N1+00701+00201999999ADDGA1041+006901999GF104991999999999999999999MA1101191999999REMMET059METAR LSZC 130850Z 09005KT 060V120 6000 SCT023 07/02 Q1012;
0128068065999992010041309204+46967+008400FM-15+0450LSZC V0200901N002612200019N0060001N1+00801+00101999999ADDGA1041+006901999GF104991999999999999999999MA1101191999999REMMET059METAR LSZC 130920Z 09005KT 360V160 6000 SCT023 08/01 Q1012;
0128068065999992010041309504+46967+008400FM-15+0450LSZC V0203201N003610069019N0060001N1+00701+00001999999ADDGA1071+006901999GF107991999999999999999999MA1101291999999REMMET059METAR LSZC 130950Z 32007KT 290V010 6000 BKN023 07/00 Q1013;
0128068065999992010041311204+46967+008400FM-15+0450LSZC V0203201N003610069019N0060001N1+00801+00101999999ADDGA1071+006901999GF107991999999999999999999MA1101291999999REMMET059METAR LSZC 131120Z 32007KT 280V020 6000 BKN023 08/01 Q1013;
0128068065999992010041311504+46967+008400FM-15+0450LSZC V0200201N001510069019N0060001N1+00901+00201999999ADDGA1071+006901999GF107991999999999999999999MA1101191999999REMMET059METAR LSZC 131150Z 02003KT 320V090 6000 BKN023 09/02 Q1012;
0128068065999992010041312204+46967+008400FM-15+0450LSZC V0200701N003112200019N0060001N1+00901+00201999999ADDGA1041+009001999GF104991999999999999999999MA1101191999999REMMET059METAR LSZC 131220Z 07006KT 340V140 6000 SCT030 09/02 Q1012;
0128068065999992010041313204+46967+008400FM-15+0450LSZC V0200901N002612200019N0060001N1+01001+00201999999ADDGA1041+012001999GF104991999999999999999999MA1101191999999REMMET059METAR LSZC 131320Z 09005KT 020V170 6000 SCT040 10/02 Q1012;
0128068065999992010041313504+46967+008400FM-15+0450LSZC V0200701N002612200019N0060001N1+01001+00101999999ADDGA1041+013501999GF104991999999999999999999MA1101081999999REMMET059METAR LSZC 131350Z 07005KT 020V150 6000 SCT045 10/01 Q1011;
0120068065999992010041314204+46967+008400FM-15+0450LSZC V0209999V002112200019N0060001N1+01101+00201999999ADDGA1041+013501999GF104991999999999999999999MA1101081999999REMMET051METAR LSZC 131420Z VRB04KT 6000 SCT045 11/02 Q1011;
0120068065999992010041406204+46967+008400FM-15+0450LSZC V0202501N001512200019N0060001N1+00301+00101999999ADDGA1041+030001999GF104991999999999999999999MA1101291999999REMMET051METAR LSZC 140620Z 25003KT 6000 SCT100 03/01 Q1013;
0120068065999992010041406504+46967+008400FM-15+0450LSZC V0209999V001012200019N0060001N1+00501+00201999999ADDGA1041+030001999GF104991999999999999999999MA1101291999999REMMET051METAR LSZC 140650Z VRB02KT 6000 SCT100 05/02 Q1013;
0120068065999992010041407204+46967+008400FM-15+0450LSZC V0209999V001012200019N0060001N1+00601+00201999999ADDGA1041+030001999GF104991999999999999999999MA1101291999999REMMET051METAR LSZC 140720Z VRB02KT 6000 SCT100 06/02 Q1013;
0120068065999992010041407504+46967+008400FM-15+0450LSZC V0209999V001012200019N0060001N1+00801+00301999999ADDGA1041+012001999GF104991999999999999999999MA1101291999999REMMET051METAR LSZC 140750Z VRB02KT 6000 SCT040 08/03 Q1013;
0128068065999992010041408204+46967+008400FM-15+0450LSZC V0200701N002112200019N0060001N1+00801+00301999999ADDGA1041+012001999GF104991999999999999999999MA1101291999999REMMET059METAR LSZC 140820Z 07004KT 030V100 6000 SCT040 08/03 Q1013;
0120068065999992010041408504+46967+008400FM-15+0450LSZC V0200701N002110135019N0060001N1+00601+00301999999ADDGA1071+013501999GF107991999999999999999999MA1101291999999REMMET051METAR LSZC 140850Z 07004KT 6000 BKN045 06/03 Q1013;
0143068065999992010041409504+46967+008400FM-15+0450LSZC V0209999V001010210019N0060001N1+00801+00301999999ADDGA1041+013501999GA2071+021001999GF107991999999999999999999MA1101291999999REMMET058METAR LSZC 140950Z VRB02KT 6000 SCT045 BKN077 08/03 Q1013;
0143068065999992010041411204+46967+008400FM-15+0450LSZC V0200501N003610210019N0060001N1+00901+00401999999ADDGA1041+013501999GA2071+021001999GF107991999999999999999999MA1101291999999REMMET058METAR LSZC 141120Z 05007KT 6000 SCT045 BKN077 09/04 Q1013;
0143068065999992010041411504+46967+008400FM-15+0450LSZC V0200801N003610210019N0060001N1+00901+00401999999ADDGA1041+013501999GA2071+021001999GF107991999999999999999999MA1101291999999REMMET058METAR LSZC 141150Z 08007KT 6000 SCT045 BKN077 09/04 Q1013;
0143068065999992010041412204+46967+008400FM-15+0450LSZC V0200901N003110210019N0060001N1+01001+00401999999ADDGA1041+013501999GA2071+021001999GF107991999999999999999999MA1101291999999REMMET058METAR LSZC 141220Z 09006KT 6000 SCT045 BKN075 10/04 Q1013;
0151068065999992010041412504+46967+008400FM-15+0450LSZC V0200801N003110210019N0060001N1+01101+00501999999ADDGA1041+013501999GA2071+021001999GF107991999999999999999999MA1101291999999REMMET066METAR LSZC 141250Z 08006KT 340V120 6000 SCT045 BKN075 11/05 Q1013;
0151068065999992010041413204+46967+008400FM-15+0450LSZC V0200301N003110210019N0060001N1+01101+00201999999ADDGA1041+013501999GA2071+021001999GF107991999999999999999999MA1101291999999REMMET066METAR LSZC 141320Z 03006KT 300V080 6000 SCT045 BKN075 11/02 Q1013;
0151068065999992010041413504+46967+008400FM-15+0450LSZC V0203601N002610210019N0060001N1+01001+00201999999ADDGA1041+013501999GA2071+021001999GF107991999999999999999999MA1101291999999REMMET066METAR LSZC 141350Z 36005KT 320V070 6000 SCT045 BKN075 10/02 Q1013;
0151068065999992010041414204+46967+008400FM-15+0450LSZC V0203501N003110150019N0060001N1+01001+00201999999ADDGA1071+015001999GA2081+018001999GF108991999999999999999999MA1101291999999REMMET066METAR LSZC 141420Z 35006KT 320V050 6000 BKN051 OVC060 10/02 Q1013;
0151068065999992010041415204+46967+008400FM-15+0450LSZC V0203301N003610150019N0060001N1+00901+00201999999ADDGA1071+015001999GA2081+018001999GF108991999999999999999999MA1101291999999REMMET066METAR LSZC 141520Z 33007KT 300V010 6000 BKN051 OVC060 09/02 Q1013;
0153068065999992010041505504+46967+008400FM-15+0450LSZC V0202101N001010045019N0040001N1+00601+00401999999ADDGA1021+003301999GA2081+004501999GF108991999999999999999999MA1101291999999MW1511REMMET062METAR LSZC 150550Z 21002KT 4000 -DZ FEW011 OVC015 06/04 Q1013;
0153068065999992010041506204+46967+008400FM-15+0450LSZC V0202101N001510048019N0040001N1+00601+00401999999ADDGA1021+003301999GA2081+004801999GF108991999999999999999999MA1101291999999MW1511REMMET062METAR LSZC 150620Z 21003KT 4000 -DZ FEW011 OVC016 06/04 Q1013;
0153068065999992010041506504+46967+008400FM-15+0450LSZC V0209999V001010048019N0040001N1+00601+00401999999ADDGA1021+003001999GA2081+004801999GF108991999999999999999999MA1101391999999MW1511REMMET062METAR LSZC 150650Z VRB02KT 4000 -DZ FEW010 OVC016 06/04 Q1014;
0162068065999992010041507204+46967+008400FM-15+0450LSZC V0202301N001510060019N0040001N1+00601+00401999999ADDGA1021+003001999GA2081+006001999GF108991999999999999999999MA1101391999999MW1101MW2511REMMET065METAR LSZC 150720Z 23003KT 4000 -DZ BR FEW010 OVC020 06/04 Q1014;
0153068065999992010041508204+46967+008400FM-15+0450LSZC V0209999V001510042019N0060001N1+00601+00401999999ADDGA1021+003001999GA2081+004201999GF108991999999999999999999MA1101391999999MW1511REMMET062METAR LSZC 150820Z VRB03KT 6000 -DZ FEW010 OVC014 06/04 Q1014;
0153068065999992010041508504+46967+008400FM-15+0450LSZC V0209999V001010042019N0060001N1+00601+00401999999ADDGA1021+003001999GA2081+004201999GF108991999999999999999999MA1101391999999MW1511REMMET062METAR LSZC 150850Z VRB02KT 6000 -DZ FEW010 OVC014 06/04 Q1014;
0153068065999992010041509204+46967+008400FM-15+0450LSZC V0209999V001010042019N0060001N1+00701+00401999999ADDGA1021+003001999GA2081+004201999GF108991999999999999999999MA1101391999999MW1511REMMET062METAR LSZC 150920Z VRB02KT 6000 -DZ FEW010 OVC014 07/04 Q1014;
0166068065999992010041511204+46967+008400FM-15+0450LSZC V0209999V00211006301CN0070001N1+00901+00501999999ADDGA1021+004801999GA2041+006301999GA3081+015001999GF108991999999999999999999MA1101391999999REMMET065METAR LSZC 151120Z VRB04KT 7000 FEW016 SCT021 OVC050 09/05 Q1014;
0143068065999992010041511504+46967+008400FM-15+0450LSZC V0209999V001510210019N0070001N1+00901+00401999999ADDGA1041+006301999GA2081+021001999GF108991999999999999999999MA1101391999999REMMET058METAR LSZC 151150Z VRB03KT 7000 SCT021 OVC070 09/04 Q1014;
0120068065999992010041512204+46967+008400FM-15+0450LSZC V0209999V001012200019N0070001N1+00901+00501999999ADDGA1041+009001999GF104991999999999999999999MA1101391999999REMMET051METAR LSZC 151220Z VRB02KT 7000 SCT030 09/05 Q1014;
0120068065999992010041512504+46967+008400FM-15+0450LSZC V0209999V001510090019N0070001N1+01001+00501999999ADDGA1071+009001999GF107991999999999999999999MA1101391999999REMMET051METAR LSZC 151250Z VRB03KT 7000 BKN030 10/05 Q1014;
0120068065999992010041513204+46967+008400FM-15+0450LSZC V0209999V001510090019N0070001N1+01001+00401999999ADDGA1071+009001999GF107991999999999999999999MA1101391999999REMMET051METAR LSZC 151320Z VRB03KT 7000 BKN030 10/04 Q1014;
0120068065999992010041513504+46967+008400FM-15+0450LSZC V0209999V000510090019N0070001N1+01001+00301999999ADDGA1071+009001999GF107991999999999999999999MA1101391999999REMMET051METAR LSZC 151350Z VRB01KT 7000 BKN030 10/03 Q1014;
0128068065999992010041514204+46967+008400FM-15+0450LSZC V0203401N002110150019N0080001N1+01001+00401999999ADDGA1071+015001999GF107991999999999999999999MA1101391999999REMMET059METAR LSZC 151420Z 34004KT 280V030 8000 BKN050 10/04 Q1014;
0120068065999992010041514504+46967+008400FM-15+0450LSZC V0209999V001510150019N0080001N1+01101+00301999999ADDGA1071+015001999GF107991999999999999999999MA1101391999999REMMET051METAR LSZC 151450Z VRB03KT 8000 BKN050 11/03 Q1014;
0120068065999992010041605504+46967+008400FM-15+0450LSZC V0209999C000010039019N0040001N1+00601+00401999999ADDGA1081+003901999GF108991999999999999999999MA1101591999999REMMET051METAR LSZC 160550Z 00000KT 4000 OVC013 06/04 Q1016;
0120068065999992010041606504+46967+008400FM-15+0450LSZC V0209999C000010039019N0040001N1+00601+00401999999ADDGA1081+003901999GF108991999999999999999999MA1101591999999REMMET051METAR LSZC 160650Z 00000KT 4000 OVC013 06/04 Q1016;
0120068065999992010041607204+46967+008400FM-15+0450LSZC V0209999V000510045019N0040001N1+00701+00401999999ADDGA1081+004501999GF108991999999999999999999MA1101591999999REMMET051METAR LSZC 160720Z VRB01KT 4000 OVC015 07/04 Q1016;
0120068065999992010041607504+46967+008400FM-15+0450LSZC V0209999V001510045019N0040001N1+00601+00301999999ADDGA1081+004501999GF108991999999999999999999MA1101691999999REMMET051METAR LSZC 160750Z VRB03KT 4000 OVC015 06/03 Q1017;
0152068065999992010041608504+46967+008400FM-15+0450LSZC V0209999V001010054019N0040001N1+00701+00301999999ADDGA1021+004501999GA2081+005401999GF108991999999999999999999MA1101691999999MW1101REMMET061METAR LSZC 160850Z VRB02KT 4000 BR FEW015 OVC018 07/03 Q1017;
0152068065999992010041609204+46967+008400FM-15+0450LSZC V0209999V001010057019N0040001N1+00701+00301999999ADDGA1021+004501999GA2081+005701999GF108991999999999999999999MA1101691999999MW1101REMMET061METAR LSZC 160920Z VRB02KT 4000 BR FEW015 OVC019 07/03 Q1017;
0152068065999992010041609504+46967+008400FM-15+0450LSZC V0209999V001010057019N0035001N1+00801+00301999999ADDGA1071+005701999GA2081+007201999GF108991999999999999999999MA1101801999999MW1101REMMET061METAR LSZC 160950Z VRB02KT 3500 BR BKN019 OVC024 08/03 Q1018;
0152068065999992010041611204+46967+008400FM-15+0450LSZC V0209999V001010090019N0035001N1+00801+00401999999ADDGA1021+006001999GA2081+009001999GF108991999999999999999999MA1101801999999MW1101REMMET061METAR LSZC 161120Z VRB02KT 3500 BR FEW020 OVC030 08/04 Q1018;
0152068065999992010041611504+46967+008400FM-15+0450LSZC V0200701N002610090019N0035001N1+00801+00401999999ADDGA1021+006001999GA2081+009001999GF108991999999999999999999MA1101801999999MW1101REMMET061METAR LSZC 161150Z 07005KT 3500 BR FEW020 OVC030 08/04 Q1018;
0160068065999992010041612204+46967+008400FM-15+0450LSZC V0200701N001510105019N0035001N1+00801+00401999999ADDGA1021+006001999GA2081+010501999GF108991999999999999999999MA1101801999999MW1101REMMET069METAR LSZC 161220Z 07003KT 020V110 3500 BR FEW020 OVC035 08/04 Q1018;
0152068065999992010041613204+46967+008400FM-15+0450LSZC V0209999V001010105019N0035001N1+00901+00401999999ADDGA1021+006001999GA2081+010501999GF108991999999999999999999MA1101801999999MW1101REMMET061METAR LSZC 161320Z VRB02KT 3500 BR FEW020 OVC035 09/04 Q1018;
0129068065999992010041613504+46967+008400FM-15+0450LSZC V0200701N001510129019N0035001N1+00901+00501999999ADDGA1081+012901999GF108991999999999999999999MA1101801999999MW1101REMMET054METAR LSZC 161350Z 07003KT 3500 BR OVC043 09/05 Q1018;
0129068065999992010041614204+46967+008400FM-15+0450LSZC V0200701N001510129019N0040001N1+00901+00501999999ADDGA1081+012901999GF108991999999999999999999MA1101801999999MW1101REMMET054METAR LSZC 161420Z 07003KT 4000 BR OVC043 09/05 Q1018;
0128068065999992010041905504+46967+008400FM-15+0450LSZC V0202201N001510210019N0080001N1+00501+00401999999ADDGA1071+021001999GF107991999999999999999999MA1101491999999REMMET059METAR LSZC 190550Z 22003KT 210V300 8000 BKN070 05/04 Q1015;
0143068065999992010041906204+46967+008400FM-15+0450LSZC V0209999V001010210019N0070001N1+00801+00601999999ADDGA1021+013501999GA2071+021001999GF107991999999999999999999MA1101491999999REMMET058METAR LSZC 190620Z VRB02KT 7000 FEW045 BKN075 08/06 Q1015;
0143068065999992010041906504+46967+008400FM-15+0450LSZC V0209999V001010180019N0070001N1+00901+00601999999ADDGA1021+013501999GA2071+018001999GF107991999999999999999999MA1101491999999REMMET058METAR LSZC 190650Z VRB02KT 7000 FEW045 BKN065 09/06 Q1015;
0156068065999992010041907204+46967+008400FM-15+0450LSZC V0200301N001510180019N0070001N1+00901+00601999999ADDGA1021+013501999GA2071+018001999GF107991999999999999999999MA1101491999999REMMET071METAR LSZC 190720Z 03003KT 340V070 7000 FEW045 BKN061 09/06 Q1015 RERA;
0120068065999992010041907504+46967+008400FM-15+0450LSZC V0209999V001012200019N0070001N1+01001+00601999999ADDGA1041+015001999GF104991999999999999999999MA1101491999999REMMET051METAR LSZC 190750Z VRB02KT 7000 SCT057 10/06 Q1015;
0128068065999992010041909504+46967+008400FM-15+0450LSZC V0200501N003110150019N0112651N1+01401+00701999999ADDGA1071+015001999GF107991999999999999999999MA1101591999999REMMET059METAR LSZC 190950Z 05006KT 010V080 9999 BKN057 14/07 Q1016;
0128068065999992010041911204+46967+008400FM-15+0450LSZC V0200701N003112200019N0112651N1+01501+00601999999ADDGA1041+018001999GF104991999999999999999999MA1101491999999REMMET059METAR LSZC 191120Z 07006KT 050V110 9999 SCT065 15/06 Q1015;
0128068065999992010041911504+46967+008400FM-15+0450LSZC V0200701N002112200019N0112651N1+01501+00601999999ADDGA1041+018001999GF104991999999999999999999MA1101491999999REMMET059METAR LSZC 191150Z 07004KT 040V100 9999 SCT065 15/06 Q1015;
0120068065999992010041912204+46967+008400FM-15+0450LSZC V0200801N002612200019N0112651N1+01701+00801999999ADDGA1041+018001999GF104991999999999999999999MA1101491999999REMMET051METAR LSZC 191220Z 08005KT 9999 SCT065 17/08 Q1015;
0128068065999992010041912504+46967+008400FM-15+0450LSZC V0200901N002612200019N0112651N1+01801+00601999999ADDGA1041+018001999GF104991999999999999999999MA1101391999999REMMET059METAR LSZC 191250Z 09005KT 030V140 9999 SCT065 18/06 Q1014;
0128068065999992010041913204+46967+008400FM-15+0450LSZC V0201001N002112200019N0112651N1+01801+00601999999ADDGA1041+018001999GF104991999999999999999999MA1101391999999REMMET059METAR LSZC 191320Z 10004KT 040V140 9999 SCT065 18/06 Q1014;
0128068065999992010041913504+46967+008400FM-15+0450LSZC V0201101N002112200019N0112651N1+01801+00501999999ADDGA1041+018001999GF104991999999999999999999MA1101391999999REMMET059METAR LSZC 191350Z 11004KT 020V160 9999 SCT065 18/05 Q1014;
0128068065999992010041914204+46967+008400FM-15+0450LSZC V0200701N002612200019N0112651N1+01801+00701999999ADDGA1041+018001999GF104991999999999999999999MA1101391999999REMMET059METAR LSZC 191420Z 07005KT 040V110 9999 SCT065 18/07 Q1014;
0128068065999992010041914504+46967+008400FM-15+0450LSZC V0200801N002112200019N0112651N1+01701+00501999999ADDGA1041+018001999GF104991999999999999999999MA1101291999999REMMET059METAR LSZC 191450Z 08004KT 040V120 9999 SCT065 17/05 Q1013;
0120068065999992010042005504+46967+008400FM-15+0450LSZC V0202601N002112200019N0112651N1+00601+00201999999ADDGA1041+027001999GF104991999999999999999999MA1101591999999REMMET051METAR LSZC 200550Z 26004KT 9999 SCT095 06/02 Q1016;
0120068065999992010042006204+46967+008400FM-15+0450LSZC V0209999V001512200019N0112651N1+00701+00501999999ADDGA1041+027001999GF104991999999999999999999MA1101591999999REMMET051METAR LSZC 200620Z VRB03KT 9999 SCT095 07/05 Q1016;
0120068065999992010042006504+46967+008400FM-15+0450LSZC V0209999V000512200019N0112651N1+00901+00501999999ADDGA1041+027001999GF104991999999999999999999MA1101591999999REMMET051METAR LSZC 200650Z VRB01KT 9999 SCT095 09/05 Q1016;
0120068065999992010042007204+46967+008400FM-15+0450LSZC V0209999V000512200019N0112651N1+01101+00501999999ADDGA1041+027001999GF104991999999999999999999MA1101591999999REMMET051METAR LSZC 200720Z VRB01KT 9999 SCT095 11/05 Q1016;
0120068065999992010042007504+46967+008400FM-15+0450LSZC V0209999V001012200019N0112651N1+01201+00601999999ADDGA1021+027001999GF102991999999999999999999MA1101591999999REMMET051METAR LSZC 200750Z VRB02KT 9999 FEW095 12/06 Q1016;
0128068065999992010042008204+46967+008400FM-15+0450LSZC V0200901N001512200019N0112651N1+01301+00601999999ADDGA1021+027001999GF102991999999999999999999MA1101591999999REMMET059METAR LSZC 200820Z 09003KT 060V130 9999 FEW095 13/06 Q1016;
0120068065999992010042009204+46967+008400FM-15+0450LSZC V0201101N002110270019N0112651N1+01201+00501999999ADDGA1071+027001999GF107991999999999999999999MA1101591999999REMMET051METAR LSZC 200920Z 11004KT 9999 BKN095 12/05 Q1016;
0120068065999992010042009504+46967+008400FM-15+0450LSZC V0209999V001010240019N0112651N1+01201+00501999999ADDGA1081+024001999GF108991999999999999999999MA1101691999999REMMET051METAR LSZC 200950Z VRB02KT 9999 OVC080 12/05 Q1017;
0128068065999992010042011204+46967+008400FM-15+0450LSZC V0200701N001510150019N0112651N1+01401+00501999999ADDGA1071+015001999GF107991999999999999999999MA1101801999999REMMET059METAR LSZC 201120Z 07003KT 330V140 9999 BKN050 14/05 Q1018;
0137068065999992010042011504+46967+008400FM-15+0450LSZC V0201801N003610150019N0050001N1+01201+00601999999ADDGA1071+015001999GF107991999999999999999999MA1101801999999MW1631REMMET062METAR LSZC 201150Z 18007KT 140V220 5000 RA BKN050 12/06 Q1018;
0130068065999992010042012204+46967+008400FM-15+0450LSZC V0209999V001010150019N0070001N1+01401+00701999999ADDGA1071+015001999GF107991999999999999999999MA1101801999999MW1611REMMET055METAR LSZC 201220Z VRB02KT 7000 -RA BKN050 14/07 Q1018;
0120068065999992010042012504+46967+008400FM-15+0450LSZC V0200701N002610180019N0080001N1+01301+00701999999ADDGA1081+018001999GF108991999999999999999999MA1101801999999REMMET051METAR LSZC 201250Z 07005KT 8000 OVC060 13/07 Q1018;
0128068065999992010042013204+46967+008400FM-15+0450LSZC V0200701N001510180019N0080001N1+01301+00701999999ADDGA1071+018001999GF107991999999999999999999MA1101801999999REMMET059METAR LSZC 201320Z 07003KT 030V100 8000 BKN060 13/07 Q1018;
0120068065999992010042014204+46967+008400FM-15+0450LSZC V0200501N003110180019N0060001N1+01401+00601999999ADDGA1071+018001999GF107991999999999999999999MA1101691999999REMMET051METAR LSZC 201420Z 05006KT 6000 BKN060 14/06 Q1017;
0120068065999992010042105504+46967+008400FM-15+0450LSZC V0202401N001512200019N0112651N1+00601+00401999999ADDGA1041+018001999GF104991999999999999999999MA1101591999999REMMET051METAR LSZC 210550Z 24003KT 9999 SCT060 06/04 Q1016;
0120068065999992010042107504+46967+008400FM-15+0450LSZC V0200701N001012200019N0112651N1+01001+00701999999ADDGA1041+018001999GF104991999999999999999999MA1101591999999REMMET051METAR LSZC 210750Z 07002KT 9999 SCT060 10/07 Q1016;
0120068065999992010042108204+46967+008400FM-15+0450LSZC V0200801N002112200019N0112651N1+01101+00701999999ADDGA1041+018001999GF104991999999999999999999MA1101591999999REMMET051METAR LSZC 210820Z 08004KT 9999 SCT060 11/07 Q1016;
0128068065999992010042108504+46967+008400FM-15+0450LSZC V0200701N002112200019N0112651N1+01201+00701999999ADDGA1041+018001999GF104991999999999999999999MA1101591999999REMMET059METAR LSZC 210850Z 07004KT 030V100 9999 SCT060 12/07 Q1016;
0128068065999992010042111504+46967+008400FM-15+0450LSZC V0201001N002612200019N0112651N1+01601+00801999999ADDGA1041+024001999GF104991999999999999999999MA1101491999999REMMET059METAR LSZC 211150Z 10005KT 050V150 9999 SCT080 16/08 Q1015;
0128068065999992010042112204+46967+008400FM-15+0450LSZC V0200901N002612200019N0112651N1+01701+00901999999ADDGA1041+024001999GF104991999999999999999999MA1101491999999REMMET059METAR LSZC 211220Z 09005KT 060V120 9999 SCT080 17/09 Q1015;
0128068065999992010042114204+46967+008400FM-15+0450LSZC V0200901N002612200019N0112651N1+01801+00701999999ADDGA1041+024001999GF104991999999999999999999MA1101291999999REMMET059METAR LSZC 211420Z 09005KT 050V120 9999 SCT080 18/07 Q1013;
0072068065999992010042206504+46967+008400FM-15+0450LSZC V0209999V001019999999Y0099001N1+00801+00201999999ADDMA1101491999999REMMET045METAR LSZC 220650Z VRB02KT CAVOK 08/02 Q1015;
0072068065999992010042207204+46967+008400FM-15+0450LSZC V0209999C000019999999Y0099001N1+01001+00101999999ADDMA1101391999999REMMET045METAR LSZC 220720Z 00000KT CAVOK 10/01 Q1014;
0080068065999992010042207504+46967+008400FM-15+0450LSZC V0200801N001519999999Y0099001N1+01001+00201999999ADDMA1101391999999REMMET053METAR LSZC 220750Z 08003KT 050V120 CAVOK 10/02 Q1014;
0080068065999992010042209204+46967+008400FM-15+0450LSZC V0200901N001519999999Y0099001N1+01101+00201999999ADDMA1101391999999REMMET053METAR LSZC 220920Z 09003KT 010V130 CAVOK 11/02 Q1014;
0080068065999992010042211204+46967+008400FM-15+0450LSZC V0200901N001519999999Y0099001N1+01401+00501999999ADDMA1101191999999REMMET053METAR LSZC 221120Z 09003KT 350V160 CAVOK 14/05 Q1012;
0080068065999992010042212504+46967+008400FM-15+0450LSZC V0200901N002119999999Y0099001N1+01601+00501999999ADDMA1101081999999REMMET053METAR LSZC 221250Z 09004KT 050V150 CAVOK 16/05 Q1011;
0101068065999992010042306204+46967+008400FM-15+0450LSZC V0209999V000512200019N0070001N1+00801+00501999999ADDGF100991999999999999999999MA1101081999999REMMET048METAR LSZC 230620Z VRB01KT 7000 NSC 08/05 Q1011;
0101068065999992010042307204+46967+008400FM-15+0450LSZC V0209999V000512200019N0070001N1+01001+00501999999ADDGF100991999999999999999999MA1101081999999REMMET048METAR LSZC 230720Z VRB01KT 7000 NSC 10/05 Q1011;
0101068065999992010042307504+46967+008400FM-15+0450LSZC V0209999V001012200019N0070001N1+01101+00501999999ADDGF100991999999999999999999MA1101081999999REMMET048METAR LSZC 230750Z VRB02KT 7000 NSC 11/05 Q1011;
0109068065999992010042308504+46967+008400FM-15+0450LSZC V0200601N001512200019N0070001N1+01101+00501999999ADDGF100991999999999999999999MA1101081999999REMMET056METAR LSZC 230850Z 06003KT 350V110 7000 NSC 11/05 Q1011;
0101068065999992010042309204+46967+008400FM-15+0450LSZC V0200601N002112200019N0070001N1+01201+00501999999ADDGF100991999999999999999999MA1101081999999REMMET048METAR LSZC 230920Z 06004KT 7000 NSC 12/05 Q1011;
0101068065999992010042309504+46967+008400FM-15+0450LSZC V0209999V001012200019N0070001N1+01201+00501999999ADDGF100991999999999999999999MA1101081999999REMMET048METAR LSZC 230950Z VRB02KT 7000 NSC 12/05 Q1011;
0109068065999992010042311504+46967+008400FM-15+0450LSZC V0200501N002112200019N0060001N1+01401+00601999999ADDGF100991999999999999999999MA1101081999999REMMET056METAR LSZC 231150Z 05004KT 020V100 6000 NSC 14/06 Q1011;
0101068065999992010042312504+46967+008400FM-15+0450LSZC V0209999V001012200019N0060001N1+01601+00701999999ADDGF100991999999999999999999MA1101081999999REMMET048METAR LSZC 231250Z VRB02KT 6000 NSC 16/07 Q1011;
0109068065999992010042313204+46967+008400FM-15+0450LSZC V0200701N001512200019N0060001N1+01601+00801999999ADDGF100991999999999999999999MA1101081999999REMMET056METAR LSZC 231320Z 07003KT 030V100 6000 NSC 16/08 Q1011;
0101068065999992010042313504+46967+008400FM-15+0450LSZC V0200701N002612200019N0060001N1+01501+00801999999ADDGF100991999999999999999999MA1101081999999REMMET048METAR LSZC 231350Z 07005KT 6000 NSC 15/08 Q1011;
0130068065999992010042605504+46967+008400FM-15+0450LSZC V0209999V001010210019N0080001N1+01401+00901999999ADDGA1071+021001999GF107991999999999999999999MA1102511999999MW1611REMMET055METAR LSZC 260550Z VRB02KT 8000 -RA BKN070 14/09 Q1025;
0130068065999992010042606204+46967+008400FM-15+0450LSZC V0209999V001010210019N0080001N1+01501+01001999999ADDGA1071+021001999GF107991999999999999999999MA1102511999999MW1611REMMET055METAR LSZC 260620Z VRB02KT 8000 -RA BKN070 15/10 Q1025;
0148068065999992010042606504+46967+008400FM-15+0450LSZC V0209999V001010210019N0112651N1+01401+01101999999ADDGA1041+013501999GA2071+021001999GF107991999999999999999999MA1102511999999REMMET063METAR LSZC 260650Z VRB02KT 9999 SCT045 BKN070 14/11 Q1025 RERA;
0160068065999992010042607204+46967+008400FM-15+0450LSZC V0202501N002110210019N0090001N1+01301+01001999999ADDGA1041+013501999GA2071+021001999GF107991999999999999999999MA1102611999999MW1631REMMET069METAR LSZC 260720Z 25004KT 230V300 9000 RA SCT045 BKN070 13/10 Q1026;
0166068065999992010042607504+46967+008400FM-15+0450LSZC V0203101N002610150019N0090001N1+01301+00901999999ADDGA1041+010501999GA2081+015001999GF108991999999999999999999MA1102611999999MW1631REMMET075METAR LSZC 260750Z 31005KT 270V020 9000 3000E RA SCT035 OVC050 13/09 Q1026;
0175068065999992010042609204+46967+008400FM-15+0450LSZC V0209999V00051009001CN0090001N1+01301+00901999999ADDGA1021+006001999GA2041+009001999GA3071+015001999GF107991999999999999999999MA1102711999999MW1631REMMET068METAR LSZC 260920Z VRB01KT 9000 RA FEW020 SCT030 BKN050 13/09 Q1027;
0182068065999992010042609504+46967+008400FM-15+0450LSZC V0209999V00051009001CN0090001N1+01201+01101999999ADDGA1021+006001999GA2041+009001999GA3071+013201999GF107991999999999999999999MA1102711999999MW1611REMMET075METAR LSZC 260950Z VRB01KT 9000 3000E -RA FEW020 SCT030 BKN044 12/11 Q1027;
0176068065999992010042611204+46967+008400FM-15+0450LSZC V0209999V00101009001CN0080001N1+01201+01001999999ADDGA1021+006001999GA2041+009001999GA3071+013201999GF107991999999999999999999MA1102611999999MW1611REMMET069METAR LSZC 261120Z VRB02KT 8000 -RA FEW020 SCT030 BKN044 12/10 Q1026;
0166068065999992010042611504+46967+008400FM-15+0450LSZC V0209999V00101009001CN0090001N1+01301+01101999999ADDGA1021+003001999GA2041+009001999GA3081+015001999GF108991999999999999999999MA1102611999999REMMET065METAR LSZC 261150Z VRB02KT 9000 FEW010 SCT030 OVC052 13/11 Q1026;
0166068065999992010042612204+46967+008400FM-15+0450LSZC V0209999V00101013501CN0112651N1+01401+01101999999ADDGA1021+003001999GA2041+013501999GA3071+030001999GF107991999999999999999999MA1102611999999REMMET065METAR LSZC 261220Z VRB02KT 9999 FEW010 SCT045 BKN100 14/11 Q1026;
0174068065999992010042612504+46967+008400FM-15+0450LSZC V0200401N00211013501CN0112651N1+01401+01001999999ADDGA1021+003601999GA2041+013501999GA3071+030001999GF107991999999999999999999MA1102611999999REMMET073METAR LSZC 261250Z 04004KT 310V100 9999 FEW012 SCT045 BKN100 14/10 Q1026;
0128068065999992010042613204+46967+008400FM-15+0450LSZC V0200701N002112200019N0112651N1+01501+01101999999ADDGA1041+010501999GF104991999999999999999999MA1102511999999REMMET059METAR LSZC 261320Z 07004KT 030V120 9999 SCT035 15/11 Q1025;
0128068065999992010042613504+46967+008400FM-15+0450LSZC V0200601N003112200019N0112651N1+01501+01101999999ADDGA1041+010501999GF104991999999999999999999MA1102511999999REMMET059METAR LSZC 261350Z 06006KT 030V100 9999 SCT035 15/11 Q1025;
0128068065999992010042614204+46967+008400FM-15+0450LSZC V0200401N003112200019N0112651N1+01501+01001999999ADDGA1041+012001999GF104991999999999999999999MA1102511999999REMMET059METAR LSZC 261420Z 04006KT 340V070 9999 SCT040 15/10 Q1025;
0128068065999992010042614504+46967+008400FM-15+0450LSZC V0200301N003112200019N0112651N1+01601+00901999999ADDGA1041+012001999GF104991999999999999999999MA1102401999999REMMET059METAR LSZC 261450Z 03006KT 340V080 9999 SCT040 16/09 Q1024;
0131068065999992010042705504+46967+008400FM-15+0450LSZC V0209999V000512200019N0112651N1+00901+00701999999ADDGA1041+007501999GF104991999999999999999999MA1102511999999OC101031REMMET054METAR LSZC 270550Z VRB01G20KT 9999 SCT025 09/07 Q1025;
0143068065999992010042706504+46967+008400FM-15+0450LSZC V0209999V001012200019N0070001N1+01001+00801999999ADDGA1021+007501999GA2041+010501999GF104991999999999999999999MA1102511999999REMMET058METAR LSZC 270650Z VRB02KT 7000 FEW025 SCT035 10/08 Q1025;
0143068065999992010042707204+46967+008400FM-15+0450LSZC V0209999V000512200019N0070001N1+01201+00901999999ADDGA1021+007501999GA2041+015001999GF104991999999999999999999MA1102511999999REMMET058METAR LSZC 270720Z VRB01KT 7000 FEW025 SCT050 12/09 Q1025;
0143068065999992010042707504+46967+008400FM-15+0450LSZC V0209999V001012200019N0070001N1+01301+00901999999ADDGA1021+007501999GA2041+015001999GF104991999999999999999999MA1102511999999REMMET058METAR LSZC 270750Z VRB02KT 7000 FEW025 SCT050 13/09 Q1025;
0151068065999992010042708204+46967+008400FM-15+0450LSZC V0200701N002112200019N0070001N1+01301+01001999999ADDGA1021+007501999GA2041+015001999GF104991999999999999999999MA1102511999999REMMET066METAR LSZC 270820Z 07004KT 040V100 7000 FEW025 SCT050 13/10 Q1025;
0128068065999992010042711204+46967+008400FM-15+0450LSZC V0200801N002612200019N0112651N1+01601+01101999999ADDGA1041+015001999GF104991999999999999999999MA1102401999999REMMET059METAR LSZC 271120Z 08005KT 060V120 9999 SCT050 16/11 Q1024;
0120068065999992010042713204+46967+008400FM-15+0450LSZC V0209999V001510150019N0112651N1+01801+01001999999ADDGA1071+015001999GF107991999999999999999999MA1102401999999REMMET051METAR LSZC 271320Z VRB03KT 9999 BKN050 18/10 Q1024;
0128068065999992010042713504+46967+008400FM-15+0450LSZC V0200701N002110150019N0112651N1+01701+01101999999ADDGA1071+015001999GF107991999999999999999999MA1102401999999REMMET059METAR LSZC 271350Z 07004KT 040V110 9999 BKN050 17/11 Q1024;
0128068065999992010042714204+46967+008400FM-15+0450LSZC V0200701N002610150019N0112651N1+01801+01001999999ADDGA1071+015001999GF107991999999999999999999MA1102401999999REMMET059METAR LSZC 271420Z 07005KT 030V100 9999 BKN050 18/10 Q1024;
0072068065999992010042805504+46967+008400FM-15+0450LSZC V0209999V001019999999Y0099001N1+00801+00601999999ADDMA1102611999999REMMET045METAR LSZC 280550Z VRB02KT CAVOK 08/06 Q1026;
0072068065999992010042806204+46967+008400FM-15+0450LSZC V0209999V000519999999Y0099001N1+01001+00801999999ADDMA1102611999999REMMET045METAR LSZC 280620Z VRB01KT CAVOK 10/08 Q1026;
0072068065999992010042806504+46967+008400FM-15+0450LSZC V0209999C000019999999Y0099001N1+01201+00701999999ADDMA1102511999999REMMET045METAR LSZC 280650Z 00000KT CAVOK 12/07 Q1025;
0072068065999992010042807204+46967+008400FM-15+0450LSZC V0209999C000019999999Y0099001N1+01301+00801999999ADDMA1102511999999REMMET045METAR LSZC 280720Z 00000KT CAVOK 13/08 Q1025;
0072068065999992010042807504+46967+008400FM-15+0450LSZC V0209999V001019999999Y0099001N1+01201+00901999999ADDMA1102511999999REMMET045METAR LSZC 280750Z VRB02KT CAVOK 12/09 Q1025;
0072068065999992010042808204+46967+008400FM-15+0450LSZC V0209999V001019999999Y0099001N1+01401+00901999999ADDMA1102511999999REMMET045METAR LSZC 280820Z VRB02KT CAVOK 14/09 Q1025;
0072068065999992010042808504+46967+008400FM-15+0450LSZC V0209999V001019999999Y0099001N1+01401+00801999999ADDMA1102511999999REMMET045METAR LSZC 280850Z VRB02KT CAVOK 14/08 Q1025;
0080068065999992010042809504+46967+008400FM-15+0450LSZC V0200601N002119999999Y0099001N1+01501+00901999999ADDMA1102511999999REMMET053METAR LSZC 280950Z 06004KT 020V100 CAVOK 15/09 Q1025;
0080068065999992010042811204+46967+008400FM-15+0450LSZC V0200601N002619999999Y0099001N1+01701+01001999999ADDMA1102401999999REMMET053METAR LSZC 281120Z 06005KT 030V100 CAVOK 17/10 Q1024;
0080068065999992010042811504+46967+008400FM-15+0450LSZC V0200601N002119999999Y0099001N1+01801+01001999999ADDMA1102401999999REMMET053METAR LSZC 281150Z 06004KT 020V100 CAVOK 18/10 Q1024;
0080068065999992010042812204+46967+008400FM-15+0450LSZC V0200601N002619999999Y0099001N1+01901+01001999999ADDMA1102401999999REMMET053METAR LSZC 281220Z 06005KT 020V090 CAVOK 19/10 Q1024;
0080068065999992010042812504+46967+008400FM-15+0450LSZC V0200701N002619999999Y0099001N1+01801+01101999999ADDMA1102301999999REMMET053METAR LSZC 281250Z 07005KT 030V110 CAVOK 18/11 Q1023;
0128068065999992010042813204+46967+008400FM-15+0450LSZC V0200801N002612200019N0112651N1+02001+01201999999ADDGA1021+018001999GF102991999999999999999999MA1102301999999REMMET059METAR LSZC 281320Z 08005KT 050V130 9999 FEW060 20/12 Q1023;
0128068065999992010042813504+46967+008400FM-15+0450LSZC V0200901N002112200019N0112651N1+02101+01001999999ADDGA1021+018001999GF102991999999999999999999MA1102301999999REMMET059METAR LSZC 281350Z 09004KT 050V130 9999 FEW060 21/10 Q1023;
0128068065999992010042814204+46967+008400FM-15+0450LSZC V0201001N002112200019N0112651N1+02201+00901999999ADDGA1021+018001999GF102991999999999999999999MA1102201999999REMMET059METAR LSZC 281420Z 10004KT 050V160 9999 FEW060 22/09 Q1022;
0072068065999992010042905504+46967+008400FM-15+0450LSZC V0202601N002119999999Y0099001N1+01101+00801999999ADDMA1102001999999REMMET045METAR LSZC 290550Z 26004KT CAVOK 11/08 Q1020;
0072068065999992010042906504+46967+008400FM-15+0450LSZC V0209999V000519999999Y0099001N1+01501+00901999999ADDMA1102001999999REMMET045METAR LSZC 290650Z VRB01KT CAVOK 15/09 Q1020;
0072068065999992010042907204+46967+008400FM-15+0450LSZC V0209999V000519999999Y0099001N1+01801+00801999999ADDMA1101901999999REMMET045METAR LSZC 290720Z VRB01KT CAVOK 18/08 Q1019;
0080068065999992010042907504+46967+008400FM-15+0450LSZC V0200801N002619999999Y0099001N1+01601+01001999999ADDMA1101901999999REMMET053METAR LSZC 290750Z 08005KT 040V110 CAVOK 16/10 Q1019;
0072068065999992010042908204+46967+008400FM-15+0450LSZC V0209999V001019999999Y0099001N1+01701+00901999999ADDMA1101901999999REMMET045METAR LSZC 290820Z VRB02KT CAVOK 17/09 Q1019;
0080068065999992010042912204+46967+008400FM-15+0450LSZC V0201101N001519999999Y0099001N1+02401+01001999999ADDMA1101591999999REMMET053METAR LSZC 291220Z 11003KT 030V150 CAVOK 24/10 Q1016;
0072068065999992010042912504+46967+008400FM-15+0450LSZC V0209999V001019999999Y0099001N1+02401+01001999999ADDMA1101591999999REMMET045METAR LSZC 291250Z VRB02KT CAVOK 24/10 Q1016;
0080068065999992010042913504+46967+008400FM-15+0450LSZC V0203201N003119999999Y0099001N1+02501+00801999999ADDMA1101491999999REMMET053METAR LSZC 291350Z 32006KT 290V030 CAVOK 25/08 Q1015;
0072068065999992010042914204+46967+008400FM-15+0450LSZC V0209999V002119999999Y0099001N1+02601+00901999999ADDMA1101491999999REMMET045METAR LSZC 291420Z VRB04KT CAVOK 26/09 Q1015;
0072068065999992010042914504+46967+008400FM-15+0450LSZC V0209999V001019999999Y0099001N1+02601+00801999999ADDMA1101391999999REMMET045METAR LSZC 291450Z VRB02KT CAVOK 26/08 Q1014;
0120068065999992010043005504+46967+008400FM-15+0450LSZC V0203001N001010300019N0112651N1+01401+01001999999ADDGA1071+030001999GF107991999999999999999999MA1101491999999REMMET051METAR LSZC 300550Z 30002KT 9999 BKN100 14/10 Q1015;
0120068065999992010043006204+46967+008400FM-15+0450LSZC V0202501N001012200019N0112651N1+01501+01001999999ADDGA1041+030001999GF104991999999999999999999MA1101491999999REMMET051METAR LSZC 300620Z 25002KT 9999 SCT100 15/10 Q1015;
0120068065999992010043006504+46967+008400FM-15+0450LSZC V0209999V000512200019N0112651N1+01801+01001999999ADDGA1041+030001999GF104991999999999999999999MA1101491999999REMMET051METAR LSZC 300650Z VRB01KT 9999 SCT100 18/10 Q1015;
0120068065999992010043007204+46967+008400FM-15+0450LSZC V0209999V000512200019N0112651N1+01801+01001999999ADDGA1041+030001999GF104991999999999999999999MA1101391999999REMMET051METAR LSZC 300720Z VRB01KT 9999 SCT100 18/10 Q1014;
0120068065999992010043007504+46967+008400FM-15+0450LSZC V0209999V001012200019N0112651N1+01801+01001999999ADDGA1021+030001999GF102991999999999999999999MA1101391999999REMMET051METAR LSZC 300750Z VRB02KT 9999 FEW100 18/10 Q1014;
0120068065999992010043008204+46967+008400FM-15+0450LSZC V0209999V001012200019N0112651N1+01901+01001999999ADDGA1041+030001999GF104991999999999999999999MA1101391999999REMMET051METAR LSZC 300820Z VRB02KT 9999 SCT100 19/10 Q1014;
0128068065999992010043008504+46967+008400FM-15+0450LSZC V0200701N001512200019N0112651N1+01901+00901999999ADDGA1041+030001999GF104991999999999999999999MA1101391999999REMMET059METAR LSZC 300850Z 07003KT 030V140 9999 SCT100 19/09 Q1014;
0128068065999992010043009504+46967+008400FM-15+0450LSZC V0203501N003612200019N0112651N1+02101+00901999999ADDGA1041+030001999GF104991999999999999999999MA1101391999999REMMET059METAR LSZC 300950Z 35007KT 320V040 9999 SCT100 21/09 Q1014;
0128068065999992010043011204+46967+008400FM-15+0450LSZC V0200201N003612200019N0112651N1+02101+00801999999ADDGA1041+030001999GF104991999999999999999999MA1101291999999REMMET059METAR LSZC 301120Z 02007KT 330V070 9999 SCT100 21/08 Q1013;
0128068065999992010043011504+46967+008400FM-15+0450LSZC V0200401N004612200019N0112651N1+02201+00901999999ADDGA1041+030001999GF104991999999999999999999MA1101291999999REMMET059METAR LSZC 301150Z 04009KT 360V080 9999 SCT100 22/09 Q1013;
0128068065999992010043012204+46967+008400FM-15+0450LSZC V0200401N004112200019N0112651N1+02201+00801999999ADDGA1041+030001999GF104991999999999999999999MA1101291999999REMMET059METAR LSZC 301220Z 04008KT 350V080 9999 SCT100 22/08 Q1013;
0120068065999992010043012504+46967+008400FM-15+0450LSZC V0209999V002612200019N0112651N1+02201+00901999999ADDGA1041+030001999GF104991999999999999999999MA1101191999999REMMET051METAR LSZC 301250Z VRB05KT 9999 SCT100 22/09 Q1012;
0120068065999992010043013204+46967+008400FM-15+0450LSZC V0209999V003112200019N0112651N1+02201+00801999999ADDGA1041+030001999GF104991999999999999999999MA1101191999999REMMET051METAR LSZC 301320Z VRB06KT 9999 SCT100 22/08 Q1012;
0120068065999992010043013504+46967+008400FM-15+0450LSZC V0209999V003112200019N0112651N1+02301+00901999999ADDGA1041+030001999GF104991999999999999999999MA1101191999999REMMET051METAR LSZC 301350Z VRB06KT 9999 SCT100 23/09 Q1012;
0128068065999992010043014204+46967+008400FM-15+0450LSZC V0200101N003112200019N0112651N1+02201+00801999999ADDGA1041+030001999GF104991999999999999999999MA1101081999999REMMET059METAR LSZC 301420Z 01006KT 300V090 9999 SCT100 22/08 Q1011;
0143068065999992010050305504+46967+008400FM-15+0450LSZC V0202701N001510180019N0112651N1+00801+00601999999ADDGA1021+006001999GA2071+018001999GF107991999999999999999999MA1101021999999REMMET058METAR LSZC 030550Z 27003KT 9999 FEW020 BKN060 08/06 Q1010;
0143068065999992010050306204+46967+008400FM-15+0450LSZC V0209999V001010180019N0112651N1+00801+00601999999ADDGA1021+006001999GA2071+018001999GF107991999999999999999999MA1101021999999REMMET058METAR LSZC 030620Z VRB02KT 9999 FEW020 BKN060 08/06 Q1010;
0143068065999992010050306504+46967+008400FM-15+0450LSZC V0209999V000510150019N0112651N1+00801+00601999999ADDGA1021+006001999GA2071+015001999GF107991999999999999999999MA1101021999999REMMET058METAR LSZC 030650Z VRB01KT 9999 FEW020 BKN050 08/06 Q1010;
0166068065999992010050307504+46967+008400FM-15+0450LSZC V0209999C000010105019N0080001N1+00801+00601999999ADDGA1021+006001999GA2071+010501999GA3071+015001999GF107991999999999999999999MA1101021999999REMMET065METAR LSZC 030750Z 00000KT 8000 FEW020 BKN035 BKN055 08/06 Q1010;
0166068065999992010050308204+46967+008400FM-15+0450LSZC V0209999V001010105019N0112651N1+00901+00701999999ADDGA1021+006001999GA2071+010501999GA3081+015001999GF108991999999999999999999MA1101081999999REMMET065METAR LSZC 030820Z VRB02KT 9999 FEW020 BKN035 OVC055 09/07 Q1011;
0166068065999992010050308504+46967+008400FM-15+0450LSZC V0209999C00001010501CN0112651N1+00901+00701999999ADDGA1021+006001999GA2041+010501999GA3081+015001999GF108991999999999999999999MA1101081999999REMMET065METAR LSZC 030850Z 00000KT 9999 FEW020 SCT035 OVC055 09/07 Q1011;
0166068065999992010050309204+46967+008400FM-15+0450LSZC V0209999V00051010501CN0112651N1+01001+00701999999ADDGA1021+004501999GA2041+010501999GA3081+015001999GF108991999999999999999999MA1101081999999REMMET065METAR LSZC 030920Z VRB01KT 9999 FEW015 SCT035 OVC052 10/07 Q1011;
0174068065999992010050309504+46967+008400FM-15+0450LSZC V0200701N00261010501CN0112651N1+01101+00801999999ADDGA1021+004501999GA2041+010501999GA3071+015001999GF107991999999999999999999MA1101081999999REMMET073METAR LSZC 030950Z 07005KT 030V110 9999 FEW015 SCT035 BKN052 11/08 Q1011;
0151068065999992010050311204+46967+008400FM-15+0450LSZC V0200801N001510150019N0080001N1+01201+00701999999ADDGA1041+009001999GA2071+015001999GF107991999999999999999999MA1101021999999REMMET066METAR LSZC 031120Z 08003KT 010V140 8000 SCT030 BKN052 12/07 Q1010;
0143068065999992010050311504+46967+008400FM-15+0450LSZC V0209999V002610150019N0080001N1+01301+00701999999ADDGA1041+009001999GA2071+015001999GF107991999999999999999999MA1101021999999REMMET058METAR LSZC 031150Z VRB05KT 8000 SCT030 BKN052 13/07 Q1010;
0151068065999992010050312504+46967+008400FM-15+0450LSZC V0203101N004610150019N0080001N1+01101+00701999999ADDGA1041+009001999GA2071+015001999GF107991999999999999999999MA1101081999999REMMET066METAR LSZC 031250Z 31009KT 270V340 8000 SCT030 BKN052 11/07 Q1011;
0174068065999992010050313204+46967+008400FM-15+0450LSZC V0203201N00211015001CN0112651N1+01201+00601999999ADDGA1021+010501999GA2041+015001999GA3081+018001999GF108991999999999999999999MA1101081999999REMMET073METAR LSZC 031320Z 32004KT 260V030 9999 FEW035 SCT052 OVC068 12/06 Q1011;
0152068065999992010050313504+46967+008400FM-15+0450LSZC V0209999V001010150019N0112651N1+01101+00701999999ADDGA1021+010501999GA2081+015001999GF108991999999999999999999MA1101081999999MW1531REMMET061METAR LSZC 031350Z VRB02KT 9999 DZ FEW035 OVC057 11/07 Q1011;
0153068065999992010050314204+46967+008400FM-15+0450LSZC V0209999V000510180019N0112651N1+01201+00701999999ADDGA1021+010501999GA2081+018001999GF108991999999999999999999MA1101081999999MW1511REMMET062METAR LSZC 031420Z VRB01KT 9999 -DZ FEW035 OVC062 12/07 Q1011;
0153068065999992010050314504+46967+008400FM-15+0450LSZC V0209999V001510180019N0112651N1+01201+00801999999ADDGA1021+010501999GA2081+018001999GF108991999999999999999999MA1101081999999MW1511REMMET062METAR LSZC 031450Z VRB03KT 9999 -DZ FEW035 OVC062 12/08 Q1011;
0143068065999992010050405504+46967+008400FM-15+0450LSZC V0209999C000010084019N0112651N1+00901+00701999999ADDGA1041+005101999GA2081+008401999GF108991999999999999999999MA1101021999999REMMET058METAR LSZC 040550Z 00000KT 9999 SCT017 OVC028 09/07 Q1010;
0143068065999992010050406204+46967+008400FM-15+0450LSZC V0209999V000510084019N0112651N1+00901+00701999999ADDGA1041+005101999GA2081+008401999GF108991999999999999999999MA1101021999999REMMET058METAR LSZC 040620Z VRB01KT 9999 SCT017 OVC028 09/07 Q1010;
0166068065999992010050406504+46967+008400FM-15+0450LSZC V0209999V001510075019N0112651N1+00901+00701999999ADDGA1041+004801999GA2071+007501999GA3081+012001999GF108991999999999999999999MA1101021999999REMMET065METAR LSZC 040650Z VRB03KT 9999 SCT016 BKN025 OVC040 09/07 Q1010;
0166068065999992010050407204+46967+008400FM-15+0450LSZC V0209999V001010075019N0112651N1+00901+00701999999ADDGA1041+004801999GA2071+007501999GA3081+012001999GF108991999999999999999999MA1101021999999REMMET065METAR LSZC 040720Z VRB02KT 9999 SCT016 BKN025 OVC040 09/07 Q1010;
0166068065999992010050407504+46967+008400FM-15+0450LSZC V0209999C000010075019N0112651N1+00901+00701999999ADDGA1021+003301999GA2071+007501999GA3081+012001999GF108991999999999999999999MA1100911999999REMMET065METAR LSZC 040750Z 00000KT 9999 FEW011 BKN025 OVC040 09/07 Q1009;
0166068065999992010050408204+46967+008400FM-15+0450LSZC V0209999C000010075019N0112651N1+00901+00701999999ADDGA1021+003301999GA2071+007501999GA3081+012001999GF108991999999999999999999MA1101021999999REMMET065METAR LSZC 040820Z 00000KT 9999 FEW011 BKN025 OVC040 09/07 Q1010;
0166068065999992010050408504+46967+008400FM-15+0450LSZC V0209999V000510075019N0112651N1+01001+00701999999ADDGA1021+003301999GA2071+007501999GA3081+012001999GF108991999999999999999999MA1100911999999REMMET065METAR LSZC 040850Z VRB01KT 9999 FEW011 BKN025 OVC040 10/07 Q1009;
0166068065999992010050409504+46967+008400FM-15+0450LSZC V0209999C000010075019N0112651N1+01001+00701999999ADDGA1021+003301999GA2071+007501999GA3081+012001999GF108991999999999999999999MA1100911999999REMMET065METAR LSZC 040950Z 00000KT 9999 FEW011 BKN025 OVC040 10/07 Q1009;
0166068065999992010050411504+46967+008400FM-15+0450LSZC V0209999C00001009301CN0112651N1+01201+00801999999ADDGA1021+005401999GA2041+009301999GA3081+015001999GF108991999999999999999999MA1100811999999REMMET065METAR LSZC 041150Z 00000KT 9999 FEW018 SCT031 OVC050 12/08 Q1008;
0166068065999992010050412204+46967+008400FM-15+0450LSZC V0200801N00151009301CN0112651N1+01101+00801999999ADDGA1021+005401999GA2041+009301999GA3081+015001999GF108991999999999999999999MA1100811999999REMMET065METAR LSZC 041220Z 08003KT 9999 FEW018 SCT031 OVC050 11/08 Q1008;
0174068065999992010050412504+46967+008400FM-15+0450LSZC V0200701N00261008101CN0112651N1+01201+00801999999ADDGA1021+005401999GA2041+008101999GA3081+015001999GF108991999999999999999999MA1100811999999REMMET073METAR LSZC 041250Z 07005KT 040V110 9999 FEW018 SCT027 OVC050 12/08 Q1008;
0166068065999992010050413204+46967+008400FM-15+0450LSZC V0209999V00101008101CN0112651N1+01301+00701999999ADDGA1021+005401999GA2041+008101999GA3081+015001999GF108991999999999999999999MA1100811999999REMMET065METAR LSZC 041320Z VRB02KT 9999 FEW018 SCT027 OVC050 13/07 Q1008;
0166068065999992010050413504+46967+008400FM-15+0450LSZC V0209999V00211008101CN0112651N1+01401+00801999999ADDGA1021+005401999GA2041+008101999GA3081+015001999GF108991999999999999999999MA1100811999999REMMET065METAR LSZC 041350Z VRB04KT 9999 FEW018 SCT027 OVC050 14/08 Q1008;
0151068065999992010050414204+46967+008400FM-15+0450LSZC V0200201N002610150019N0112651N1+01401+00801999999ADDGA1041+008101999GA2081+015001999GF108991999999999999999999MA1100811999999REMMET066METAR LSZC 041420Z 02005KT 330V060 9999 SCT027 OVC050 14/08 Q1008;
0161068065999992010050504204+46967+008400FM-15+0450LSZC V0201801N002110090019N0070001N1+01001+00701999999ADDGA1041+004201999GA2081+009001999GF108991999999999999999999MA1100611999999MW1611REMMET070METAR LSZC 050420Z 18004KT 140V220 7000 -RA SCT014 OVC030 10/07 Q1006;
0138068065999992010050504504+46967+008400FM-15+0450LSZC V0201901N002110045019N0070001N1+00901+00801999999ADDGA1071+004501999GF107991999999999999999999MA1100611999999MW1611REMMET063METAR LSZC 050450Z 19004KT 150V260 7000 -RA BKN015 09/08 Q1006;
0152068065999992010050505504+46967+008400FM-15+0450LSZC V0209999V001010048019N0060001N1+00901+00801999999ADDGA1021+002701999GA2081+004801999GF108991999999999999999999MA1100611999999MW1631REMMET061METAR LSZC 050550Z VRB02KT 6000 RA FEW009 OVC016 09/08 Q1006;
0152068065999992010050506204+46967+008400FM-15+0450LSZC V0209999V001510048019N0070001N1+00901+00801999999ADDGA1021+002701999GA2081+004801999GF108991999999999999999999MA1100611999999MW1631REMMET061METAR LSZC 050620Z VRB03KT 7000 RA FEW009 OVC016 09/08 Q1006;
0160068065999992010050506504+46967+008400FM-15+0450LSZC V0202101N002110048019N0070001N1+00901+00801999999ADDGA1021+002701999GA2081+004801999GF108991999999999999999999MA1100511999999MW1631REMMET069METAR LSZC 050650Z 21004KT 170V240 7000 RA FEW009 OVC016 09/08 Q1005;
0153068065999992010050507204+46967+008400FM-15+0450LSZC V0209999V001510054019N0112651N1+01001+00801999999ADDGA1021+002701999GA2081+005401999GF108991999999999999999999MA1100511999999MW1611REMMET062METAR LSZC 050720Z VRB03KT 9999 -RA FEW009 OVC018 10/08 Q1005;
0161068065999992010050507504+46967+008400FM-15+0450LSZC V0203601N002610051019N0112651N1+01001+00701999999ADDGA1021+003001999GA2081+005101999GF108991999999999999999999MA1100511999999MW1611REMMET070METAR LSZC 050750Z 36005KT 320V060 9999 -RA FEW010 OVC017 10/07 Q1005;
0161068065999992010050508204+46967+008400FM-15+0450LSZC V0203601N003110054019N0112651N1+01001+00701999999ADDGA1021+003001999GA2081+005401999GF108991999999999999999999MA1100511999999MW1511REMMET070METAR LSZC 050820Z 36006KT 320V050 9999 -DZ FEW010 OVC018 10/07 Q1005;
0161068065999992010050508504+46967+008400FM-15+0450LSZC V0203501N002110054019N0112651N1+01001+00701999999ADDGA1021+003001999GA2081+005401999GF108991999999999999999999MA1100411999999MW1511REMMET070METAR LSZC 050850Z 35004KT 320V030 9999 -DZ FEW010 OVC018 10/07 Q1004;
0161068065999992010050509204+46967+008400FM-15+0450LSZC V0203501N002110054019N0112651N1+01001+00701999999ADDGA1021+003001999GA2081+005401999GF108991999999999999999999MA1100411999999MW1511REMMET070METAR LSZC 050920Z 35004KT 320V040 9999 -DZ FEW010 OVC018 10/07 Q1004;
0161068065999992010050509504+46967+008400FM-15+0450LSZC V0200101N003610054019N0112651N1+01001+00701999999ADDGA1021+003001999GA2081+005401999GF108991999999999999999999MA1100411999999MW1511REMMET070METAR LSZC 050950Z 01007KT 330V050 9999 -DZ FEW010 OVC018 10/07 Q1004;
0153068065999992010050511204+46967+008400FM-15+0450LSZC V0209999V000510054019N0080001N1+00901+00701999999ADDGA1041+003901999GA2081+005401999GF108991999999999999999999MA1100411999999MW1611REMMET062METAR LSZC 051120Z VRB01KT 8000 -RA SCT013 OVC018 09/07 Q1004;
0161068065999992010050511504+46967+008400FM-15+0450LSZC V0200201N001510054019N0080001N1+01001+00701999999ADDGA1041+003901999GA2081+005401999GF108991999999999999999999MA1100311999999MW1611REMMET070METAR LSZC 051150Z 02003KT 330V120 8000 -RA SCT013 OVC018 10/07 Q1003;
0130068065999992010050512204+46967+008400FM-15+0450LSZC V0209999V001010045019N0080001N1+01001+00701999999ADDGA1081+004501999GF108991999999999999999999MA1100311999999MW1611REMMET055METAR LSZC 051220Z VRB02KT 8000 -RA OVC015 10/07 Q1003;
0153068065999992010050512504+46967+008400FM-15+0450LSZC V0209999V003110045019N0080001N1+01001+00701999999ADDGA1021+003301999GA2081+004501999GF108991999999999999999999MA1100201999999MW1611REMMET062METAR LSZC 051250Z VRB06KT 8000 -RA FEW011 OVC015 10/07 Q1002;
0172068065999992010050513204+46967+008400FM-15+0450LSZC V0203401N005110045019N0080001N1+01001+00701999999ADDGA1021+003301999GA2081+004501999GF108991999999999999999999MA1100201999999MW1611OC101081REMMET073METAR LSZC 051320Z 34010G21KT 300V030 8000 -RA FEW011 OVC015 10/07 Q1002;
0161068065999992010050513504+46967+008400FM-15+0450LSZC V0203201N005710045019N0080001N1+00901+00701999999ADDGA1021+003301999GA2081+004501999GF108991999999999999999999MA1100201999999MW1611REMMET070METAR LSZC 051350Z 32011KT 300V010 8000 -RA FEW011 OVC015 09/07 Q1002;
0161068065999992010050514204+46967+008400FM-15+0450LSZC V0203201N004110045019N0080001N1+00901+00701999999ADDGA1021+003301999GA2081+004501999GF108991999999999999999999MA1100201999999MW1611REMMET070METAR LSZC 051420Z 32008KT 280V010 8000 -RA FEW011 OVC015 09/07 Q1002;
0161068065999992010050514504+46967+008400FM-15+0450LSZC V0203101N003110045019N0080001N1+00901+00701999999ADDGA1021+003301999GA2081+004501999GF108991999999999999999999MA1100201999999MW1611REMMET070METAR LSZC 051450Z 31006KT 260V020 8000 -RA FEW011 OVC015 09/07 Q1002;
0143068065999992010050604204+46967+008400FM-15+0450LSZC V0209999V001510060019N0050001N1+00801+00701999999ADDGA1071+006001999GA2081+010501999GF108991999999999999999999MA1100101999999REMMET058METAR LSZC 060420Z VRB03KT 5000 BKN020 OVC035 08/07 Q1001;
0143068065999992010050604504+46967+008400FM-15+0450LSZC V0209999V001010060019N0050001N1+00801+00701999999ADDGA1071+006001999GA2081+010501999GF108991999999999999999999MA1100101999999REMMET058METAR LSZC 060450Z VRB02KT 5000 BKN020 OVC035 08/07 Q1001;
0143068065999992010050605204+46967+008400FM-15+0450LSZC V0209999V001010060019N0050001N1+00901+00701999999ADDGA1071+006001999GA2081+010501999GF108991999999999999999999MA1100101999999REMMET058METAR LSZC 060520Z VRB02KT 5000 BKN020 OVC035 09/07 Q1001;
0143068065999992010050605504+46967+008400FM-15+0450LSZC V0209999V001010060019N0050001N1+00901+00701999999ADDGA1071+006001999GA2081+010501999GF108991999999999999999999MA1100101999999REMMET058METAR LSZC 060550Z VRB02KT 5000 BKN020 OVC035 09/07 Q1001;
0143068065999992010050606204+46967+008400FM-15+0450LSZC V0209999V001510060019N0050001N1+00901+00601999999ADDGA1071+006001999GA2081+010501999GF108991999999999999999999MA1100101999999REMMET058METAR LSZC 060620Z VRB03KT 5000 BKN020 OVC035 09/06 Q1001;
0143068065999992010050606504+46967+008400FM-15+0450LSZC V0209999V001010060019N0060001N1+00901+00701999999ADDGA1071+006001999GA2081+010501999GF108991999999999999999999MA1100201999999REMMET058METAR LSZC 060650Z VRB02KT 6000 BKN020 OVC035 09/07 Q1002;
0151068065999992010050607204+46967+008400FM-15+0450LSZC V0200801N002110060019N0060001N1+00901+00701999999ADDGA1071+006001999GA2081+010501999GF108991999999999999999999MA1100201999999REMMET066METAR LSZC 060720Z 08004KT 030V120 6000 BKN020 OVC035 09/07 Q1002;
0143068065999992010050607504+46967+008400FM-15+0450LSZC V0200701N002110060019N0060001N1+00901+00701999999ADDGA1071+006001999GA2081+010501999GF108991999999999999999999MA1100201999999REMMET058METAR LSZC 060750Z 07004KT 6000 BKN020 OVC035 09/07 Q1002;
0143068065999992010050608204+46967+008400FM-15+0450LSZC V0209999V001010060019N0112651N1+01001+00701999999ADDGA1071+006001999GA2081+010501999GF108991999999999999999999MA1100201999999REMMET058METAR LSZC 060820Z VRB02KT 9999 BKN020 OVC035 10/07 Q1002;
0143068065999992010050608504+46967+008400FM-15+0450LSZC V0209999V001510060019N0112651N1+01001+00701999999ADDGA1071+006001999GA2081+010501999GF108991999999999999999999MA1100101999999REMMET058METAR LSZC 060850Z VRB03KT 9999 BKN020 OVC035 10/07 Q1001;
0151068065999992010050609504+46967+008400FM-15+0450LSZC V0200601N002610060019N0112651N1+01101+00701999999ADDGA1071+006001999GA2081+010501999GF108991999999999999999999MA1100101999999REMMET066METAR LSZC 060950Z 06005KT 020V110 9999 BKN020 OVC035 11/07 Q1001;
0151068065999992010050611504+46967+008400FM-15+0450LSZC V0200101N002610120019N0080001N1+01101+00601999999ADDGA1071+012001999GA2081+013501999GF108991999999999999999999MA1100201999999REMMET066METAR LSZC 061150Z 01005KT 320V060 8000 BKN040 OVC045 11/06 Q1002;
0151068065999992010050612204+46967+008400FM-15+0450LSZC V0203301N002110120019N0080001N1+01101+00601999999ADDGA1071+012001999GA2081+013501999GF108991999999999999999999MA1100201999999REMMET066METAR LSZC 061220Z 33004KT 290V040 8000 BKN040 OVC045 11/06 Q1002;
0151068065999992010050612504+46967+008400FM-15+0450LSZC V0200201N002610120019N0080001N1+01101+00601999999ADDGA1071+012001999GA2081+013501999GF108991999999999999999999MA1100201999999REMMET066METAR LSZC 061250Z 02005KT 340V060 8000 BKN040 OVC045 11/06 Q1002;
0151068065999992010050613504+46967+008400FM-15+0450LSZC V0200901N002110120019N0080001N1+01001+00601999999ADDGA1071+012001999GA2081+013501999GF108991999999999999999999MA1100201999999REMMET066METAR LSZC 061350Z 09004KT 050V170 8000 BKN040 OVC045 10/06 Q1002;
0151068065999992010050705204+46967+008400FM-15+0450LSZC V0200401N002110090019N0080001N1+00701+00401999999ADDGA1071+009001999GA2081+013501999GF108991999999999999999999MA1100711999999REMMET066METAR LSZC 070520Z 04004KT 360V080 8000 BKN030 OVC045 07/04 Q1007;
0151068065999992010050707504+46967+008400FM-15+0450LSZC V0200701N001510090019N0080001N1+00801+00401999999ADDGA1071+009001999GA2081+012001999GF108991999999999999999999MA1100711999999REMMET066METAR LSZC 070750Z 07003KT 020V100 8000 BKN030 OVC040 08/04 Q1007;
0151068065999992010050708204+46967+008400FM-15+0450LSZC V0200601N002110090019N0080001N1+00801+00501999999ADDGA1071+009001999GA2081+012001999GF108991999999999999999999MA1100711999999REMMET066METAR LSZC 070820Z 06004KT 010V110 8000 BKN030 OVC040 08/05 Q1007;
0151068065999992010050708504+46967+008400FM-15+0450LSZC V0200601N002110090019N0080001N1+00901+00501999999ADDGA1071+009001999GA2081+012001999GF108991999999999999999999MA1100711999999REMMET066METAR LSZC 070850Z 06004KT 020V090 8000 BKN030 OVC040 09/05 Q1007;
0151068065999992010050709204+46967+008400FM-15+0450LSZC V0200701N002110090019N0080001N1+00901+00501999999ADDGA1071+009001999GA2081+012001999GF108991999999999999999999MA1100711999999REMMET066METAR LSZC 070920Z 07004KT 030V110 8000 BKN030 OVC040 09/05 Q1007;
0151068065999992010050710504+46967+008400FM-15+0450LSZC V0200901N002110090019N0080001N1+01101+00501999999ADDGA1071+009001999GA2081+012001999GF108991999999999999999999MA1100711999999REMMET066METAR LSZC 071050Z 09004KT 040V150 8000 BKN030 OVC040 11/05 Q1007;
0151068065999992010050711504+46967+008400FM-15+0450LSZC V0201001N003110090019N0080001N1+01101+00601999999ADDGA1071+009001999GA2081+012001999GF108991999999999999999999MA1100711999999REMMET066METAR LSZC 071150Z 10006KT 070V140 8000 BKN030 OVC040 11/06 Q1007;
0151068065999992010050712204+46967+008400FM-15+0450LSZC V0201001N002610090019N0080001N1+01201+00401999999ADDGA1071+009001999GA2081+012001999GF108991999999999999999999MA1100711999999REMMET066METAR LSZC 071220Z 10005KT 060V150 8000 BKN030 OVC040 12/04 Q1007;
0151068065999992010050713504+46967+008400FM-15+0450LSZC V0203001N002610090019N0080001N1+01201+00501999999ADDGA1071+009001999GA2081+012001999GF108991999999999999999999MA1100711999999REMMET066METAR LSZC 071350Z 30005KT 240V350 8000 BKN030 OVC040 12/05 Q1007;
0153068065999992010051005504+46967+008400FM-15+0450LSZC V0203401N000510210019N0070001N1+01001+00901999999ADDGA1021+002101999GA2081+021001999GF108991999999999999999999MA1100611999999MW1611REMMET062METAR LSZC 100550Z 34001KT 7000 -RA FEW007 OVC070 10/09 Q1006;
0153068065999992010051006204+46967+008400FM-15+0450LSZC V0209999C000010210019N0070001N1+01001+00901999999ADDGA1021+002101999GA2081+021001999GF108991999999999999999999MA1100611999999MW1611REMMET062METAR LSZC 100620Z 00000KT 7000 -RA FEW007 OVC070 10/09 Q1006;
0153068065999992010051006504+46967+008400FM-15+0450LSZC V0209999C000010210019N0070001N1+01101+01001999999ADDGA1041+002101999GA2081+021001999GF108991999999999999999999MA1100611999999MW1611REMMET062METAR LSZC 100650Z 00000KT 7000 -RA SCT007 OVC070 11/10 Q1006;
0153068065999992010051007204+46967+008400FM-15+0450LSZC V0209999V000510210019N0070001N1+01101+01001999999ADDGA1041+002101999GA2081+021001999GF108991999999999999999999MA1100611999999MW1611REMMET062METAR LSZC 100720Z VRB01KT 7000 -RA SCT007 OVC070 11/10 Q1006;
0143068065999992010051007504+46967+008400FM-15+0450LSZC V0209999C000010210019N0070001N1+01201+01001999999ADDGA1021+002101999GA2081+021001999GF108991999999999999999999MA1100611999999REMMET058METAR LSZC 100750Z 00000KT 7000 FEW007 OVC070 12/10 Q1006;
0166068065999992010051008204+46967+008400FM-15+0450LSZC V0209999V001010210019N0090001N1+01201+01001999999ADDGA1021+002101999GA2071+021001999GA3071+027001999GF107991999999999999999999MA1100611999999REMMET065METAR LSZC 100820Z VRB02KT 9000 FEW007 BKN070 BKN095 12/10 Q1006;
0166068065999992010051008504+46967+008400FM-15+0450LSZC V0209999V00151010501CN0090001N1+01301+01001999999ADDGA1021+002101999GA2041+010501999GA3071+018001999GF107991999999999999999999MA1100611999999REMMET065METAR LSZC 100850Z VRB03KT 9000 FEW007 SCT035 BKN060 13/10 Q1006;
0166068065999992010051009204+46967+008400FM-15+0450LSZC V0209999V00101010501CN0090001N1+01301+01001999999ADDGA1021+002101999GA2041+010501999GA3071+018001999GF107991999999999999999999MA1100611999999REMMET065METAR LSZC 100920Z VRB02KT 9000 FEW007 SCT035 BKN060 13/10 Q1006;
0166068065999992010051009504+46967+008400FM-15+0450LSZC V0209999V00051010501CN0112651N1+01301+01001999999ADDGA1021+002101999GA2041+010501999GA3081+021001999GF108991999999999999999999MA1100611999999REMMET065METAR LSZC 100950Z VRB01KT 9999 FEW007 SCT035 OVC070 13/10 Q1006;
0151068065999992010051011204+46967+008400FM-15+0450LSZC V0200701N002110210019N0112651N1+01401+01001999999ADDGA1021+004501999GA2081+021001999GF108991999999999999999999MA1100611999999REMMET066METAR LSZC 101120Z 07004KT 050V110 9999 FEW015 OVC070 14/10 Q1006;
0151068065999992010051011504+46967+008400FM-15+0450LSZC V0200701N001510210019N0112651N1+01501+01001999999ADDGA1021+004501999GA2081+021001999GF108991999999999999999999MA1100611999999REMMET066METAR LSZC 101150Z 07003KT 020V130 9999 FEW015 OVC070 15/10 Q1006;
0143068065999992010051012504+46967+008400FM-15+0450LSZC V0209999V000510210019N0112651N1+01401+01101999999ADDGA1021+004501999GA2081+021001999GF108991999999999999999999MA1100611999999REMMET058METAR LSZC 101250Z VRB01KT 9999 FEW015 OVC070 14/11 Q1006;
0178068065999992010051013204+46967+008400FM-15+0450LSZC V0209999V00101010501CN0090001N1+01501+01001999999ADDGA1021+004501999GA2041+010501999GA3071+021001999GF107991999999999999999999MA1100611999999MW1801REMMET071METAR LSZC 101320Z VRB02KT 9000 -SHRA FEW015 SCT035 BKN070 15/10 Q1006;
0174068065999992010051013504+46967+008400FM-15+0450LSZC V0200801N00261010501CN0112651N1+01501+01101999999ADDGA1021+004501999GA2041+010501999GA3071+021001999GF107991999999999999999999MA1100611999999REMMET073METAR LSZC 101350Z 08005KT 050V150 9999 FEW015 SCT035 BKN070 15/11 Q1006;
0178068065999992010051014204+46967+008400FM-15+0450LSZC V0200601N00361010501CN0112651N1+01401+01001999999ADDGA1021+004501999GA2041+010501999GA3071+021001999GF107991999999999999999999MA1100511999999MW1801REMMET071METAR LSZC 101420Z 06007KT 9999 -SHRA FEW015 SCT035 BKN070 14/10 Q1005;
0185068065999992010051014504+46967+008400FM-15+0450LSZC V0209999V00101010501CN0030001N1+01401+01001999999ADDGA1021+004501999GA2041+010501091GA3071+021001999GF107991999999999999999999MA1100611999999MW1811MW2951REMMET072METAR LSZC 101450Z VRB02KT 3000 TSRA FEW015 SCT035CB BKN070 14/10 Q1006;
0120068065999992010051105504+46967+008400FM-15+0450LSZC V0202701N001510180019N0112651N1+01001+00901999999ADDGA1081+018001999GF108991999999999999999999MA1100511999999REMMET051METAR LSZC 110550Z 27003KT 9999 OVC068 10/09 Q1005;
0132068065999992010051106204+46967+008400FM-15+0450LSZC V0202601N001510180019N0112651N1+01001+00901999999ADDGA1081+018001999GF108991999999999999999999MA1100511999999MW1801REMMET057METAR LSZC 110620Z 26003KT 9999 -SHRA OVC068 10/09 Q1005;
0132068065999992010051106504+46967+008400FM-15+0450LSZC V0202301N001010180019N0112651N1+01101+00901999999ADDGA1081+018001999GF108991999999999999999999MA1100511999999MW1801REMMET057METAR LSZC 110650Z 23002KT 9999 -SHRA OVC068 11/09 Q1005;
0120068065999992010051107204+46967+008400FM-15+0450LSZC V0209999V000510180019N0112651N1+01201+01001999999ADDGA1081+018001999GF108991999999999999999999MA1100411999999REMMET051METAR LSZC 110720Z VRB01KT 9999 OVC068 12/10 Q1004;
0151068065999992010051107504+46967+008400FM-15+0450LSZC V0200801N002610180019N0112651N1+01401+01101999999ADDGA1021+003601999GA2071+018001999GF107991999999999999999999MA1100411999999REMMET066METAR LSZC 110750Z 08005KT 050V110 9999 FEW012 BKN068 14/11 Q1004;
0151068065999992010051108204+46967+008400FM-15+0450LSZC V0200701N001512200019N0112651N1+01401+00901999999ADDGA1021+003601999GA2041+021001999GF104991999999999999999999MA1100311999999REMMET066METAR LSZC 110820Z 07003KT 010V150 9999 FEW012 SCT070 14/09 Q1003;
0128068065999992010051109204+46967+008400FM-15+0450LSZC V0200801N002612200019N0112651N1+01601+01001999999ADDGA1021+021001999GF102991999999999999999999MA1100201999999REMMET059METAR LSZC 110920Z 08005KT 050V130 9999 FEW070 16/10 Q1002;
0128068065999992010051111204+46967+008400FM-15+0450LSZC V0201001N002112200019N0112651N1+01801+01101999999ADDGA1021+013501999GF102991999999999999999999MA1100101999999REMMET059METAR LSZC 111120Z 10004KT 050V140 9999 FEW045 18/11 Q1001;
0128068065999992010051111504+46967+008400FM-15+0450LSZC V0201101N002112200019N0112651N1+01901+01201999999ADDGA1021+013501999GF102991999999999999999999MA1100101999999REMMET059METAR LSZC 111150Z 11004KT 060V160 9999 FEW045 19/12 Q1001;
0128068065999992010051112204+46967+008400FM-15+0450LSZC V0200801N001512200019N0112651N1+01901+01101999999ADDGA1021+013501999GF102991999999999999999999MA1100101999999REMMET059METAR LSZC 111220Z 08003KT 050V170 9999 FEW045 19/11 Q1001;
0128068065999992010051112504+46967+008400FM-15+0450LSZC V0201001N002112200019N0112651N1+01901+01201999999ADDGA1021+013501999GF102991999999999999999999MA1100001999999REMMET059METAR LSZC 111250Z 10004KT 030V160 9999 FEW045 19/12 Q1000;
0128068065999992010051113204+46967+008400FM-15+0450LSZC V0200801N002612200019N0112651N1+02001+01101999999ADDGA1041+018001999GF104991999999999999999999MA1100001999999REMMET059METAR LSZC 111320Z 08005KT 030V130 9999 SCT060 20/11 Q1000;
0145068065999992010051114204+46967+008400FM-15+0450LSZC V0209999V002110240019N0112651N1+02001+01001999999ADDGA1041+012001091GA2071+024001999GF107991999999999999999999MA1100001999999REMMET060METAR LSZC 111420Z VRB04KT 9999 SCT040CB BKN082 20/10 Q1000;
0173068065999992010051114504+46967+008400FM-15+0450LSZC V0203101N011810150019N0112651N1+01501+00701999999ADDGA1041+012001999GA2071+015001999GF107991999999999999999999MA1100201999999MW1811OC102061REMMET074METAR LSZC 111450Z 31023G40KT 280V010 9999 SHRA SCT040 BKN057 15/07 Q1002;
0166068065999992010051206204+46967+008400FM-15+0450LSZC V0209999C00001006001CN0070001N1+01101+01001999999ADDGA1021+001501999GA2041+006001999GA3071+012001999GF107991999999999999999999MA1100811999999REMMET065METAR LSZC 120620Z 00000KT 7000 FEW005 SCT020 BKN040 11/10 Q1008;
0166068065999992010051206504+46967+008400FM-15+0450LSZC V0209999C00001006001CN0070001N1+01201+01001999999ADDGA1021+001501999GA2041+006001999GA3071+012001999GF107991999999999999999999MA1100811999999REMMET065METAR LSZC 120650Z 00000KT 7000 FEW005 SCT020 BKN040 12/10 Q1008;
0166068065999992010051207204+46967+008400FM-15+0450LSZC V0209999V00051006001CN0070001N1+01201+01001999999ADDGA1021+001501999GA2041+006001999GA3071+012001999GF107991999999999999999999MA1100811999999REMMET065METAR LSZC 120720Z VRB01KT 7000 FEW005 SCT020 BKN040 12/10 Q1008;
0166068065999992010051207504+46967+008400FM-15+0450LSZC V0209999V00101006001CN0070001N1+01201+01001999999ADDGA1021+001501999GA2041+006001999GA3071+012001999GF107991999999999999999999MA1100811999999REMMET065METAR LSZC 120750Z VRB02KT 7000 FEW005 SCT020 BKN040 12/10 Q1008;
0166068065999992010051208204+46967+008400FM-15+0450LSZC V0209999V00101008101CN0070001N1+01301+01001999999ADDGA1041+003001999GA2041+008101999GA3081+021001999GF108991999999999999999999MA1100811999999REMMET065METAR LSZC 120820Z VRB02KT 7000 SCT010 SCT027 OVC072 13/10 Q1008;
0176068065999992010051208504+46967+008400FM-15+0450LSZC V0209999V00151008101CN0070001N1+01301+01001999999ADDGA1041+003001999GA2041+008101999GA3081+021001999GF108991999999999999999999MA1100811999999MW1611REMMET069METAR LSZC 120850Z VRB03KT 7000 -RA SCT010 SCT027 OVC072 13/10 Q1008;
0179068065999992010051209204+46967+008400FM-15+0450LSZC V0200901N00211008101CN0090001N1+01401+01001999999ADDGA1041+003001999GA2041+008101999GA3071+021001999GF107991999999999999999999MA1100811999999REMMET078METAR LSZC 120920Z 09004KT 040V130 9000 SCT010 SCT027 BKN072 14/10 Q1008 RERA;
0174068065999992010051209504+46967+008400FM-15+0450LSZC V0201101N00211012001CN0112651N1+01301+00901999999ADDGA1041+004801999GA2041+012001999GA3071+018001999GF107991999999999999999999MA1100811999999REMMET073METAR LSZC 120950Z 11004KT 070V140 9999 SCT016 SCT040 BKN065 13/09 Q1008;
0174068065999992010051211204+46967+008400FM-15+0450LSZC V0200801N00151012001CN0112651N1+01501+01001999999ADDGA1021+004801999GA2041+012001999GA3071+018001999GF107991999999999999999999MA1100711999999REMMET073METAR LSZC 121120Z 08003KT 360V140 9999 FEW016 SCT040 BKN065 15/10 Q1007;
0174068065999992010051211504+46967+008400FM-15+0450LSZC V0200601N00261012001CN0112651N1+01501+01101999999ADDGA1021+004801999GA2041+012001999GA3071+018001999GF107991999999999999999999MA1100711999999REMMET073METAR LSZC 121150Z 06005KT 020V100 9999 FEW016 SCT040 BKN065 15/11 Q1007;
0174068065999992010051212204+46967+008400FM-15+0450LSZC V0200901N00261012001CN0112651N1+01501+01001999999ADDGA1021+004801999GA2041+012001999GA3071+018001999GF107991999999999999999999MA1100711999999REMMET073METAR LSZC 121220Z 09005KT 020V120 9999 FEW016 SCT040 BKN065 15/10 Q1007;
0174068065999992010051212504+46967+008400FM-15+0450LSZC V0201001N00211012001CN0112651N1+01601+01001999999ADDGA1021+004801999GA2041+012001999GA3071+018001999GF107991999999999999999999MA1100711999999REMMET073METAR LSZC 121250Z 10004KT 070V150 9999 FEW016 SCT040 BKN065 16/10 Q1007;
0151068065999992010051213204+46967+008400FM-15+0450LSZC V0200801N003110180019N0112651N1+01601+01001999999ADDGA1041+012001999GA2071+018001999GF107991999999999999999999MA1100711999999REMMET066METAR LSZC 121320Z 08006KT 050V130 9999 SCT040 BKN065 16/10 Q1007;
0151068065999992010051213504+46967+008400FM-15+0450LSZC V0200801N003110180019N0112651N1+01401+00901999999ADDGA1041+012001999GA2071+018001999GF107991999999999999999999MA1100611999999REMMET066METAR LSZC 121350Z 08006KT 050V110 9999 SCT040 BKN065 14/09 Q1006;
0143068065999992010051214204+46967+008400FM-15+0450LSZC V0209999V001010180019N0112651N1+01501+00901999999ADDGA1041+012001999GA2071+018001999GF107991999999999999999999MA1100611999999REMMET058METAR LSZC 121420Z VRB02KT 9999 SCT040 BKN065 15/09 Q1006;
0151068065999992010051214504+46967+008400FM-15+0450LSZC V0200901N001510180019N0112651N1+01601+00901999999ADDGA1041+012001999GA2071+018001999GF107991999999999999999999MA1100611999999REMMET066METAR LSZC 121450Z 09003KT 050V120 9999 SCT040 BKN065 16/09 Q1006;
0161068065999992010051215504+46967+008400FM-15+0450LSZC V0200801N003110180019N0112651N1+01401+01001999999ADDGA1021+013501999GA2081+018001999GF108991999999999999999999MA1100611999999MW1611REMMET070METAR LSZC 121550Z 08006KT 030V110 9999 -RA FEW045 OVC065 14/10 Q1006;
0138068065999992010051705504+46967+008400FM-15+0450LSZC V0202501N002610150019N0070001N1+00801+00601999999ADDGA1081+015001999GF108991999999999999999999MA1102301999999MW1611REMMET063METAR LSZC 170550Z 25005KT 210V290 7000 -RA OVC050 08/06 Q1023;
0128068065999992010051706204+46967+008400FM-15+0450LSZC V0202701N003610135019N0070001N1+00901+00601999999ADDGA1071+013501999GF107991999999999999999999MA1102301999999REMMET059METAR LSZC 170620Z 27007KT 230V290 7000 BKN045 09/06 Q1023;
0166068065999992010051706504+46967+008400FM-15+0450LSZC V0209999V001510180019N0070001N1+01001+00601999999ADDGA1021+013501999GA2071+018001999GA3071+027001999GF107991999999999999999999MA1102301999999REMMET065METAR LSZC 170650Z VRB03KT 7000 FEW045 BKN061 BKN096 10/06 Q1023;
0166068065999992010051707204+46967+008400FM-15+0450LSZC V0209999V00211018001CN0070001N1+01001+00501999999ADDGA1021+013501999GA2041+018001999GA3071+027001999GF107991999999999999999999MA1102301999999REMMET065METAR LSZC 170720Z VRB04KT 7000 FEW045 SCT061 BKN096 10/05 Q1023;
0143068065999992010051707504+46967+008400FM-15+0450LSZC V0209999V001510270019N0070001N1+01201+00601999999ADDGA1041+013501999GA2071+027001999GF107991999999999999999999MA1102301999999REMMET058METAR LSZC 170750Z VRB03KT 7000 SCT045 BKN096 12/06 Q1023;
0151068065999992010051708204+46967+008400FM-15+0450LSZC V0200601N002110270019N0070001N1+01201+00701999999ADDGA1041+013501999GA2071+027001999GF107991999999999999999999MA1102301999999REMMET066METAR LSZC 170820Z 06004KT 010V110 7000 SCT045 BKN096 12/07 Q1023;
0143068065999992010051711204+46967+008400FM-15+0450LSZC V0202401N002610240019N0090001N1+01301+00601999999ADDGA1021+013501999GA2071+024001999GF107991999999999999999999MA1102301999999REMMET058METAR LSZC 171120Z 24005KT 9000 FEW045 BKN084 13/06 Q1023;
0151068065999992010051711504+46967+008400FM-15+0450LSZC V0202401N001510240019N0090001N1+01401+00501999999ADDGA1021+013501999GA2071+024001999GF107991999999999999999999MA1102301999999REMMET066METAR LSZC 171150Z 24003KT 190V330 9000 FEW045 BKN084 14/05 Q1023;
0151068065999992010051712204+46967+008400FM-15+0450LSZC V0202701N002110210019N0090001N1+01401+00501999999ADDGA1021+013501999GA2071+021001999GF107991999999999999999999MA1102301999999REMMET066METAR LSZC 171220Z 27004KT 230V320 9000 FEW045 BKN076 14/05 Q1023;
0151068065999992010051712504+46967+008400FM-15+0450LSZC V0202501N002110240019N0090001N1+01401+00501999999ADDGA1021+014401999GA2071+024001999GF107991999999999999999999MA1102301999999REMMET066METAR LSZC 171250Z 25004KT 210V280 9000 FEW048 BKN081 14/05 Q1023;
0161068065999992010051805504+46967+008400FM-15+0450LSZC V0202501N003110105019N0070001N1+00801+00601999999ADDGA1071+010501999GA2081+014401999GF108991999999999999999999MA1102611999999MW1611REMMET070METAR LSZC 180550Z 25006KT 210V280 7000 -RA BKN035 OVC048 08/06 Q1026;
0153068065999992010051806204+46967+008400FM-15+0450LSZC V0202401N004110105019N0070001N1+00801+00601999999ADDGA1071+010501999GA2081+014401999GF108991999999999999999999MA1102711999999MW1611REMMET062METAR LSZC 180620Z 24008KT 7000 -RA BKN035 OVC048 08/06 Q1027;
0166068065999992010051806504+46967+008400FM-15+0450LSZC V0202401N002110105019N0070001N1+00801+00601999999ADDGA1021+003001999GA2071+010501999GA3081+015001999GF108991999999999999999999MA1102711999999REMMET065METAR LSZC 180650Z 24004KT 7000 FEW010 BKN035 OVC050 08/06 Q1027;
0166068065999992010051807204+46967+008400FM-15+0450LSZC V0202401N002610105019N0070001N1+00901+00701999999ADDGA1021+003001999GA2071+010501999GA3081+015001999GF108991999999999999999999MA1102711999999REMMET065METAR LSZC 180720Z 24005KT 7000 FEW010 BKN035 OVC050 09/07 Q1027;
0166068065999992010051807504+46967+008400FM-15+0450LSZC V0202401N003110120019N0080001N1+00901+00601999999ADDGA1021+004501999GA2071+012001999GA3081+015001999GF108991999999999999999999MA1102711999999REMMET065METAR LSZC 180750Z 24006KT 8000 FEW015 BKN040 OVC050 09/06 Q1027;
0166068065999992010051808204+46967+008400FM-15+0450LSZC V0202501N002610090019N0080001N1+01001+00701999999ADDGA1021+004501999GA2071+009001999GA3081+013501999GF108991999999999999999999MA1102711999999REMMET065METAR LSZC 180820Z 25005KT 8000 FEW015 BKN030 OVC045 10/07 Q1027;
0174068065999992010051808504+46967+008400FM-15+0450LSZC V0202301N002110090019N0080001N1+01001+00701999999ADDGA1021+004501999GA2071+009001999GA3081+013501999GF108991999999999999999999MA1102711999999REMMET073METAR LSZC 180850Z 23004KT 200V280 8000 FEW015 BKN030 OVC045 10/07 Q1027;
0174068065999992010051809204+46967+008400FM-15+0450LSZC V0202601N00261001501CN0080001N1+01001+00601999999ADDGA1081+001501999GA2021+004501999GA3071+009001999GF108991999999999999999999MA1102711999999REMMET073METAR LSZC 180920Z 26005KT 210V290 8000 FEW015 BKN030 OVC005 10/06 Q1027;
0166068065999992010051809504+46967+008400FM-15+0450LSZC V0209999V001510090019N0080001N1+01101+00701999999ADDGA1021+004501999GA2071+009001999GA3081+015001999GF108991999999999999999999MA1102711999999REMMET065METAR LSZC 180950Z VRB03KT 8000 FEW015 BKN030 OVC050 11/07 Q1027;
0174068065999992010051811204+46967+008400FM-15+0450LSZC V0202101N004110090019N0080001N1+01301+00601999999ADDGA1021+004501999GA2071+009001999GA3081+015001999GF108991999999999999999999MA1102611999999REMMET073METAR LSZC 181120Z 21008KT 150V250 8000 FEW015 BKN030 OVC050 13/06 Q1026;
0174068065999992010051811504+46967+008400FM-15+0450LSZC V0201901N003110090019N0080001N1+01401+00501999999ADDGA1021+004501999GA2071+009001999GA3081+015001999GF108991999999999999999999MA1102611999999REMMET073METAR LSZC 181150Z 19006KT 110V250 8000 FEW015 BKN030 OVC050 14/05 Q1026;
0184068065999992010051812504+46967+008400FM-15+0450LSZC V0202501N003110090019N0080001N1+01101+00501999999ADDGA1021+004501999GA2071+009001999GA3081+015001999GF108991999999999999999999MA1102611999999MW1611REMMET077METAR LSZC 181250Z 25006KT 200V290 8000 -RA FEW015 BKN030 OVC050 11/05 Q1026;
0128068065999992010051814504+46967+008400FM-15+0450LSZC V0202201N005110150019N0080001N1+01101+00501999999ADDGA1081+015001999GF108991999999999999999999MA1102511999999REMMET059METAR LSZC 181450Z 22010KT 180V260 8000 OVC050 11/05 Q1025;
0152068065999992010051905504+46967+008400FM-15+0450LSZC V0202601N002112200019N0080001N1+00701+00501999999ADDGA1021+004501999GA2041+009001999GF104991999999999999999999MA1102511999999MW1051REMMET061METAR LSZC 190550Z 26004KT 8000 HZ FEW015 SCT030 07/05 Q1025;
0152068065999992010051906204+46967+008400FM-15+0450LSZC V0209999V001012200019N0080001N1+00701+00501999999ADDGA1021+004501999GA2041+009001999GF104991999999999999999999MA1102511999999MW1051REMMET061METAR LSZC 190620Z VRB02KT 8000 HZ FEW015 SCT030 07/05 Q1025;
0177068065999992010051906504+46967+008400FM-15+0450LSZC V0209999V00101006001CN0080001N1+00801+00501999999ADDGA1021+004501999GA2041+006001999GA3071+009901999GF107991999999999999999999MA1102511999999MW1161REMMET070METAR LSZC 190650Z VRB02KT 8000 VCSH FEW015 SCT020 BKN033 08/05 Q1025;
0183068065999992010051907204+46967+008400FM-15+0450LSZC V0201501N00261006001CN0080001N1+00501+00301999999ADDGA1021+004501999GA2041+006001999GA3071+009901999GF107991999999999999999999MA1102611999999MW1631REMMET076METAR LSZC 190720Z 15005KT 110V190 8000 RA FEW015 SCT020 BKN033 05/03 Q1026;
0174068065999992010051907504+46967+008400FM-15+0450LSZC V0200901N00311006001CN0080001N1+00601+00301999999ADDGA1021+004501999GA2041+006001999GA3071+009901999GF107991999999999999999999MA1102611999999REMMET073METAR LSZC 190750Z 09006KT 030V140 8000 FEW015 SCT020 BKN033 06/03 Q1026;
0166068065999992010051908204+46967+008400FM-15+0450LSZC V0209999V00151006001CN0080001N1+00701+00401999999ADDGA1021+004501999GA2041+006001999GA3071+009901999GF107991999999999999999999MA1102611999999REMMET065METAR LSZC 190820Z VRB03KT 8000 FEW015 SCT020 BKN033 07/04 Q1026;
0151068065999992010051908504+46967+008400FM-15+0450LSZC V0202801N002110108019N0080001N1+00801+00401999999ADDGA1041+004501999GA2071+010801999GF107991999999999999999999MA1102611999999REMMET066METAR LSZC 190850Z 28004KT 200V330 8000 SCT015 BKN036 08/04 Q1026;
0143068065999992010051909204+46967+008400FM-15+0450LSZC V0202801N004110108019N0080001N1+00901+00501999999ADDGA1041+004501999GA2071+010801999GF107991999999999999999999MA1102611999999REMMET058METAR LSZC 190920Z 28008KT 8000 SCT015 BKN036 09/05 Q1026;
0143068065999992010051909504+46967+008400FM-15+0450LSZC V0209999V001512200019N0080001N1+01001+00501999999ADDGA1041+009001999GA2041+030001999GF104991999999999999999999MA1102611999999REMMET058METAR LSZC 190950Z VRB03KT 8000 SCT030 SCT100 10/05 Q1026;
0151068065999992010051911204+46967+008400FM-15+0450LSZC V0200701N002610180019N0112651N1+01101+00601999999ADDGA1041+012001999GA2071+018001999GF107991999999999999999999MA1102611999999REMMET066METAR LSZC 191120Z 07005KT 010V110 9999 SCT040 BKN065 11/06 Q1026;
0143068065999992010051911504+46967+008400FM-15+0450LSZC V0209999V002110180019N0112651N1+01001+00401999999ADDGA1041+012001999GA2071+018001999GF107991999999999999999999MA1102611999999REMMET058METAR LSZC 191150Z VRB04KT 9999 SCT040 BKN065 10/04 Q1026;
0151068065999992010051912204+46967+008400FM-15+0450LSZC V0203101N004110180019N0112651N1+01201+00301999999ADDGA1041+012001999GA2071+018001999GF107991999999999999999999MA1102611999999REMMET066METAR LSZC 191220Z 31008KT 230V020 9999 SCT040 BKN065 12/03 Q1026;
0143068065999992010051912504+46967+008400FM-15+0450LSZC V0209999V001010180019N0112651N1+01201+00201999999ADDGA1041+012001999GA2071+018001999GF107991999999999999999999MA1102611999999REMMET058METAR LSZC 191250Z VRB02KT 9999 SCT040 BKN065 12/02 Q1026;
0128068065999992010051914204+46967+008400FM-15+0450LSZC V0201001N002612200019N0112651N1+01301+00201999999ADDGA1041+012001999GF104991999999999999999999MA1102511999999REMMET059METAR LSZC 191420Z 10005KT 060V150 9999 SCT040 13/02 Q1025;
0143068065999992010052005504+46967+008400FM-15+0450LSZC V0202901N001010180019N0070001N1+00801+00601999999ADDGA1041+007501999GA2081+018001999GF108991999999999999999999MA1102811999999REMMET058METAR LSZC 200550Z 29002KT 7000 SCT025 OVC060 08/06 Q1028;
0143068065999992010052006204+46967+008400FM-15+0450LSZC V0209999V000510180019N0070001N1+00901+00601999999ADDGA1041+007501999GA2081+018001999GF108991999999999999999999MA1102811999999REMMET058METAR LSZC 200620Z VRB01KT 7000 SCT025 OVC060 09/06 Q1028;
0143068065999992010052006504+46967+008400FM-15+0450LSZC V0209999V000510180019N0070001N1+00901+00601999999ADDGA1041+006001999GA2081+018001999GF108991999999999999999999MA1102811999999REMMET058METAR LSZC 200650Z VRB01KT 7000 SCT020 OVC060 09/06 Q1028;
0153068065999992010052007204+46967+008400FM-15+0450LSZC V0209999C000010180019N0060001N1+00901+00601999999ADDGA1041+006001999GA2081+018001999GF108991999999999999999999MA1102811999999MW1611REMMET062METAR LSZC 200720Z 00000KT 6000 -RA SCT020 OVC060 09/06 Q1028;
0143068065999992010052007504+46967+008400FM-15+0450LSZC V0209999V001510150019N0060001N1+00901+00601999999ADDGA1041+004501999GA2081+015001999GF108991999999999999999999MA1102811999999REMMET058METAR LSZC 200750Z VRB03KT 6000 SCT015 OVC050 09/06 Q1028;
0143068065999992010052008204+46967+008400FM-15+0450LSZC V0209999V000510150019N0060001N1+01001+00701999999ADDGA1041+004501999GA2081+015001999GF108991999999999999999999MA1102811999999REMMET058METAR LSZC 200820Z VRB01KT 6000 SCT015 OVC050 10/07 Q1028;
0143068065999992010052008504+46967+008400FM-15+0450LSZC V0209999V001010150019N0060001N1+01001+00601999999ADDGA1041+004501999GA2081+015001999GF108991999999999999999999MA1102811999999REMMET058METAR LSZC 200850Z VRB02KT 6000 SCT015 OVC050 10/06 Q1028;
0143068065999992010052009504+46967+008400FM-15+0450LSZC V0209999V001010150019N0060001N1+01001+00601999999ADDGA1041+004501999GA2081+015001999GF108991999999999999999999MA1102811999999REMMET058METAR LSZC 200950Z VRB02KT 6000 SCT015 OVC050 10/06 Q1028;
0151068065999992010052013204+46967+008400FM-15+0450LSZC V0200701N003110150019N0080001N1+01201+00701999999ADDGA1041+004501999GA2081+015001999GF108991999999999999999999MA1102711999999REMMET066METAR LSZC 201320Z 07006KT 050V110 8000 SCT015 OVC050 12/07 Q1027;
0151068065999992010052013504+46967+008400FM-15+0450LSZC V0200901N002110180019N0080001N1+01301+00701999999ADDGA1041+004501999GA2071+018001999GF107991999999999999999999MA1102711999999REMMET066METAR LSZC 201350Z 09004KT 050V120 8000 SCT015 BKN060 13/07 Q1027;
0151068065999992010052014204+46967+008400FM-15+0450LSZC V0200701N002110180019N0080001N1+01401+00701999999ADDGA1041+004501999GA2071+018001999GF107991999999999999999999MA1102711999999REMMET066METAR LSZC 201420Z 07004KT 010V120 8000 SCT015 BKN060 14/07 Q1027;
0143068065999992010052014504+46967+008400FM-15+0450LSZC V0209999V001010180019N0080001N1+01401+00701999999ADDGA1041+004501999GA2071+018001999GF107991999999999999999999MA1102711999999REMMET058METAR LSZC 201450Z VRB02KT 8000 SCT015 BKN060 14/07 Q1027;
0137068065999992010052105504+46967+008400FM-15+0450LSZC V0209999C000010030019N0025001N1+01001+00901999999ADDGA1091+003001999GF109991999999000251999999MA1102711999999MW1101MW2531REMMET056METAR LSZC 210550Z 00000KT 2500 BR DZ VV010 10/09 Q1027;
0134068065999992010052106204+46967+008400FM-15+0450LSZC V0209999C000010021019N0030001N1+01001+00901999999ADDGA1081+002101999GF108991999999999999999999MA1102711999999MW1101REMMET059METAR LSZC 210620Z 00000KT 3000 BR OVC007 10/09 Q1027 RERA;
0152068065999992010052106504+46967+008400FM-15+0450LSZC V0209999C000010081019N0035001N1+01101+00901999999ADDGA1041+004201999GA2081+008101999GF108991999999999999999999MA1102711999999MW1101REMMET061METAR LSZC 210650Z 00000KT 3500 BR SCT014 OVC027 11/09 Q1027;
0152068065999992010052107204+46967+008400FM-15+0450LSZC V0209999V000510078019N0035001N1+01101+00901999999ADDGA1041+003001999GA2081+007801999GF108991999999999999999999MA1102711999999MW1101REMMET061METAR LSZC 210720Z VRB01KT 3500 BR SCT010 OVC026 11/09 Q1027;
0152068065999992010052107504+46967+008400FM-15+0450LSZC V0209999V000510078019N0035001N1+01101+01001999999ADDGA1041+003001999GA2081+007801999GF108991999999999999999999MA1102711999999MW1101REMMET061METAR LSZC 210750Z VRB01KT 3500 BR SCT010 OVC026 11/10 Q1027;
0152068065999992010052108204+46967+008400FM-15+0450LSZC V0209999V000510078019N0040001N1+01201+01001999999ADDGA1041+003001999GA2071+007801999GF107991999999999999999999MA1102711999999MW1101REMMET061METAR LSZC 210820Z VRB01KT 4000 BR SCT010 BKN026 12/10 Q1027;
0120068065999992010052111204+46967+008400FM-15+0450LSZC V0209999V002612200019N0112651N1+01601+00901999999ADDGA1041+012901999GF104991999999999999999999MA1102611999999REMMET051METAR LSZC 211120Z VRB05KT 9999 SCT043 16/09 Q1026;
0128068065999992010052111504+46967+008400FM-15+0450LSZC V0203101N004112200019N0112651N1+01501+00901999999ADDGA1041+012901999GF104991999999999999999999MA1102611999999REMMET059METAR LSZC 211150Z 31008KT 260V350 9999 SCT043 15/09 Q1026;
0128068065999992010052112204+46967+008400FM-15+0450LSZC V0203301N003112200019N0112651N1+01501+00901999999ADDGA1041+012901999GF104991999999999999999999MA1102611999999REMMET059METAR LSZC 211220Z 33006KT 270V060 9999 SCT043 15/09 Q1026;
0128068065999992010052112504+46967+008400FM-15+0450LSZC V0203101N005112200019N0112651N1+01501+00901999999ADDGA1041+012301999GF104991999999999999999999MA1102611999999REMMET059METAR LSZC 211250Z 31010KT 260V350 9999 SCT041 15/09 Q1026;
0128068065999992010052113204+46967+008400FM-15+0450LSZC V0203301N004612200019N0112651N1+01601+00901999999ADDGA1041+012301999GF104991999999999999999999MA1102611999999REMMET059METAR LSZC 211320Z 33009KT 280V010 9999 SCT041 16/09 Q1026;
0120068065999992010052505204+46967+008400FM-15+0450LSZC V0209999C000012200019N0112651N1+01501+01101999999ADDGA1041+015001999GF104991999999999999999999MA1101491999999REMMET051METAR LSZC 250520Z 00000KT 9999 SCT050 15/11 Q1015;
0120068065999992010052506204+46967+008400FM-15+0450LSZC V0209999C000012200019N0112651N1+01801+01101999999ADDGA1041+015001999GF104991999999999999999999MA1101391999999REMMET051METAR LSZC 250620Z 00000KT 9999 SCT050 18/11 Q1014;
0120068065999992010052508504+46967+008400FM-15+0450LSZC V0209999V001012200019N0112651N1+02001+01101999999ADDGA1041+027001999GF104991999999999999999999MA1101391999999REMMET051METAR LSZC 250850Z VRB02KT 9999 SCT090 20/11 Q1014;
0128068065999992010052511204+46967+008400FM-15+0450LSZC V0200801N002612200019N0112651N1+02501+01301999999ADDGA1041+015001999GF104991999999999999999999MA1101291999999REMMET059METAR LSZC 251120Z 08005KT 050V130 9999 SCT050 25/13 Q1013;
0128068065999992010052514504+46967+008400FM-15+0450LSZC V0200801N002112200019N0112651N1+02701+00801999999ADDGA1041+015001999GF104991999999999999999999MA1101081999999REMMET059METAR LSZC 251450Z 08004KT 010V120 9999 SCT050 27/08 Q1011;
0128068065999992010052605504+46967+008400FM-15+0450LSZC V0200501N004610360019N0112651N1+01701+00901999999ADDGA1071+036001999GF107991999999999999999999MA1101081999999REMMET059METAR LSZC 260550Z 05009KT 020V080 9999 BKN120 17/09 Q1011;
0120068065999992010052606204+46967+008400FM-15+0450LSZC V0200701N002110360019N0112651N1+01701+00901999999ADDGA1071+036001999GF107991999999999999999999MA1101081999999REMMET051METAR LSZC 260620Z 07004KT 9999 BKN120 17/09 Q1011;
0128068065999992010052606504+46967+008400FM-15+0450LSZC V0200501N003110360019N0112651N1+01801+01001999999ADDGA1071+036001999GF107991999999999999999999MA1101081999999REMMET059METAR LSZC 260650Z 05006KT 010V080 9999 BKN120 18/10 Q1011;
0120068065999992010052607204+46967+008400FM-15+0450LSZC V0200601N003110360019N0112651N1+01801+00901999999ADDGA1071+036001999GF107991999999999999999999MA1101081999999REMMET051METAR LSZC 260720Z 06006KT 9999 BKN120 18/09 Q1011;
0128068065999992010052607504+46967+008400FM-15+0450LSZC V0201001N002112200019N0112651N1+02001+00801999999ADDGA1021+015001999GF102991999999999999999999MA1101081999999REMMET059METAR LSZC 260750Z 10004KT 060V150 9999 FEW055 20/08 Q1011;
0120068065999992010052608504+46967+008400FM-15+0450LSZC V0201001N003112200019N0112651N1+02001+00901999999ADDGA1021+015001999GF102991999999999999999999MA1101021999999REMMET051METAR LSZC 260850Z 10006KT 9999 FEW055 20/09 Q1010;
0128068065999992010052609204+46967+008400FM-15+0450LSZC V0201001N002112200019N0112651N1+02101+00901999999ADDGA1041+015001999GF104991999999999999999999MA1101021999999REMMET059METAR LSZC 260920Z 10004KT 070V150 9999 SCT055 21/09 Q1010;
0151068065999992010052611204+46967+008400FM-15+0450LSZC V0200901N002110390019N0112651N1+02101+01001999999ADDGA1021+018001999GA2071+039001999GF107991999999999999999999MA1101021999999REMMET066METAR LSZC 261120Z 09004KT 050V110 9999 FEW060 BKN130 21/10 Q1010;
0151068065999992010052611504+46967+008400FM-15+0450LSZC V0201501N001510390019N0112651N1+02201+00901999999ADDGA1021+018001999GA2071+039001999GF107991999999999999999999MA1101021999999REMMET066METAR LSZC 261150Z 15003KT 110V230 9999 FEW060 BKN130 22/09 Q1010;
0151068065999992010052612204+46967+008400FM-15+0450LSZC V0200901N003610390019N0112651N1+02301+01101999999ADDGA1021+018001999GA2071+039001999GF107991999999999999999999MA1100911999999REMMET066METAR LSZC 261220Z 09007KT 050V140 9999 FEW060 BKN130 23/11 Q1009;
0151068065999992010052612504+46967+008400FM-15+0450LSZC V0200801N003610450019N0112651N1+02301+01001999999ADDGA1021+018001999GA2071+045001999GF107991999999999999999999MA1100911999999REMMET066METAR LSZC 261250Z 08007KT 030V120 9999 FEW060 BKN150 23/10 Q1009;
0128068065999992010052613504+46967+008400FM-15+0450LSZC V0200701N003610360019N0112651N1+02201+01101999999ADDGA1071+036001999GF107991999999999999999999MA1100811999999REMMET059METAR LSZC 261350Z 07007KT 040V110 9999 BKN120 22/11 Q1008;
0128068065999992010052614204+46967+008400FM-15+0450LSZC V0200901N002112200019N0112651N1+02301+00901999999ADDGA1041+036001999GF104991999999999999999999MA1100811999999REMMET059METAR LSZC 261420Z 09004KT 060V120 9999 SCT120 23/09 Q1008;
0166068065999992010052705504+46967+008400FM-15+0450LSZC V0202701N00211007501CN0112651N1+01401+01201999999ADDGA1021+003301999GA2041+007501999GA3081+015001999GF108991999999999999999999MA1101021999999REMMET065METAR LSZC 270550Z 27004KT 9999 FEW011 SCT025 OVC057 14/12 Q1010;
0166068065999992010052706204+46967+008400FM-15+0450LSZC V0202601N00211007501CN0112651N1+01401+01201999999ADDGA1021+003301999GA2041+007501999GA3081+015001999GF108991999999999999999999MA1101081999999REMMET065METAR LSZC 270620Z 26004KT 9999 FEW011 SCT025 OVC057 14/12 Q1011;
0175068065999992010052706504+46967+008400FM-15+0450LSZC V0209999V00051007501CN0112651N1+01401+01201999999ADDGA1021+003301999GA2041+007501999GA3081+015001999GF108991999999999999999999MA1101081999999MW1631REMMET068METAR LSZC 270650Z VRB01KT 9999 RA FEW011 SCT025 OVC057 14/12 Q1011;
0171068065999992010052707204+46967+008400FM-15+0450LSZC V0209999C000010075019N0112651N1+01401+01201999999ADDGA1021+003301999GA2071+007501999GA3081+015001999GF108991999999999999999999MA1101081999999REMMET070METAR LSZC 270720Z 00000KT 9999 FEW011 BKN025 OVC057 14/12 Q1011 RERA;
0175068065999992010052707504+46967+008400FM-15+0450LSZC V0209999C000010075019N0112651N1+01401+01201999999ADDGA1021+003301999GA2071+007501999GA3081+015001999GF108991999999999999999999MA1101081999999MW1631REMMET068METAR LSZC 270750Z 00000KT 9999 RA FEW011 BKN025 OVC057 14/12 Q1011;
0175068065999992010052708204+46967+008400FM-15+0450LSZC V0209999V000510075019N0112651N1+01401+01201999999ADDGA1021+003301999GA2071+007501999GA3081+015001999GF108991999999999999999999MA1101081999999MW1631REMMET068METAR LSZC 270820Z VRB01KT 9999 RA FEW011 BKN025 OVC057 14/12 Q1011;
0176068065999992010052709204+46967+008400FM-15+0450LSZC V0200701N002610075019N0112651N1+01401+01201999999ADDGA1021+003301999GA2071+007501999GA3081+015001999GF108991999999999999999999MA1101081999999MW1611REMMET069METAR LSZC 270920Z 07005KT 9999 -RA FEW011 BKN025 OVC057 14/12 Q1011;
0161068065999992010052709504+46967+008400FM-15+0450LSZC V0200201N001510150019N0112651N1+01401+01101999999ADDGA1021+003301999GA2081+015001999GF108991999999999999999999MA1101081999999MW1611REMMET070METAR LSZC 270950Z 02003KT 340V060 9999 -RA FEW011 OVC050 14/11 Q1011;
0177068065999992010052711204+46967+008400FM-15+0450LSZC V0209999V00051010501CN0112651N1+01501+01101999999ADDGA1021+003301999GA2041+010501999GA3081+021001999GF108991999999999999999999MA1101191999999MW1811REMMET070METAR LSZC 271120Z VRB01KT 9999 SHRA FEW011 SCT035 OVC071 15/11 Q1012;
0173068065999992010052711504+46967+008400FM-15+0450LSZC V0209999V00051010501CN0112651N1+01601+01101999999ADDGA1021+007501999GA2041+010501999GA3071+021001999GF107991999999999999999999MA1101081999999REMMET072METAR LSZC 271150Z VRB01KT 9999 FEW025 SCT035 BKN075 16/11 Q1011 RESHRA;
0143068065999992010052712204+46967+008400FM-15+0450LSZC V0209999V001010210019N0112651N1+01701+01101999999ADDGA1041+010501999GA2071+021001999GF107991999999999999999999MA1101081999999REMMET058METAR LSZC 271220Z VRB02KT 9999 SCT035 BKN075 17/11 Q1011;
0151068065999992010052712504+46967+008400FM-15+0450LSZC V0200801N003110210019N0112651N1+01801+01201999999ADDGA1041+010501999GA2071+021001999GF107991999999999999999999MA1101081999999REMMET066METAR LSZC 271250Z 08006KT 050V120 9999 SCT035 BKN075 18/12 Q1011;
0128068065999992010052713504+46967+008400FM-15+0450LSZC V0200601N002610135019N0112651N1+01601+01101999999ADDGA1071+013501999GF107991999999999999999999MA1101081999999REMMET059METAR LSZC 271350Z 06005KT 030V090 9999 BKN045 16/11 Q1011;
0120068065999992010052714204+46967+008400FM-15+0450LSZC V0200601N002610135019N0112651N1+01601+01101999999ADDGA1071+013501999GF107991999999999999999999MA1101081999999REMMET051METAR LSZC 271420Z 06005KT 9999 BKN045 16/11 Q1011;
0166068065999992010052805504+46967+008400FM-15+0450LSZC V0209999V00051010501CN0112651N1+01301+01001999999ADDGA1021+003001999GA2041+010501999GA3071+024001999GF107991999999999999999999MA1101391999999REMMET065METAR LSZC 280550Z VRB01KT 9999 FEW010 SCT035 BKN085 13/10 Q1014;
0143068065999992010052806204+46967+008400FM-15+0450LSZC V0209999C000010240019N0112651N1+01401+01001999999ADDGA1041+010501999GA2071+024001999GF107991999999999999999999MA1101391999999REMMET058METAR LSZC 280620Z 00000KT 9999 SCT035 BKN085 14/10 Q1014;
0151068065999992010052806504+46967+008400FM-15+0450LSZC V0200701N001510300019N0112651N1+01401+01101999999ADDGA1041+013501999GA2071+030001999GF107991999999999999999999MA1101391999999REMMET066METAR LSZC 280650Z 07003KT 030V100 9999 SCT045 BKN100 14/11 Q1014;
0151068065999992010052807204+46967+008400FM-15+0450LSZC V0201001N001510300019N0112651N1+01601+01101999999ADDGA1041+013501999GA2071+030001999GF107991999999999999999999MA1101391999999REMMET066METAR LSZC 280720Z 10003KT 040V170 9999 SCT045 BKN100 16/11 Q1014;
0151068065999992010052807504+46967+008400FM-15+0450LSZC V0200501N001510300019N0112651N1+01501+01101999999ADDGA1041+013501999GA2071+030001999GF107991999999999999999999MA1101391999999REMMET066METAR LSZC 280750Z 05003KT 360V100 9999 SCT045 BKN100 15/11 Q1014;
0143068065999992010052808204+46967+008400FM-15+0450LSZC V0209999V001010300019N0112651N1+01501+01101999999ADDGA1041+013501999GA2081+030001999GF108991999999999999999999MA1101391999999REMMET058METAR LSZC 280820Z VRB02KT 9999 SCT045 OVC100 15/11 Q1014;
0186068065999992010052811204+46967+008400FM-15+0450LSZC V0202801N003110180019N0112651N1+01801+01001999999ADDGA1041+013501999GA2071+018001999GA3081+030001999GF108991999999999999999999MA1101391999999MW1801REMMET079METAR LSZC 281120Z 28006KT 210V330 9999 -SHRA SCT045 BKN065 OVC100 18/10 Q1014;
0174068065999992010052811504+46967+008400FM-15+0450LSZC V0201001N002110180019N0112651N1+01801+01101999999ADDGA1041+013501999GA2071+018001999GA3081+030001999GF108991999999999999999999MA1101391999999REMMET073METAR LSZC 281150Z 10004KT 070V180 9999 SCT045 BKN065 OVC100 18/11 Q1014;
0178068065999992010052812204+46967+008400FM-15+0450LSZC V0209999V001010180019N0112651N1+01801+01001999999ADDGA1041+013501999GA2071+018001999GA3081+030001999GF108991999999999999999999MA1101491999999MW1801REMMET071METAR LSZC 281220Z VRB02KT 9999 -SHRA SCT045 BKN065 OVC100 18/10 Q1015;
0178068065999992010052812504+46967+008400FM-15+0450LSZC V0202601N002610180019N0112651N1+01701+01201999999ADDGA1041+013501999GA2071+018001999GA3071+033001999GF107991999999999999999999MA1101491999999MW1801REMMET071METAR LSZC 281250Z 26005KT 9999 -SHRA SCT045 BKN068 BKN110 17/12 Q1015;
0132068065999992010053105504+46967+008400FM-15+0450LSZC V0202801N003110135019N0112651N1+01001+00701999999ADDGA1071+013501999GF107991999999999999999999MA1101491999999MW1801REMMET057METAR LSZC 310550Z 28006KT 9999 -SHRA BKN045 10/07 Q1015;
0132068065999992010053106204+46967+008400FM-15+0450LSZC V0202501N003110135019N0112651N1+01001+00801999999ADDGA1071+013501999GF107991999999999999999999MA1101491999999MW1801REMMET057METAR LSZC 310620Z 25006KT 9999 -SHRA BKN045 10/08 Q1015;
0150068065999992010053106504+46967+008400FM-15+0450LSZC V0203101N005110135019N0070001N1+01001+00501999999ADDGA1071+013501999GF107991999999999999999999MA1101491999999MW1161OC101081REMMET067METAR LSZC 310650Z 31010G21KT 280V340 7000 VCSH BKN045 10/05 Q1015;
0130068065999992010053107204+46967+008400FM-15+0450LSZC V0209999V001010135019N0112651N1+01101+00601999999ADDGA1071+013501999GF107991999999999999999999MA1101491999999MW1611REMMET055METAR LSZC 310720Z VRB02KT 9999 -RA BKN045 11/06 Q1015;
0143068065999992010053108204+46967+008400FM-15+0450LSZC V0209999V000510135019N0112651N1+01201+00701999999ADDGA1021+009001999GA2071+013501999GF107991999999999999999999MA1101491999999REMMET058METAR LSZC 310820Z VRB01KT 9999 FEW030 BKN045 12/07 Q1015;
0151068065999992010053108504+46967+008400FM-15+0450LSZC V0202501N002610135019N0112651N1+01201+00701999999ADDGA1021+009001999GA2071+013501999GF107991999999999999999999MA1101491999999REMMET066METAR LSZC 310850Z 25005KT 210V290 9999 FEW030 BKN045 12/07 Q1015;
0151068065999992010053109204+46967+008400FM-15+0450LSZC V0202801N004610135019N0112651N1+01201+00601999999ADDGA1021+009001999GA2071+013501999GF107991999999999999999999MA1101591999999REMMET066METAR LSZC 310920Z 28009KT 240V320 9999 FEW030 BKN045 12/06 Q1016;
0162068065999992010053109504+46967+008400FM-15+0450LSZC V0202001N004610135019N0112651N1+01401+00501999999ADDGA1021+009001999GA2071+013501999GF107991999999999999999999MA1101491999999MW1161REMMET071METAR LSZC 310950Z 20009KT 150V240 9999 VCSH FEW030 BKN045 14/05 Q1015;
0131068065999992010053111204+46967+008400FM-15+0450LSZC V0209999V002110135019N0112651N1+01601+00401999999ADDGA1071+013501999GF107991999999999999999999MA1101491999999MW1161REMMET056METAR LSZC 311120Z VRB04KT 9999 VCSH BKN045 16/04 Q1015;
0139068065999992010053111504+46967+008400FM-15+0450LSZC V0202401N003610135019N0112651N1+01401+00501999999ADDGA1071+013501999GF107991999999999999999999MA1101591999999MW1161REMMET064METAR LSZC 311150Z 24007KT 160V290 9999 VCSH BKN045 14/05 Q1016;
0120068065999992010053112204+46967+008400FM-15+0450LSZC V0209999V001510150019N0112651N1+01701+00501999999ADDGA1071+015001999GF107991999999999999999999MA1101491999999REMMET051METAR LSZC 311220Z VRB03KT 9999 BKN050 17/05 Q1015;
0128068065999992010053112504+46967+008400FM-15+0450LSZC V0202501N001510150019N0112651N1+01601+00701999999ADDGA1071+015001999GF107991999999999999999999MA1101491999999REMMET059METAR LSZC 311250Z 25003KT 220V290 9999 BKN050 16/07 Q1015;
0143068065999992010053113204+46967+008400FM-15+0450LSZC V0209999V001510180019N0112651N1+01601+00601999999ADDGA1041+015001999GA2071+018001999GF107991999999999999999999MA1101491999999REMMET058METAR LSZC 311320Z VRB03KT 9999 SCT058 BKN065 16/06 Q1015;
0151068065999992010053114204+46967+008400FM-15+0450LSZC V0203301N004110180019N0112651N1+01501+00501999999ADDGA1041+015001999GA2071+018001999GF107991999999999999999999MA1101491999999REMMET066METAR LSZC 311420Z 33008KT 290V030 9999 SCT058 BKN065 15/05 Q1015;
0143068065999992010053114504+46967+008400FM-15+0450LSZC V0209999V001510180019N0112651N1+01501+00601999999ADDGA1041+015001999GA2071+018001999GF107991999999999999999999MA1101591999999REMMET058METAR LSZC 311450Z VRB03KT 9999 SCT058 BKN065 15/06 Q1016;
0143068065999992010060105504+46967+008400FM-15+0450LSZC V0209999V001010180019N0112651N1+01101+00701999999ADDGA1021+012001999GA2071+018001999GF107991999999999999999999MA1101801999999REMMET058METAR LSZC 010550Z VRB02KT 9999 FEW040 BKN060 11/07 Q1018;
0143068065999992010060106204+46967+008400FM-15+0450LSZC V0209999V000510180019N0112651N1+01101+00601999999ADDGA1021+012001999GA2071+018001999GF107991999999999999999999MA1101801999999REMMET058METAR LSZC 010620Z VRB01KT 9999 FEW040 BKN063 11/06 Q1018;
0120068065999992010060106504+46967+008400FM-15+0450LSZC V0209999V001010180019N0112651N1+01101+00601999999ADDGA1081+018001999GF108991999999999999999999MA1101801999999REMMET051METAR LSZC 010650Z VRB02KT 9999 OVC062 11/06 Q1018;
0143068065999992010060107204+46967+008400FM-15+0450LSZC V0209999V000510180019N0112651N1+01201+00701999999ADDGA1021+012001999GA2081+018001999GF108991999999999999999999MA1101801999999REMMET058METAR LSZC 010720Z VRB01KT 9999 FEW040 OVC063 12/07 Q1018;
0143068065999992010060107504+46967+008400FM-15+0450LSZC V0209999V001510180019N0112651N1+01201+00701999999ADDGA1021+010501999GA2081+018001999GF108991999999999999999999MA1101801999999REMMET058METAR LSZC 010750Z VRB03KT 9999 FEW035 OVC068 12/07 Q1018;
0151068065999992010060108504+46967+008400FM-15+0450LSZC V0200701N002610180019N0112651N1+01201+00801999999ADDGA1021+010501999GA2081+018001999GF108991999999999999999999MA1101691999999REMMET066METAR LSZC 010850Z 07005KT 040V110 9999 FEW035 OVC068 12/08 Q1017;
0143068065999992010060109204+46967+008400FM-15+0450LSZC V0200701N003110180019N0112651N1+01201+00701999999ADDGA1021+010501999GA2081+018001999GF108991999999999999999999MA1101691999999REMMET058METAR LSZC 010920Z 07006KT 9999 FEW035 OVC068 12/07 Q1017;
0143068065999992010060109504+46967+008400FM-15+0450LSZC V0200701N003110180019N0112651N1+01301+00701999999ADDGA1021+010501999GA2071+018001999GF107991999999999999999999MA1101691999999REMMET058METAR LSZC 010950Z 07006KT 9999 FEW035 BKN068 13/07 Q1017;
0151068065999992010060111204+46967+008400FM-15+0450LSZC V0201001N003612200019N0112651N1+01501+00701999999ADDGA1021+012001999GA2041+021001999GF104991999999999999999999MA1101591999999REMMET066METAR LSZC 011120Z 10007KT 070V150 9999 FEW040 SCT070 15/07 Q1016;
0151068065999992010060111504+46967+008400FM-15+0450LSZC V0201001N003112200019N0112651N1+01601+00601999999ADDGA1021+012001999GA2041+021001999GF104991999999999999999999MA1101491999999REMMET066METAR LSZC 011150Z 10006KT 060V190 9999 FEW040 SCT070 16/06 Q1015;
0151068065999992010060113204+46967+008400FM-15+0450LSZC V0201101N002612200019N0112651N1+01701+00601999999ADDGA1021+012001999GA2041+021001999GF104991999999999999999999MA1101491999999REMMET066METAR LSZC 011320Z 11005KT 070V140 9999 FEW040 SCT070 17/06 Q1015;
0128068065999992010060113504+46967+008400FM-15+0450LSZC V0200901N002112200019N0112651N1+01701+00601999999ADDGA1041+013501999GF104991999999999999999999MA1101391999999REMMET059METAR LSZC 011350Z 09004KT 030V140 9999 SCT045 17/06 Q1014;
0143068065999992010060114204+46967+008400FM-15+0450LSZC V0209999V001010450019N0112651N1+01801+00501999999ADDGA1041+013501999GA2071+045001999GF107991999999999999999999MA1101391999999REMMET058METAR LSZC 011420Z VRB02KT 9999 SCT045 BKN150 18/05 Q1014;
0143068065999992010060114504+46967+008400FM-15+0450LSZC V0209999V001510450019N0112651N1+01701+00701999999ADDGA1041+013501999GA2071+045001999GF107991999999999999999999MA1101391999999REMMET058METAR LSZC 011450Z VRB03KT 9999 SCT045 BKN150 17/07 Q1014;
0161068065999992010060205204+46967+008400FM-15+0450LSZC V0202701N003110066019N0112651N1+01101+00801999999ADDGA1071+006601999GA2071+018001999GF107991999999999999999999MA1101491999999MW1611REMMET070METAR LSZC 020520Z 27006KT 230V300 9999 -RA BKN022 BKN060 11/08 Q1015;
0161068065999992010060205504+46967+008400FM-15+0450LSZC V0202601N002610066019N0112651N1+01101+00801999999ADDGA1071+006601999GA2071+018001999GF107991999999999999999999MA1101491999999MW1611REMMET070METAR LSZC 020550Z 26005KT 220V290 9999 -RA BKN022 BKN060 11/08 Q1015;
0176068065999992010060206204+46967+008400FM-15+0450LSZC V0202701N00311007801CN0112651N1+01101+00801999999ADDGA1021+003001999GA2041+007801999GA3081+012001999GF108991999999999999999999MA1101491999999MW1611REMMET069METAR LSZC 020620Z 27006KT 9999 -RA FEW010 SCT026 OVC040 11/08 Q1015;
0174068065999992010060206504+46967+008400FM-15+0450LSZC V0202601N00261007801CN0112651N1+01101+00801999999ADDGA1021+003001999GA2041+007801999GA3081+012001999GF108991999999999999999999MA1101491999999REMMET073METAR LSZC 020650Z 26005KT 220V290 9999 FEW010 SCT026 OVC040 11/08 Q1015;
0177068065999992010060207204+46967+008400FM-15+0450LSZC V0209999V00101007801CN0112651N1+01101+00801999999ADDGA1021+003001999GA2041+007801999GA3081+012001999GF108991999999999999999999MA1101491999999MW1811REMMET070METAR LSZC 020720Z VRB02KT 9999 SHRA FEW010 SCT026 OVC040 11/08 Q1015;
0177068065999992010060207504+46967+008400FM-15+0450LSZC V0209999V00051007801CN0112651N1+01101+00801999999ADDGA1021+003001999GA2041+007801999GA3081+012001999GF108991999999999999999999MA1101491999999MW1811REMMET070METAR LSZC 020750Z VRB01KT 9999 SHRA FEW010 SCT026 OVC040 11/08 Q1015;
0178068065999992010060208504+46967+008400FM-15+0450LSZC V0209999V00051007801CN0030001N1+01101+00901999999ADDGA1021+003001999GA2041+007801999GA3081+012001999GF108991999999999999999999MA1101591999999MW1821REMMET071METAR LSZC 020850Z VRB01KT 3000 +SHRA FEW010 SCT026 OVC040 11/09 Q1016;
0178068065999992010060209504+46967+008400FM-15+0450LSZC V0209999V00051007801CN0030001N1+01201+00901999999ADDGA1021+003001999GA2041+007801999GA3081+012001999GF108991999999999999999999MA1101591999999MW1821REMMET071METAR LSZC 020950Z VRB01KT 3000 +SHRA FEW010 SCT026 OVC040 12/09 Q1016;
0166068065999992010060211204+46967+008400FM-15+0450LSZC V0209999V00151007801CN0112651N1+01301+00901999999ADDGA1021+003001999GA2041+007801999GA3071+018001999GF107991999999999999999999MA1101591999999REMMET065METAR LSZC 021120Z VRB03KT 9999 FEW010 SCT026 BKN060 13/09 Q1016;
0177068065999992010060211504+46967+008400FM-15+0450LSZC V0209999V00151006001CN0070001N1+01201+00801999999ADDGA1021+003001999GA2041+006001999GA3081+015001999GF108991999999999999999999MA1101591999999MW1161REMMET070METAR LSZC 021150Z VRB03KT 7000 VCSH FEW010 SCT020 OVC050 12/08 Q1016;
0177068065999992010060212204+46967+008400FM-15+0450LSZC V0209999V00151006001CN0070001N1+01201+01001999999ADDGA1021+003001999GA2041+006001999GA3081+015001999GF108991999999999999999999MA1101591999999MW1161REMMET070METAR LSZC 021220Z VRB03KT 7000 VCSH FEW010 SCT020 OVC050 12/10 Q1016;
0177068065999992010060212504+46967+008400FM-15+0450LSZC V0200701N00151006001CN0070001N1+01201+01001999999ADDGA1021+003001999GA2041+006001999GA3081+015001999GF108991999999999999999999MA1101691999999MW1161REMMET070METAR LSZC 021250Z 07003KT 7000 VCSH FEW010 SCT020 OVC050 12/10 Q1017;
0177068065999992010060213204+46967+008400FM-15+0450LSZC V0200801N00101006001CN0070001N1+01201+01001999999ADDGA1021+003001999GA2041+006001999GA3081+015001999GF108991999999999999999999MA1101691999999MW1161REMMET070METAR LSZC 021320Z 08002KT 7000 VCSH FEW010 SCT020 OVC050 12/10 Q1017;
0177068065999992010060213504+46967+008400FM-15+0450LSZC V0209999V00101006001CN0070001N1+01301+01001999999ADDGA1021+003001999GA2041+006001999GA3081+015001999GF108991999999999999999999MA1101691999999MW1161REMMET070METAR LSZC 021350Z VRB02KT 7000 VCSH FEW010 SCT020 OVC050 13/10 Q1017;
0177068065999992010060214204+46967+008400FM-15+0450LSZC V0209999V00101006001CN0070001N1+01201+01001999999ADDGA1021+003001999GA2041+006001999GA3081+015001999GF108991999999999999999999MA1101691999999MW1161REMMET070METAR LSZC 021420Z VRB02KT 7000 VCSH FEW010 SCT020 OVC050 12/10 Q1017;
0143068065999992010060405504+46967+008400FM-15+0450LSZC V0209999V001010045019N0070001N1+01301+01101999999ADDGA1071+004501999GA2081+009001999GF108991999999999999999999MA1101801999999REMMET058METAR LSZC 040550Z VRB02KT 7000 BKN015 OVC030 13/11 Q1018;
0143068065999992010060406204+46967+008400FM-15+0450LSZC V0201101N001510045019N0070001N1+01301+01101999999ADDGA1071+004501999GA2081+009001999GF108991999999999999999999MA1101901999999REMMET058METAR LSZC 040620Z 11003KT 7000 BKN015 OVC030 13/11 Q1019;
0143068065999992010060406504+46967+008400FM-15+0450LSZC V0209999V001010045019N0070001N1+01401+01101999999ADDGA1071+004501999GA2071+009001999GF107991999999999999999999MA1101901999999REMMET058METAR LSZC 040650Z VRB02KT 7000 BKN015 BKN030 14/11 Q1019;
0151068065999992010060407204+46967+008400FM-15+0450LSZC V0200901N002110045019N0070001N1+01401+01101999999ADDGA1071+004501999GA2071+009001999GF107991999999999999999999MA1101901999999REMMET066METAR LSZC 040720Z 09004KT 060V140 7000 BKN015 BKN030 14/11 Q1019;
0143068065999992010060407504+46967+008400FM-15+0450LSZC V0209999V001010045019N0070001N1+01401+01101999999ADDGA1071+004501999GA2071+009001999GF107991999999999999999999MA1101901999999REMMET058METAR LSZC 040750Z VRB02KT 7000 BKN015 BKN030 14/11 Q1019;
0143068065999992010060408204+46967+008400FM-15+0450LSZC V0209999V001510090019N0070001N1+01501+01101999999ADDGA1021+004501999GA2071+009001999GF107991999999999999999999MA1101901999999REMMET058METAR LSZC 040820Z VRB03KT 7000 FEW015 BKN030 15/11 Q1019;
0128068065999992010060409204+46967+008400FM-15+0450LSZC V0201101N002112200019N0112651N1+01601+01101999999ADDGA1041+009001999GF104991999999999999999999MA1101901999999REMMET059METAR LSZC 040920Z 11004KT 070V150 9999 SCT030 16/11 Q1019;
0128068065999992010060409504+46967+008400FM-15+0450LSZC V0200901N001512200019N0112651N1+01701+01101999999ADDGA1041+009001999GF104991999999999999999999MA1101901999999REMMET059METAR LSZC 040950Z 09003KT 010V160 9999 SCT030 17/11 Q1019;
0128068065999992010060411204+46967+008400FM-15+0450LSZC V0202101N001512200019N0112651N1+01901+01201999999ADDGA1021+010501999GF102991999999999999999999MA1101901999999REMMET059METAR LSZC 041120Z 21003KT 150V280 9999 FEW035 19/12 Q1019;
0151068065999992010060412204+46967+008400FM-15+0450LSZC V0200701N002612200019N0112651N1+01901+01301999999ADDGA1021+010501999GA2041+013501999GF104991999999999999999999MA1101901999999REMMET066METAR LSZC 041220Z 07005KT 030V110 9999 FEW035 SCT045 19/13 Q1019;
0151068065999992010060412504+46967+008400FM-15+0450LSZC V0200601N002612200019N0112651N1+01901+01301999999ADDGA1021+010501999GA2041+013501999GF104991999999999999999999MA1101901999999REMMET066METAR LSZC 041250Z 06005KT 030V090 9999 FEW035 SCT045 19/13 Q1019;
0143068065999992010060413204+46967+008400FM-15+0450LSZC V0209999V001512200019N0112651N1+02101+01301999999ADDGA1021+010501999GA2041+013501999GF104991999999999999999999MA1101901999999REMMET058METAR LSZC 041320Z VRB03KT 9999 FEW035 SCT045 21/13 Q1019;
0143068065999992010060414204+46967+008400FM-15+0450LSZC V0209999V001012200019N0112651N1+02101+01401999999ADDGA1021+010501999GA2041+013501999GF104991999999999999999999MA1101801999999REMMET058METAR LSZC 041420Z VRB02KT 9999 FEW035 SCT045 21/14 Q1018;
0143068065999992010060414504+46967+008400FM-15+0450LSZC V0209999V001510135019N0112651N1+02101+01401999999ADDGA1021+010501999GA2071+013501999GF107991999999999999999999MA1101801999999REMMET058METAR LSZC 041450Z VRB03KT 9999 FEW035 BKN045 21/14 Q1018;
0166068065999992010060705504+46967+008400FM-15+0450LSZC V0209999V001510075019N0060001N1+01601+01501999999ADDGA1021+004501999GA2071+007501999GA3081+013501999GF108991999999999999999999MA1101591999999REMMET065METAR LSZC 070550Z VRB03KT 6000 FEW015 BKN025 OVC045 16/15 Q1016;
0166068065999992010060706204+46967+008400FM-15+0450LSZC V0209999V001010075019N0060001N1+01601+01501999999ADDGA1041+003001999GA2071+007501999GA3081+013501999GF108991999999999999999999MA1101591999999REMMET065METAR LSZC 070620Z VRB02KT 6000 SCT010 BKN025 OVC045 16/15 Q1016;
0174068065999992010060706504+46967+008400FM-15+0450LSZC V0200701N001510075019N0060001N1+01601+01501999999ADDGA1041+003001999GA2071+007501999GA3081+013501999GF108991999999999999999999MA1101591999999REMMET073METAR LSZC 070650Z 07003KT 020V100 6000 SCT010 BKN025 OVC045 16/15 Q1016;
0166068065999992010060707204+46967+008400FM-15+0450LSZC V0200601N001510075019N0060001N1+01601+01501999999ADDGA1041+003001999GA2071+007501999GA3081+013501999GF108991999999999999999999MA1101591999999REMMET065METAR LSZC 070720Z 06003KT 6000 SCT010 BKN025 OVC045 16/15 Q1016;
0166068065999992010060707504+46967+008400FM-15+0450LSZC V0200801N001510075019N0060001N1+01601+01501999999ADDGA1041+003001999GA2071+007501999GA3081+013501999GF108991999999999999999999MA1101591999999REMMET065METAR LSZC 070750Z 08003KT 6000 SCT010 BKN025 OVC045 16/15 Q1016;
0166068065999992010060708204+46967+008400FM-15+0450LSZC V0209999V00051003001CN0060001N1+01601+01501999999ADDGA1021+000901999GA2041+003001999GA3071+007801999GF107991999999999999999999MA1101591999999REMMET065METAR LSZC 070820Z VRB01KT 6000 FEW003 SCT010 BKN026 16/15 Q1016;
0166068065999992010060708504+46967+008400FM-15+0450LSZC V0209999V00051003601CN0060001N1+01801+01601999999ADDGA1021+001501999GA2041+003601999GA3071+010201999GF107991999999999999999999MA1101591999999REMMET065METAR LSZC 070850Z VRB01KT 6000 FEW005 SCT012 BKN034 18/16 Q1016;
0174068065999992010060709504+46967+008400FM-15+0450LSZC V0201001N00261003601CN0060001N1+01801+01501999999ADDGA1021+001501999GA2041+003601999GA3071+010201999GF107991999999999999999999MA1101591999999REMMET073METAR LSZC 070950Z 10005KT 050V140 6000 FEW005 SCT012 BKN034 18/15 Q1016;
0151068065999992010060808204+46967+008400FM-15+0450LSZC V0200901N002112200019N0112651N1+01901+01401999999ADDGA1021+015001999GA2041+060001999GF104991999999999999999999MA1101021999999REMMET066METAR LSZC 080820Z 09004KT 060V120 9999 FEW050 SCT200 19/14 Q1010;
0151068065999992010060808504+46967+008400FM-15+0450LSZC V0200601N002612200019N0112651N1+01901+01401999999ADDGA1021+015001999GA2041+060001999GF104991999999999999999999MA1101021999999REMMET066METAR LSZC 080850Z 06005KT 030V100 9999 FEW050 SCT200 19/14 Q1010;
0151068065999992010060809504+46967+008400FM-15+0450LSZC V0200701N001512200019N0112651N1+02001+01401999999ADDGA1021+015001999GA2041+060001999GF104991999999999999999999MA1101021999999REMMET066METAR LSZC 080950Z 07003KT 030V110 9999 FEW050 SCT200 20/14 Q1010;
0169068065999992010060813204+46967+008400FM-15+0450LSZC V0209999V00151021001CN0112651N1+02501+01301999999ADDGA1021+013501999GA2041+021001021GA3071+039001999GF107991999999999999999999MA1100811999999REMMET068METAR LSZC 081320Z VRB03KT 9999 FEW045 SCT073TCU BKN130 25/13 Q1008;
0177068065999992010060814204+46967+008400FM-15+0450LSZC V0203501N00261021001CN0112651N1+02501+01401999999ADDGA1021+013501999GA2041+021001021GA3071+039001999GF107991999999999999999999MA1100811999999REMMET076METAR LSZC 081420Z 35005KT 290V070 9999 FEW045 SCT073TCU BKN130 25/14 Q1008;
0169068065999992010060814504+46967+008400FM-15+0450LSZC V0209999V00261018001CN0112651N1+02401+01301999999ADDGA1021+013501999GA2041+018001021GA3071+033001999GF107991999999999999999999MA1100811999999REMMET068METAR LSZC 081450Z VRB05KT 9999 FEW045 SCT068TCU BKN110 24/13 Q1008;
0143068065999992010060906204+46967+008400FM-15+0450LSZC V0209999V001512200019N0112651N1+01801+01501999999ADDGA1021+007501999GA2041+033001999GF104991999999999999999999MA1100711999999REMMET058METAR LSZC 090620Z VRB03KT 9999 FEW025 SCT110 18/15 Q1007;
0151068065999992010060908204+46967+008400FM-15+0450LSZC V0200701N002112200019N0112651N1+02001+01601999999ADDGA1021+007501999GA2041+033001999GF104991999999999999999999MA1100711999999REMMET066METAR LSZC 090820Z 07004KT 040V110 9999 FEW025 SCT110 20/16 Q1007;
0143068065999992010060908504+46967+008400FM-15+0450LSZC V0209999V001512200019N0112651N1+02101+01601999999ADDGA1021+007501999GA2041+033001999GF104991999999999999999999MA1100711999999REMMET058METAR LSZC 090850Z VRB03KT 9999 FEW025 SCT110 21/16 Q1007;
0143068065999992010060909504+46967+008400FM-15+0450LSZC V0209999V001012200019N0112651N1+02301+01601999999ADDGA1021+012001999GA2041+075001999GF104991999999999999999999MA1100611999999REMMET058METAR LSZC 090950Z VRB02KT 9999 FEW040 SCT250 23/16 Q1006;
0143068065999992010060911204+46967+008400FM-15+0450LSZC V0209999V000512200019N0112651N1+02501+01501999999ADDGA1021+012001999GA2041+075001999GF104991999999999999999999MA1100611999999REMMET058METAR LSZC 091120Z VRB01KT 9999 FEW040 SCT250 25/15 Q1006;
0151068065999992010060913204+46967+008400FM-15+0450LSZC V0200801N003112200019N0112651N1+02701+01101999999ADDGA1021+012001999GA2041+054001999GF104991999999999999999999MA1100511999999REMMET066METAR LSZC 091320Z 08006KT 020V130 9999 FEW040 SCT180 27/11 Q1005;
0162068065999992010060913504+46967+008400FM-15+0450LSZC V0200801N006712200019N0112651N1+02701+00901999999ADDGA1021+012001999GA2041+054001999GF104991999999999999999999MA1100511999999OC101391REMMET069METAR LSZC 091350Z 08013G27KT 020V120 9999 FEW040 SCT180 27/09 Q1005;
0151068065999992010061005504+46967+008400FM-15+0450LSZC V0202501N002112200019N0112651N1+02001+01101999999ADDGA1021+024001999GA2041+030001999GF104991999999999999999999MA1100411999999REMMET066METAR LSZC 100550Z 25004KT 190V320 9999 FEW080 SCT100 20/11 Q1004;
0151068065999992010061006204+46967+008400FM-15+0450LSZC V0202501N002112200019N0112651N1+02001+01301999999ADDGA1021+024001999GA2041+030001999GF104991999999999999999999MA1100411999999REMMET066METAR LSZC 100620Z 25004KT 220V280 9999 FEW080 SCT100 20/13 Q1004;
0120068065999992010061007204+46967+008400FM-15+0450LSZC V0209999V001512200019N0112651N1+02301+01401999999ADDGA1021+033001999GF102991999999999999999999MA1100511999999REMMET051METAR LSZC 100720Z VRB03KT 9999 FEW110 23/14 Q1005;
0120068065999992010061007504+46967+008400FM-15+0450LSZC V0209999V001512200019N0112651N1+02401+01301999999ADDGA1021+033001999GF102991999999999999999999MA1100411999999REMMET051METAR LSZC 100750Z VRB03KT 9999 FEW110 24/13 Q1004;
0139068065999992010061008504+46967+008400FM-15+0450LSZC V0200801N007212200019N0112651N1+02501+01001999999ADDGA1021+033001999GF102991999999999999999999MA1100511999999OC101231REMMET062METAR LSZC 100850Z 08014G24KT 050V120 9999 FEW110 25/10 Q1005;
0128068065999992010061009204+46967+008400FM-15+0450LSZC V0200701N006712200019N0112651N1+02501+01101999999ADDGA1021+033001999GF102991999999999999999999MA1100511999999REMMET059METAR LSZC 100920Z 07013KT 020V110 9999 FEW110 25/11 Q1005;
0151068065999992010061011204+46967+008400FM-15+0450LSZC V0200801N005112200019N0112651N1+02701+00901999999ADDGA1021+027001999GA2041+033001999GF104991999999999999999999MA1100511999999REMMET066METAR LSZC 101120Z 08010KT 350V130 9999 FEW090 SCT110 27/09 Q1005;
0162068065999992010061011504+46967+008400FM-15+0450LSZC V0200701N008212200019N0112651N1+02701+01001999999ADDGA1021+027001999GA2041+033001999GF104991999999999999999999MA1100511999999OC101391REMMET069METAR LSZC 101150Z 07016G27KT 050V110 9999 FEW090 SCT110 27/10 Q1005;
0151068065999992010061012204+46967+008400FM-15+0450LSZC V0200701N009812200019N0112651N1+02601+01201999999ADDGA1021+027001999GA2041+033001999GF104991999999999999999999MA1100511999999REMMET066METAR LSZC 101220Z 07019KT 040V100 9999 FEW090 SCT110 26/12 Q1005;
0151068065999992010061012504+46967+008400FM-15+0450LSZC V0200901N007212200019N0112651N1+02701+01101999999ADDGA1021+027001999GA2041+033001999GF104991999999999999999999MA1100511999999REMMET066METAR LSZC 101250Z 09014KT 050V120 9999 FEW090 SCT110 27/11 Q1005;
0151068065999992010061013204+46967+008400FM-15+0450LSZC V0201001N007212200019N0112651N1+02801+01101999999ADDGA1021+027001999GA2041+033001999GF104991999999999999999999MA1100511999999REMMET066METAR LSZC 101320Z 10014KT 060V150 9999 FEW090 SCT110 28/11 Q1005;
0128068065999992010061013504+46967+008400FM-15+0450LSZC V0200901N007212200019N0112651N1+02801+01001999999ADDGA1021+027001999GF102991999999999999999999MA1100511999999REMMET059METAR LSZC 101350Z 09014KT 050V140 9999 FEW090 28/10 Q1005;
0128068065999992010061014204+46967+008400FM-15+0450LSZC V0200901N008212200019N0112651N1+02801+01001999999ADDGA1021+027001999GF102991999999999999999999MA1100511999999REMMET059METAR LSZC 101420Z 09016KT 050V130 9999 FEW090 28/10 Q1005;
0128068065999992010061014504+46967+008400FM-15+0450LSZC V0200901N006712200019N0112651N1+02701+01001999999ADDGA1021+027001999GF102991999999999999999999MA1100511999999REMMET059METAR LSZC 101450Z 09013KT 030V120 9999 FEW090 27/10 Q1005;
0120068065999992010061105504+46967+008400FM-15+0450LSZC V0209999V001010105019N0112651N1+02001+01601999999ADDGA1071+010501999GF107991999999999999999999MA1101021999999REMMET051METAR LSZC 110550Z VRB02KT 9999 BKN035 20/16 Q1010;
0120068065999992010061106204+46967+008400FM-15+0450LSZC V0209999V001010105019N0112651N1+01901+01601999999ADDGA1071+010501999GF107991999999999999999999MA1101021999999REMMET051METAR LSZC 110620Z VRB02KT 9999 BKN035 19/16 Q1010;
0120068065999992010061106504+46967+008400FM-15+0450LSZC V0209999V001010105019N0112651N1+02001+01601999999ADDGA1071+010501999GF107991999999999999999999MA1101081999999REMMET051METAR LSZC 110650Z VRB02KT 9999 BKN035 20/16 Q1011;
0143068065999992010061107504+46967+008400FM-15+0450LSZC V0209999V001010105019N0112651N1+02101+01501999999ADDGA1041+007501999GA2071+010501999GF107991999999999999999999MA1101081999999REMMET058METAR LSZC 110750Z VRB02KT 9999 SCT025 BKN035 21/15 Q1011;
0143068065999992010061108504+46967+008400FM-15+0450LSZC V0209999V001010105019N0112651N1+02101+01501999999ADDGA1041+007501999GA2071+010501999GF107991999999999999999999MA1101081999999REMMET058METAR LSZC 110850Z VRB02KT 9999 SCT025 BKN035 21/15 Q1011;
0120068065999992010061109204+46967+008400FM-15+0450LSZC V0209999V001010075019N0112651N1+02201+01501999999ADDGA1071+007501999GF107991999999999999999999MA1101081999999REMMET051METAR LSZC 110920Z VRB02KT 9999 BKN025 22/15 Q1011;
0128068065999992010061111204+46967+008400FM-15+0450LSZC V0203201N005112200019N0112651N1+02201+01501999999ADDGA1041+009001999GF104991999999999999999999MA1101021999999REMMET059METAR LSZC 111120Z 32010KT 280V010 9999 SCT030 22/15 Q1010;
0128068065999992010061111504+46967+008400FM-15+0450LSZC V0203101N003612200019N0112651N1+02301+01501999999ADDGA1041+009001999GF104991999999999999999999MA1101021999999REMMET059METAR LSZC 111150Z 31007KT 260V020 9999 SCT030 23/15 Q1010;
0139068065999992010061112504+46967+008400FM-15+0450LSZC V0203501N002112200019N0112651N1+02501+01501999999ADDGA1041+012001999GF104991999999999999999999MA1101021999999OC101031REMMET062METAR LSZC 111250Z 35004G20KT 290V050 9999 SCT040 25/15 Q1010;
0176068065999992010061405504+46967+008400FM-15+0450LSZC V0209999V00051003601CN0080001N1+01401+01301999999ADDGA1021+001501999GA2041+003601999GA3081+015001999GF108991999999999999999999MA1101391999999MW1611REMMET069METAR LSZC 140550Z VRB01KT 8000 -RA FEW005 SCT012 OVC055 14/13 Q1014;
0184068065999992010061406204+46967+008400FM-15+0450LSZC V0200801N00151003601CN0080001N1+01401+01201999999ADDGA1021+001501999GA2041+003601999GA3081+015001999GF108991999999999999999999MA1101391999999MW1611REMMET077METAR LSZC 140620Z 08003KT 050V120 8000 -RA FEW005 SCT012 OVC055 14/12 Q1014;
0161068065999992010061407504+46967+008400FM-15+0450LSZC V0200801N001510180019N0112651N1+01501+01301999999ADDGA1041+003001999GA2071+018001999GF107991999999999999999999MA1101391999999MW1611REMMET070METAR LSZC 140750Z 08003KT 030V110 9999 -RA SCT010 BKN060 15/13 Q1014;
0151068065999992010061411204+46967+008400FM-15+0450LSZC V0200401N002610270019N0112651N1+01801+01301999999ADDGA1041+018001999GA2071+027001999GF107991999999999999999999MA1101391999999REMMET066METAR LSZC 141120Z 04005KT 350V090 9999 SCT060 BKN090 18/13 Q1014;
0143068065999992010061413204+46967+008400FM-15+0450LSZC V0200501N003610270019N0112651N1+01901+01201999999ADDGA1041+018001999GA2071+027001999GF107991999999999999999999MA1101291999999REMMET058METAR LSZC 141320Z 05007KT 9999 SCT060 BKN090 19/12 Q1013;
0129068065999992010061505504+46967+008400FM-15+0450LSZC V0209999V001010069019N0060001N1+01601+01201999999ADDGA1081+006901999GF108991999999999999999999MA1101391999999MW1101REMMET054METAR LSZC 150550Z VRB02KT 6000 BR OVC023 16/12 Q1014;
0129068065999992010061506204+46967+008400FM-15+0450LSZC V0209999V000510069019N0060001N1+01601+01201999999ADDGA1081+006901999GF108991999999999999999999MA1101491999999MW1101REMMET054METAR LSZC 150620Z VRB01KT 6000 BR OVC023 16/12 Q1015;
0120068065999992010061506504+46967+008400FM-15+0450LSZC V0209999V001010069019N0060001N1+01601+01201999999ADDGA1081+006901999GF108991999999999999999999MA1101491999999REMMET051METAR LSZC 150650Z VRB02KT 6000 OVC023 16/12 Q1015;
0120068065999992010061507204+46967+008400FM-15+0450LSZC V0209999V000510069019N0060001N1+01601+01301999999ADDGA1081+006901999GF108991999999999999999999MA1101491999999REMMET051METAR LSZC 150720Z VRB01KT 6000 OVC023 16/13 Q1015;
0120068065999992010061507504+46967+008400FM-15+0450LSZC V0209999V001510069019N0060001N1+01601+01201999999ADDGA1081+006901999GF108991999999999999999999MA1101491999999REMMET051METAR LSZC 150750Z VRB03KT 6000 OVC023 16/12 Q1015;
0120068065999992010061508204+46967+008400FM-15+0450LSZC V0209999V001010069019N0050001N1+01601+01201999999ADDGA1081+006901999GF108991999999999999999999MA1101491999999REMMET051METAR LSZC 150820Z VRB02KT 5000 OVC023 16/12 Q1015;
0128068065999992010061512204+46967+008400FM-15+0450LSZC V0203301N002610075019N0050001N1+01901+01301999999ADDGA1081+007501999GF108991999999999999999999MA1101391999999REMMET059METAR LSZC 151220Z 33005KT 240V040 5000 OVC025 19/13 Q1014;
0120068065999992010061512504+46967+008400FM-15+0450LSZC V0209999V001510075019N0050001N1+01901+01401999999ADDGA1081+007501999GF108991999999999999999999MA1101391999999REMMET051METAR LSZC 151250Z VRB03KT 5000 OVC025 19/14 Q1014;
0128068065999992010061513504+46967+008400FM-15+0450LSZC V0202001N002110075019N0050001N1+01901+01401999999ADDGA1081+007501999GF108991999999999999999999MA1101391999999REMMET059METAR LSZC 151350Z 20004KT 150V250 5000 OVC025 19/14 Q1014;
0120068065999992010061605504+46967+008400FM-15+0450LSZC V0209999V001510075019N0070001N1+01701+01401999999ADDGA1081+007501999GF108991999999999999999999MA1100911999999REMMET051METAR LSZC 160550Z VRB03KT 7000 OVC025 17/14 Q1009;
0120068065999992010061606204+46967+008400FM-15+0450LSZC V0209999V001510075019N0070001N1+01701+01401999999ADDGA1081+007501999GF108991999999999999999999MA1100911999999REMMET051METAR LSZC 160620Z VRB03KT 7000 OVC025 17/14 Q1009;
0120068065999992010061606504+46967+008400FM-15+0450LSZC V0202201N001510075019N0070001N1+01701+01401999999ADDGA1081+007501999GF108991999999999999999999MA1100911999999REMMET051METAR LSZC 160650Z 22003KT 7000 OVC025 17/14 Q1009;
0120068065999992010061607204+46967+008400FM-15+0450LSZC V0209999V001510075019N0070001N1+01801+01301999999ADDGA1081+007501999GF108991999999999999999999MA1100911999999REMMET051METAR LSZC 160720Z VRB03KT 7000 OVC025 18/13 Q1009;
0128068065999992010061607504+46967+008400FM-15+0450LSZC V0201701N002110075019N0070001N1+01701+01401999999ADDGA1081+007501999GF108991999999999999999999MA1100911999999REMMET059METAR LSZC 160750Z 17004KT 110V210 7000 OVC025 17/14 Q1009;
0120068065999992010061608204+46967+008400FM-15+0450LSZC V0209999V001510060019N0070001N1+01701+01401999999ADDGA1081+006001999GF108991999999999999999999MA1100911999999REMMET051METAR LSZC 160820Z VRB03KT 7000 OVC020 17/14 Q1009;
0128068065999992010061608504+46967+008400FM-15+0450LSZC V0201301N001510060019N0070001N1+01701+01401999999ADDGA1081+006001999GF108991999999999999999999MA1101021999999REMMET059METAR LSZC 160850Z 13003KT 040V210 7000 OVC020 17/14 Q1010;
0120068065999992010061609204+46967+008400FM-15+0450LSZC V0209999V001510060019N0070001N1+01701+01301999999ADDGA1081+006001999GF108991999999999999999999MA1101021999999REMMET051METAR LSZC 160920Z VRB03KT 7000 OVC020 17/13 Q1010;
0120068065999992010061609504+46967+008400FM-15+0450LSZC V0209999V001010060019N0070001N1+01601+01301999999ADDGA1081+006001999GF108991999999999999999999MA1101021999999REMMET051METAR LSZC 160950Z VRB02KT 7000 OVC020 16/13 Q1010;
0138068065999992010061611204+46967+008400FM-15+0450LSZC V0203001N003110060019N0060001N1+01601+01301999999ADDGA1081+006001999GF108991999999999999999999MA1101081999999MW1611REMMET063METAR LSZC 161120Z 30006KT 240V340 6000 -RA OVC020 16/13 Q1011;
0138068065999992010061612204+46967+008400FM-15+0450LSZC V0203101N004610060019N0060001N1+01601+01301999999ADDGA1081+006001999GF108991999999999999999999MA1101191999999MW1611REMMET063METAR LSZC 161220Z 31009KT 270V360 6000 -RA OVC020 16/13 Q1012;
0130068065999992010061612504+46967+008400FM-15+0450LSZC V0209999V001510060019N0060001N1+01601+01301999999ADDGA1081+006001999GF108991999999999999999999MA1101191999999MW1611REMMET055METAR LSZC 161250Z VRB03KT 6000 -RA OVC020 16/13 Q1012;
0138068065999992010061613204+46967+008400FM-15+0450LSZC V0202701N002610060019N0060001N1+01601+01301999999ADDGA1081+006001999GF108991999999999999999999MA1101191999999MW1611REMMET063METAR LSZC 161320Z 27005KT 210V340 6000 -RA OVC020 16/13 Q1012;
0138068065999992010061705504+46967+008400FM-15+0450LSZC V0202301N001510060019N0060001N1+01401+01301999999ADDGA1081+006001999GF108991999999999999999999MA1101291999999MW1611REMMET063METAR LSZC 170550Z 23003KT 190V260 6000 -RA OVC020 14/13 Q1013;
0120068065999992010061706204+46967+008400FM-15+0450LSZC V0209999V000510180019N0060001N1+01501+01301999999ADDGA1071+018001999GF107991999999999999999999MA1101291999999REMMET051METAR LSZC 170620Z VRB01KT 6000 BKN060 15/13 Q1013;
0143068065999992010061706504+46967+008400FM-15+0450LSZC V0209999V000510180019N0060001N1+01501+01301999999ADDGA1021+001801999GA2071+018001999GF107991999999999999999999MA1101291999999REMMET058METAR LSZC 170650Z VRB01KT 6000 FEW006 BKN060 15/13 Q1013;
0143068065999992010061707204+46967+008400FM-15+0450LSZC V0209999V000510180019N0060001N1+01601+01301999999ADDGA1021+001801999GA2071+018001999GF107991999999999999999999MA1101291999999REMMET058METAR LSZC 170720Z VRB01KT 6000 FEW006 BKN060 16/13 Q1013;
0151068065999992010061707504+46967+008400FM-15+0450LSZC V0200901N002110018019N0060001N1+01601+01301999999ADDGA1071+001801999GA2071+018001999GF107991999999999999999999MA1101291999999REMMET066METAR LSZC 170750Z 09004KT 050V130 6000 BKN006 BKN060 16/13 Q1013;
0128068065999992010061708204+46967+008400FM-15+0450LSZC V0201001N002110036019N0070001N1+01701+01301999999ADDGA1071+003601999GF107991999999999999999999MA1101291999999REMMET059METAR LSZC 170820Z 10004KT 050V150 7000 BKN012 17/13 Q1013;
0120068065999992010061709204+46967+008400FM-15+0450LSZC V0209999V001510036019N0070001N1+01701+01201999999ADDGA1071+003601999GF107991999999999999999999MA1101291999999REMMET051METAR LSZC 170920Z VRB03KT 7000 BKN012 17/12 Q1013;
0128068065999992010061709504+46967+008400FM-15+0450LSZC V0201101N002610036019N0070001N1+01701+01301999999ADDGA1071+003601999GF107991999999999999999999MA1101291999999REMMET059METAR LSZC 170950Z 11005KT 070V140 7000 BKN012 17/13 Q1013;
0151068065999992010061711204+46967+008400FM-15+0450LSZC V0201601N002110060019N0080001N1+01801+01301999999ADDGA1071+006001999GA2071+018001999GF107991999999999999999999MA1101291999999REMMET066METAR LSZC 171120Z 16004KT 100V200 8000 BKN020 BKN060 18/13 Q1013;
0151068065999992010061711504+46967+008400FM-15+0450LSZC V0202001N002110060019N0080001N1+01801+01301999999ADDGA1071+006001999GA2071+018001999GF107991999999999999999999MA1101291999999REMMET066METAR LSZC 171150Z 20004KT 170V240 8000 BKN020 BKN060 18/13 Q1013;
0143068065999992010061712204+46967+008400FM-15+0450LSZC V0209999V001510060019N0080001N1+01801+01401999999ADDGA1071+006001999GA2071+018001999GF107991999999999999999999MA1101291999999REMMET058METAR LSZC 171220Z VRB03KT 8000 BKN020 BKN060 18/14 Q1013;
0128068065999992010061713204+46967+008400FM-15+0450LSZC V0203101N002610090019N0080001N1+01801+01301999999ADDGA1071+009001999GF107991999999999999999999MA1101291999999REMMET059METAR LSZC 171320Z 31005KT 270V350 8000 BKN030 18/13 Q1013;
0120068065999992010061714504+46967+008400FM-15+0450LSZC V0200501N002110090019N0080001N1+01701+01301999999ADDGA1071+009001999GF107991999999999999999999MA1101291999999REMMET051METAR LSZC 171450Z 05004KT 8000 BKN030 17/13 Q1013;
0153068065999992010061806204+46967+008400FM-15+0450LSZC V0209999C000010135019N0112651N1+01301+01101999999ADDGA1041+002401999GA2081+013501999GF108991999999999999999999MA1101391999999MW1611REMMET062METAR LSZC 180620Z 00000KT 9999 -RA SCT008 OVC045 13/11 Q1014;
0153068065999992010061806504+46967+008400FM-15+0450LSZC V0209999V001010135019N0112651N1+01301+01201999999ADDGA1041+002401999GA2081+013501999GF108991999999999999999999MA1101391999999MW1611REMMET062METAR LSZC 180650Z VRB02KT 9999 -RA SCT008 OVC045 13/12 Q1014;
0153068065999992010061807204+46967+008400FM-15+0450LSZC V0200501N001010135019N0112651N1+01301+01201999999ADDGA1041+002401999GA2081+013501999GF108991999999999999999999MA1101391999999MW1611REMMET062METAR LSZC 180720Z 05002KT 9999 -RA SCT008 OVC045 13/12 Q1014;
0161068065999992010061808204+46967+008400FM-15+0450LSZC V0200601N001510135019N0112651N1+01301+01201999999ADDGA1041+002401999GA2081+013501999GF108991999999999999999999MA1101391999999MW1611REMMET070METAR LSZC 180820Z 06003KT 360V090 9999 -RA SCT008 OVC045 13/12 Q1014;
0153068065999992010061808504+46967+008400FM-15+0450LSZC V0209999V001510135019N0112651N1+01301+01201999999ADDGA1041+002401999GA2081+013501999GF108991999999999999999999MA1101391999999MW1611REMMET062METAR LSZC 180850Z VRB03KT 9999 -RA SCT008 OVC045 13/12 Q1014;
0161068065999992010061809204+46967+008400FM-15+0450LSZC V0200601N002110135019N0112651N1+01401+01201999999ADDGA1041+002401999GA2081+013501999GF108991999999999999999999MA1101391999999MW1611REMMET070METAR LSZC 180920Z 06004KT 030V110 9999 -RA SCT008 OVC045 14/12 Q1014;
0152068065999992010061811204+46967+008400FM-15+0450LSZC V0200501N002110135019N0080001N1+01401+01101999999ADDGA1041+002401999GA2081+013501999GF108991999999999999999999MA1101391999999MW1631REMMET061METAR LSZC 181120Z 05004KT 8000 RA SCT008 OVC045 14/11 Q1014;
0152068065999992010061811504+46967+008400FM-15+0450LSZC V0200601N002110135019N0080001N1+01401+01201999999ADDGA1041+002401999GA2081+013501999GF108991999999999999999999MA1101391999999MW1631REMMET061METAR LSZC 181150Z 06004KT 8000 RA SCT008 OVC045 14/12 Q1014;
0160068065999992010061812204+46967+008400FM-15+0450LSZC V0200701N001510135019N0060001N1+01401+01201999999ADDGA1041+002401999GA2081+013501999GF108991999999999999999999MA1101391999999MW1631REMMET069METAR LSZC 181220Z 07003KT 030V110 6000 RA SCT008 OVC045 14/12 Q1014;
0160068065999992010061812504+46967+008400FM-15+0450LSZC V0200801N001510135019N0060001N1+01401+01201999999ADDGA1041+002401999GA2081+013501999GF108991999999999999999999MA1101391999999MW1631REMMET069METAR LSZC 181250Z 08003KT 040V100 6000 RA SCT008 OVC045 14/12 Q1014;
0152068065999992010061813204+46967+008400FM-15+0450LSZC V0200601N002110135019N0060001N1+01401+01201999999ADDGA1041+002401999GA2081+013501999GF108991999999999999999999MA1101391999999MW1631REMMET061METAR LSZC 181320Z 06004KT 6000 RA SCT008 OVC045 14/12 Q1014;
0152068065999992010061814204+46967+008400FM-15+0450LSZC V0209999V000510135019N0060001N1+01401+01201999999ADDGA1041+002401999GA2081+013501999GF108991999999999999999999MA1101391999999MW1631REMMET061METAR LSZC 181420Z VRB01KT 6000 RA SCT008 OVC045 14/12 Q1014;
0152068065999992010062105504+46967+008400FM-15+0450LSZC V0209999V000510105019N0040001N1+01001+00901999999ADDGA1041+003901999GA2081+010501999GF108991999999999999999999MA1101691999999MW1101REMMET061METAR LSZC 210550Z VRB01KT 4000 BR SCT013 OVC035 10/09 Q1017;
0162068065999992010062106204+46967+008400FM-15+0450LSZC V0203001N000510105019N0040001N1+01001+00901999999ADDGA1041+003901999GA2081+010501999GF108991999999999999999999MA1101691999999MW1101MW2511REMMET065METAR LSZC 210620Z 30001KT 4000 -DZ BR SCT013 OVC035 10/09 Q1017;
0162068065999992010062106504+46967+008400FM-15+0450LSZC V0202601N001010105019N0040001N1+01001+00901999999ADDGA1041+003901999GA2081+010501999GF108991999999999999999999MA1101691999999MW1101MW2511REMMET065METAR LSZC 210650Z 26002KT 4000 -DZ BR SCT013 OVC035 10/09 Q1017;
0162068065999992010062107204+46967+008400FM-15+0450LSZC V0202801N001010105019N0040001N1+01001+00901999999ADDGA1041+003901999GA2081+010501999GF108991999999999999999999MA1101691999999MW1101MW2511REMMET065METAR LSZC 210720Z 28002KT 4000 -DZ BR SCT013 OVC035 10/09 Q1017;
0162068065999992010062108204+46967+008400FM-15+0450LSZC V0202301N001010105019N0040001N1+01101+00901999999ADDGA1041+003901999GA2081+010501999GF108991999999999999999999MA1101691999999MW1101MW2511REMMET065METAR LSZC 210820Z 23002KT 4000 -DZ BR SCT013 OVC035 11/09 Q1017;
0162068065999992010062108504+46967+008400FM-15+0450LSZC V0209999V000510105019N0040001N1+01101+00901999999ADDGA1041+003901999GA2081+010501999GF108991999999999999999999MA1101691999999MW1101MW2511REMMET065METAR LSZC 210850Z VRB01KT 4000 -DZ BR SCT013 OVC035 11/09 Q1017;
0162068065999992010062109204+46967+008400FM-15+0450LSZC V0209999V001010105019N0040001N1+01101+00901999999ADDGA1041+003901999GA2081+010501999GF108991999999999999999999MA1101801999999MW1101MW2511REMMET065METAR LSZC 210920Z VRB02KT 4000 -DZ BR SCT013 OVC035 11/09 Q1018;
0162068065999992010062109504+46967+008400FM-15+0450LSZC V0209999V000510105019N0040001N1+01101+00901999999ADDGA1041+003901999GA2081+010501999GF108991999999999999999999MA1101801999999MW1101MW2511REMMET065METAR LSZC 210950Z VRB01KT 4000 -DZ BR SCT013 OVC035 11/09 Q1018;
0143068065999992010062111204+46967+008400FM-15+0450LSZC V0209999V001010108019N0080001N1+01201+00901999999ADDGA1041+005401999GA2081+010801999GF108991999999999999999999MA1101801999999REMMET058METAR LSZC 211120Z VRB02KT 8000 SCT018 OVC036 12/09 Q1018;
0143068065999992010062111504+46967+008400FM-15+0450LSZC V0209999V000510108019N0080001N1+01201+00801999999ADDGA1041+005401999GA2081+010801999GF108991999999999999999999MA1101801999999REMMET058METAR LSZC 211150Z VRB01KT 8000 SCT018 OVC036 12/08 Q1018;
0143068065999992010062112204+46967+008400FM-15+0450LSZC V0209999V001010108019N0080001N1+01201+00901999999ADDGA1041+005401999GA2081+010801999GF108991999999999999999999MA1101801999999REMMET058METAR LSZC 211220Z VRB02KT 8000 SCT018 OVC036 12/09 Q1018;
0143068065999992010062112504+46967+008400FM-15+0450LSZC V0209999V000510117019N0080001N1+01301+00901999999ADDGA1041+005401999GA2081+011701999GF108991999999999999999999MA1101801999999REMMET058METAR LSZC 211250Z VRB01KT 8000 SCT018 OVC039 13/09 Q1018;
0143068065999992010062113204+46967+008400FM-15+0450LSZC V0209999V001010117019N0080001N1+01201+00901999999ADDGA1041+005401999GA2081+011701999GF108991999999999999999999MA1101801999999REMMET058METAR LSZC 211320Z VRB02KT 8000 SCT018 OVC039 12/09 Q1018;
0143068065999992010062113504+46967+008400FM-15+0450LSZC V0209999V001510117019N0080001N1+01301+00901999999ADDGA1041+005401999GA2081+011701999GF108991999999999999999999MA1101801999999REMMET058METAR LSZC 211350Z VRB03KT 8000 SCT018 OVC039 13/09 Q1018;
0143068065999992010062114204+46967+008400FM-15+0450LSZC V0209999V001010117019N0080001N1+01301+00801999999ADDGA1041+005401999GA2081+011701999GF108991999999999999999999MA1101801999999REMMET058METAR LSZC 211420Z VRB02KT 8000 SCT018 OVC039 13/08 Q1018;
0143068065999992010062205504+46967+008400FM-15+0450LSZC V0202801N000510240019N0080001N1+01101+00901999999ADDGA1041+005401999GA2071+024001999GF107991999999999999999999MA1102101999999REMMET058METAR LSZC 220550Z 28001KT 8000 SCT018 BKN084 11/09 Q1021;
0143068065999992010062206204+46967+008400FM-15+0450LSZC V0209999C000010240019N0080001N1+01201+00901999999ADDGA1041+005101999GA2071+024001999GF107991999999999999999999MA1102101999999REMMET058METAR LSZC 220620Z 00000KT 8000 SCT017 BKN085 12/09 Q1021;
0143068065999992010062206504+46967+008400FM-15+0450LSZC V0209999V001010240019N0080001N1+01201+00801999999ADDGA1041+005101999GA2071+024001999GF107991999999999999999999MA1102101999999REMMET058METAR LSZC 220650Z VRB02KT 8000 SCT017 BKN085 12/08 Q1021;
0143068065999992010062207504+46967+008400FM-15+0450LSZC V0209999V001512200019N0080001N1+01401+00901999999ADDGA1041+006001999GA2041+013501999GF104991999999999999999999MA1102101999999REMMET058METAR LSZC 220750Z VRB03KT 8000 SCT020 SCT045 14/09 Q1021;
0143068065999992010062209204+46967+008400FM-15+0450LSZC V0209999V002612200019N0090001N1+01501+00901999999ADDGA1041+006001999GA2041+013501999GF104991999999999999999999MA1102101999999REMMET058METAR LSZC 220920Z VRB05KT 9000 SCT020 SCT045 15/09 Q1021;
0143068065999992010062209504+46967+008400FM-15+0450LSZC V0209999V002112200019N0090001N1+01601+01001999999ADDGA1041+006001999GA2041+012301999GF104991999999999999999999MA1102101999999REMMET058METAR LSZC 220950Z VRB04KT 9000 SCT020 SCT041 16/10 Q1021;
0151068065999992010062212204+46967+008400FM-15+0450LSZC V0200801N002610240019N0112651N1+01601+00901999999ADDGA1041+012001999GA2071+024001999GF107991999999999999999999MA1102101999999REMMET066METAR LSZC 221220Z 08005KT 030V120 9999 SCT040 BKN080 16/09 Q1021;
0143068065999992010062212504+46967+008400FM-15+0450LSZC V0201101N001510240019N0112651N1+01601+00901999999ADDGA1041+012001999GA2071+024001999GF107991999999999999999999MA1102101999999REMMET058METAR LSZC 221250Z 11003KT 9999 SCT040 BKN080 16/09 Q1021;
0143068065999992010062213204+46967+008400FM-15+0450LSZC V0209999V001510240019N0112651N1+01701+00801999999ADDGA1041+012001999GA2071+024001999GF107991999999999999999999MA1102101999999REMMET058METAR LSZC 221320Z VRB03KT 9999 SCT040 BKN080 17/08 Q1021;
0151068065999992010062213504+46967+008400FM-15+0450LSZC V0200601N002610240019N0112651N1+01601+00901999999ADDGA1041+012001999GA2071+024001999GF107991999999999999999999MA1102101999999REMMET066METAR LSZC 221350Z 06005KT 360V110 9999 SCT040 BKN080 16/09 Q1021;
0120068065999992010062306204+46967+008400FM-15+0450LSZC V0209999V000512200019N0112651N1+01301+00901999999ADDGA1021+003001999GF102991999999999999999999MA1102101999999REMMET051METAR LSZC 230620Z VRB01KT 9999 FEW010 13/09 Q1021;
0120068065999992010062306504+46967+008400FM-15+0450LSZC V0209999V000512200019N0112651N1+01401+00901999999ADDGA1021+003001999GF102991999999999999999999MA1102101999999REMMET051METAR LSZC 230650Z VRB01KT 9999 FEW010 14/09 Q1021;
0120068065999992010062307504+46967+008400FM-15+0450LSZC V0209999V001012200019N0112651N1+01401+00901999999ADDGA1021+012001999GF102991999999999999999999MA1102101999999REMMET051METAR LSZC 230750Z VRB02KT 9999 FEW040 14/09 Q1021;
0128068065999992010062308204+46967+008400FM-15+0450LSZC V0200501N002112200019N0112651N1+01501+01001999999ADDGA1021+018001999GF102991999999999999999999MA1102101999999REMMET059METAR LSZC 230820Z 05004KT 360V120 9999 FEW065 15/10 Q1021;
0128068065999992010062309204+46967+008400FM-15+0450LSZC V0200601N002112200019N0112651N1+01601+01001999999ADDGA1021+018001999GF102991999999999999999999MA1102101999999REMMET059METAR LSZC 230920Z 06004KT 030V110 9999 FEW065 16/10 Q1021;
0128068065999992010062311504+46967+008400FM-15+0450LSZC V0200801N002612200019N0112651N1+01901+01201999999ADDGA1021+018001999GF102991999999999999999999MA1102001999999REMMET059METAR LSZC 231150Z 08005KT 030V160 9999 FEW065 19/12 Q1020;
0128068065999992010062312504+46967+008400FM-15+0450LSZC V0200601N002112200019N0112651N1+01901+01101999999ADDGA1021+018001999GF102991999999999999999999MA1102001999999REMMET059METAR LSZC 231250Z 06004KT 360V100 9999 FEW065 19/11 Q1020;
0128068065999992010062313204+46967+008400FM-15+0450LSZC V0200701N002612200019N0112651N1+02101+01001999999ADDGA1041+015001999GF104991999999999999999999MA1102001999999REMMET059METAR LSZC 231320Z 07005KT 020V120 9999 SCT050 21/10 Q1020;
0128068065999992010062313504+46967+008400FM-15+0450LSZC V0200901N002612200019N0112651N1+02101+00901999999ADDGA1041+015001999GF104991999999999999999999MA1102001999999REMMET059METAR LSZC 231350Z 09005KT 040V140 9999 SCT050 21/09 Q1020;
0120068065999992010062314204+46967+008400FM-15+0450LSZC V0209999V001512200019N0112651N1+02301+00901999999ADDGA1041+015001999GF104991999999999999999999MA1101901999999REMMET051METAR LSZC 231420Z VRB03KT 9999 SCT050 23/09 Q1019;
0128068065999992010062314504+46967+008400FM-15+0450LSZC V0200301N003112200019N0112651N1+02101+00801999999ADDGA1041+015001999GF104991999999999999999999MA1101901999999REMMET059METAR LSZC 231450Z 03006KT 320V080 9999 SCT050 21/08 Q1019;
0080068065999992010062407204+46967+008400FM-15+0450LSZC V0200701N001519999999Y0099001N1+01601+01001999999ADDMA1101901999999REMMET053METAR LSZC 240720Z 07003KT 010V140 CAVOK 16/10 Q1019;
0080068065999992010062407504+46967+008400FM-15+0450LSZC V0200901N001519999999Y0099001N1+01601+01101999999ADDMA1101901999999REMMET053METAR LSZC 240750Z 09003KT 050V140 CAVOK 16/11 Q1019;
0080068065999992010062408204+46967+008400FM-15+0450LSZC V0200401N002119999999Y0099001N1+01701+01101999999ADDMA1101901999999REMMET053METAR LSZC 240820Z 04004KT 350V080 CAVOK 17/11 Q1019;
0080068065999992010062408504+46967+008400FM-15+0450LSZC V0200701N002119999999Y0099001N1+01701+01201999999ADDMA1101901999999REMMET053METAR LSZC 240850Z 07004KT 030V110 CAVOK 17/12 Q1019;
0080068065999992010062409204+46967+008400FM-15+0450LSZC V0200601N002119999999Y0099001N1+01801+01201999999ADDMA1101901999999REMMET053METAR LSZC 240920Z 06004KT 010V090 CAVOK 18/12 Q1019;
0128068065999992010062411204+46967+008400FM-15+0450LSZC V0201201N002112200019N0112651N1+02101+01101999999ADDGA1021+015001999GF102991999999999999999999MA1101801999999REMMET059METAR LSZC 241120Z 12004KT 070V220 9999 FEW050 21/11 Q1018;
0120068065999992010062411504+46967+008400FM-15+0450LSZC V0209999V001512200019N0112651N1+02301+01201999999ADDGA1021+015001999GF102991999999999999999999MA1101801999999REMMET051METAR LSZC 241150Z VRB03KT 9999 FEW050 23/12 Q1018;
0128068065999992010062412504+46967+008400FM-15+0450LSZC V0203101N002612200019N0112651N1+02301+01101999999ADDGA1021+015001999GF102991999999999999999999MA1101801999999REMMET059METAR LSZC 241250Z 31005KT 250V020 9999 FEW050 23/11 Q1018;
0128068065999992010062413204+46967+008400FM-15+0450LSZC V0203301N004112200019N0112651N1+02401+01101999999ADDGA1021+015001999GF102991999999999999999999MA1101801999999REMMET059METAR LSZC 241320Z 33008KT 300V060 9999 FEW050 24/11 Q1018;
0128068065999992010062413504+46967+008400FM-15+0450LSZC V0203301N004112200019N0112651N1+02401+01101999999ADDGA1021+015001999GF102991999999999999999999MA1101691999999REMMET059METAR LSZC 241350Z 33008KT 290V040 9999 FEW050 24/11 Q1017;
0128068065999992010062414204+46967+008400FM-15+0450LSZC V0203501N003112200019N0112651N1+02401+01001999999ADDGA1021+015001999GF102991999999999999999999MA1101691999999REMMET059METAR LSZC 241420Z 35006KT 290V040 9999 FEW050 24/10 Q1017;
0128068065999992010062414504+46967+008400FM-15+0450LSZC V0203301N003612200019N0112651N1+02401+01001999999ADDGA1021+015001999GF102991999999999999999999MA1101691999999REMMET059METAR LSZC 241450Z 33007KT 300V020 9999 FEW050 24/10 Q1017;
0072068065999992010062505504+46967+008400FM-15+0450LSZC V0202401N001519999999Y0099001N1+01501+01001999999ADDMA1101691999999REMMET045METAR LSZC 250550Z 24003KT CAVOK 15/10 Q1017;
0072068065999992010062506204+46967+008400FM-15+0450LSZC V0209999C000019999999Y0099001N1+01701+01101999999ADDMA1101691999999REMMET045METAR LSZC 250620Z 00000KT CAVOK 17/11 Q1017;
0072068065999992010062506504+46967+008400FM-15+0450LSZC V0209999V000519999999Y0099001N1+01801+01101999999ADDMA1101691999999REMMET045METAR LSZC 250650Z VRB01KT CAVOK 18/11 Q1017;
0072068065999992010062507204+46967+008400FM-15+0450LSZC V0209999V001019999999Y0099001N1+01801+01201999999ADDMA1101691999999REMMET045METAR LSZC 250720Z VRB02KT CAVOK 18/12 Q1017;
0072068065999992010062507504+46967+008400FM-15+0450LSZC V0209999V001519999999Y0099001N1+01801+01101999999ADDMA1101691999999REMMET045METAR LSZC 250750Z VRB03KT CAVOK 18/11 Q1017;
0128068065999992010062508204+46967+008400FM-15+0450LSZC V0200701N001512200019N0112651N1+01801+01201999999ADDGA1021+015001999GF102991999999999999999999MA1101691999999REMMET059METAR LSZC 250820Z 07003KT 020V130 9999 FEW050 18/12 Q1017;
0128068065999992010062508504+46967+008400FM-15+0450LSZC V0200801N002112200019N0112651N1+01901+01201999999ADDGA1021+015001999GF102991999999999999999999MA1101691999999REMMET059METAR LSZC 250850Z 08004KT 040V120 9999 FEW050 19/12 Q1017;
0143068065999992010062509204+46967+008400FM-15+0450LSZC V0209999V001010900019N0112651N1+02001+01301999999ADDGA1021+015001999GA2071+090001999GF107991999999999999999999MA1101691999999REMMET058METAR LSZC 250920Z VRB02KT 9999 FEW050 BKN300 20/13 Q1017;
0151068065999992010062509504+46967+008400FM-15+0450LSZC V0200601N002110900019N0112651N1+02001+01201999999ADDGA1021+015001999GA2071+090001999GF107991999999999999999999MA1101591999999REMMET066METAR LSZC 250950Z 06004KT 020V090 9999 FEW055 BKN300 20/12 Q1016;
0143068065999992010062511504+46967+008400FM-15+0450LSZC V0209999V002110900019N0112651N1+02401+01201999999ADDGA1021+015001999GA2071+090001999GF107991999999999999999999MA1101591999999REMMET058METAR LSZC 251150Z VRB04KT 9999 FEW055 BKN300 24/12 Q1016;
0143068065999992010062512204+46967+008400FM-15+0450LSZC V0209999V002110900019N0112651N1+02501+01301999999ADDGA1021+015001999GA2071+090001999GF107991999999999999999999MA1101591999999REMMET058METAR LSZC 251220Z VRB04KT 9999 FEW055 BKN300 25/13 Q1016;
0151068065999992010062512504+46967+008400FM-15+0450LSZC V0203001N003612200019N0112651N1+02501+01001999999ADDGA1021+015001999GA2041+090001999GF104991999999999999999999MA1101491999999REMMET066METAR LSZC 251250Z 30007KT 250V350 9999 FEW055 SCT300 25/10 Q1015;
0151068065999992010062513504+46967+008400FM-15+0450LSZC V0203201N002612200019N0112651N1+02501+00901999999ADDGA1021+015001999GA2041+090001999GF104991999999999999999999MA1101491999999REMMET066METAR LSZC 251350Z 32005KT 270V030 9999 FEW055 SCT300 25/09 Q1015;
0151068065999992010062514204+46967+008400FM-15+0450LSZC V0203001N003112200019N0112651N1+02501+01001999999ADDGA1021+015001999GA2041+090001999GF104991999999999999999999MA1101491999999REMMET066METAR LSZC 251420Z 30006KT 240V010 9999 FEW055 SCT300 25/10 Q1015;
0072068065999992010062806204+46967+008400FM-15+0450LSZC V0209999V000519999999Y0099001N1+01901+01301999999ADDMA1102001999999REMMET045METAR LSZC 280620Z VRB01KT CAVOK 19/13 Q1020;
0072068065999992010062807204+46967+008400FM-15+0450LSZC V0209999V001019999999Y0099001N1+02101+01301999999ADDMA1102001999999REMMET045METAR LSZC 280720Z VRB02KT CAVOK 21/13 Q1020;
0080068065999992010062807504+46967+008400FM-15+0450LSZC V0200601N002119999999Y0099001N1+02101+01401999999ADDMA1102001999999REMMET053METAR LSZC 280750Z 06004KT 020V090 CAVOK 21/14 Q1020;
0080068065999992010062809204+46967+008400FM-15+0450LSZC V0200701N002119999999Y0099001N1+02301+01301999999ADDMA1101901999999REMMET053METAR LSZC 280920Z 07004KT 020V110 CAVOK 23/13 Q1019;
0120068065999992010062811204+46967+008400FM-15+0450LSZC V0209999V001512200019N0112651N1+02601+01601999999ADDGA1021+015001999GF102991999999999999999999MA1101901999999REMMET051METAR LSZC 281120Z VRB03KT 9999 FEW055 26/16 Q1019;
0128068065999992010062812504+46967+008400FM-15+0450LSZC V0203401N002612200019N0112651N1+02801+01201999999ADDGA1021+015001999GF102991999999999999999999MA1101801999999REMMET059METAR LSZC 281250Z 34005KT 300V030 9999 FEW055 28/12 Q1018;
0128068065999992010062813204+46967+008400FM-15+0450LSZC V0203301N004112200019N0112651N1+02901+01101999999ADDGA1021+015001999GF102991999999999999999999MA1101801999999REMMET059METAR LSZC 281320Z 33008KT 290V010 9999 FEW055 29/11 Q1018;
0120068065999992010062813504+46967+008400FM-15+0450LSZC V0209999V003112200019N0112651N1+02901+01101999999ADDGA1021+015001999GF102991999999999999999999MA1101801999999REMMET051METAR LSZC 281350Z VRB06KT 9999 FEW055 29/11 Q1018;
0128068065999992010062814204+46967+008400FM-15+0450LSZC V0200101N002612200019N0112651N1+02901+01201999999ADDGA1021+015001999GF102991999999999999999999MA1101801999999REMMET059METAR LSZC 281420Z 01005KT 290V060 9999 FEW055 29/12 Q1018;
0120068065999992010062814504+46967+008400FM-15+0450LSZC V0209999V002612200019N0112651N1+02801+01101999999ADDGA1021+015001999GF102991999999999999999999MA1101801999999REMMET051METAR LSZC 281450Z VRB05KT 9999 FEW055 28/11 Q1018;
0120068065999992010062905504+46967+008400FM-15+0450LSZC V0202601N001012200019N0112651N1+01801+01301999999ADDGA1021+030001999GF102991999999999999999999MA1102001999999REMMET051METAR LSZC 290550Z 26002KT 9999 FEW100 18/13 Q1020;
0072068065999992010062906204+46967+008400FM-15+0450LSZC V0209999V001019999999Y0099001N1+01901+01301999999ADDMA1102001999999REMMET045METAR LSZC 290620Z VRB02KT CAVOK 19/13 Q1020;
0072068065999992010062906504+46967+008400FM-15+0450LSZC V0209999V000519999999Y0099001N1+02201+01301999999ADDMA1102001999999REMMET045METAR LSZC 290650Z VRB01KT CAVOK 22/13 Q1020;
0072068065999992010062907504+46967+008400FM-15+0450LSZC V0209999V001519999999Y0099001N1+02201+01401999999ADDMA1102001999999REMMET045METAR LSZC 290750Z VRB03KT CAVOK 22/14 Q1020;
0080068065999992010062908204+46967+008400FM-15+0450LSZC V0200601N001519999999Y0099001N1+02201+01401999999ADDMA1102001999999REMMET053METAR LSZC 290820Z 06003KT 340V130 CAVOK 22/14 Q1020;
0072068065999992010062909504+46967+008400FM-15+0450LSZC V0209999V001519999999Y0099001N1+02401+01501999999ADDMA1101901999999REMMET045METAR LSZC 290950Z VRB03KT CAVOK 24/15 Q1019;
0072068065999992010062911204+46967+008400FM-15+0450LSZC V0209999V002119999999Y0099001N1+02601+01501999999ADDMA1101901999999REMMET045METAR LSZC 291120Z VRB04KT CAVOK 26/15 Q1019;
0072068065999992010063005504+46967+008400FM-15+0450LSZC V0202701N001519999999Y0099001N1+01901+01401999999ADDMA1102001999999REMMET045METAR LSZC 300550Z 27003KT CAVOK 19/14 Q1020;
0072068065999992010063006204+46967+008400FM-15+0450LSZC V0209999V001019999999Y0099001N1+02001+01401999999ADDMA1102001999999REMMET045METAR LSZC 300620Z VRB02KT CAVOK 20/14 Q1020;
0072068065999992010063006504+46967+008400FM-15+0450LSZC V0209999V000519999999Y0099001N1+02101+01401999999ADDMA1102101999999REMMET045METAR LSZC 300650Z VRB01KT CAVOK 21/14 Q1021;
0072068065999992010063007204+46967+008400FM-15+0450LSZC V0209999V001019999999Y0099001N1+02201+01501999999ADDMA1102001999999REMMET045METAR LSZC 300720Z VRB02KT CAVOK 22/15 Q1020;
0072068065999992010063007504+46967+008400FM-15+0450LSZC V0200501N002119999999Y0099001N1+02201+01601999999ADDMA1102001999999REMMET045METAR LSZC 300750Z 05004KT CAVOK 22/16 Q1020;
0080068065999992010063008204+46967+008400FM-15+0450LSZC V0200801N002119999999Y0099001N1+02201+01501999999ADDMA1102001999999REMMET053METAR LSZC 300820Z 08004KT 030V120 CAVOK 22/15 Q1020;
0080068065999992010063009204+46967+008400FM-15+0450LSZC V0200601N001519999999Y0099001N1+02401+01601999999ADDMA1102001999999REMMET053METAR LSZC 300920Z 06003KT 010V100 CAVOK 24/16 Q1020;
0120068065999992010063011504+46967+008400FM-15+0450LSZC V0209999V001512200019N0112651N1+02601+01701999999ADDGA1021+015001999GF102991999999999999999999MA1102001999999REMMET051METAR LSZC 301150Z VRB03KT 9999 FEW050 26/17 Q1020;
0128068065999992010063012204+46967+008400FM-15+0450LSZC V0200801N003112200019N0112651N1+02701+01701999999ADDGA1021+015001999GF102991999999999999999999MA1101901999999REMMET059METAR LSZC 301220Z 08006KT 010V120 9999 FEW050 27/17 Q1019;
0128068065999992010063013204+46967+008400FM-15+0450LSZC V0200601N003612200019N0090001N1+02801+01501999999ADDGA1021+015001999GF102991999999999999999999MA1101901999999REMMET059METAR LSZC 301320Z 06007KT 010V110 9000 FEW055 28/15 Q1019;
0120068065999992010063013504+46967+008400FM-15+0450LSZC V0209999V002112200019N0090001N1+02801+01501999999ADDGA1021+015001999GF102991999999999999999999MA1101901999999REMMET051METAR LSZC 301350Z VRB04KT 9000 FEW055 28/15 Q1019;
0123068065999992010063014204+46967+008400FM-15+0450LSZC V0209999V001512200019N0090001N1+02901+01401999999ADDGA1021+015001021GF102991999999999999999999MA1101801999999REMMET054METAR LSZC 301420Z VRB03KT 9000 FEW055TCU 29/14 Q1018;
0131068065999992010063014504+46967+008400FM-15+0450LSZC V0200401N003112200019N0090001N1+02801+01301999999ADDGA1021+015001021GF102991999999999999999999MA1101801999999REMMET062METAR LSZC 301450Z 04006KT 330V100 9000 FEW055TCU 28/13 Q1018;
0072068065999992010070105504+46967+008400FM-15+0450LSZC V0202801N001519999999Y0099001N1+01901+01501999999ADDMA1101901999999REMMET045METAR LSZC 010550Z 28003KT CAVOK 19/15 Q1019;
0101068065999992010070106504+46967+008400FM-15+0450LSZC V0209999C000012200019N0050001N1+02201+01601999999ADDGF100991999999999999999999MA1101901999999REMMET048METAR LSZC 010650Z 00000KT 5000 NSC 22/16 Q1019;
0101068065999992010070107204+46967+008400FM-15+0450LSZC V0209999V000512200019N0050001N1+02301+01601999999ADDGF100991999999999999999999MA1101901999999REMMET048METAR LSZC 010720Z VRB01KT 5000 NSC 23/16 Q1019;
0101068065999992010070107504+46967+008400FM-15+0450LSZC V0209999V001512200019N0050001N1+02201+01601999999ADDGF100991999999999999999999MA1101801999999REMMET048METAR LSZC 010750Z VRB03KT 5000 NSC 22/16 Q1018;
0128068065999992010070108204+46967+008400FM-15+0450LSZC V0200701N001512200019N0060001N1+02301+01601999999ADDGA1021+015001999GF102991999999999999999999MA1101801999999REMMET059METAR LSZC 010820Z 07003KT 020V110 6000 FEW050 23/16 Q1018;
0128068065999992010070108504+46967+008400FM-15+0450LSZC V0200701N002112200019N0060001N1+02301+01701999999ADDGA1021+015001999GF102991999999999999999999MA1101801999999REMMET059METAR LSZC 010850Z 07004KT 030V110 6000 FEW050 23/17 Q1018;
0128068065999992010070109504+46967+008400FM-15+0450LSZC V0200601N002112200019N0060001N1+02401+01701999999ADDGA1021+015001999GF102991999999999999999999MA1101801999999REMMET059METAR LSZC 010950Z 06004KT 020V100 6000 FEW050 24/17 Q1018;
0120068065999992010070111204+46967+008400FM-15+0450LSZC V0209999V001512200019N0060001N1+02701+01901999999ADDGA1021+015001999GF102991999999999999999999MA1101691999999REMMET051METAR LSZC 011120Z VRB03KT 6000 FEW050 27/19 Q1017;
0123068065999992010070112504+46967+008400FM-15+0450LSZC V0209999V001012200019N0050001N1+02901+01801999999ADDGA1021+015001021GF102991999999999999999999MA1101691999999REMMET054METAR LSZC 011250Z VRB02KT 5000 FEW050TCU 29/18 Q1017;
0128068065999992010070113504+46967+008400FM-15+0450LSZC V0203201N002612200019N0050001N1+02901+01601999999ADDGA1021+015001999GF102991999999999999999999MA1101691999999REMMET059METAR LSZC 011350Z 32005KT 270V020 5000 FEW050 29/16 Q1017;
0120068065999992010070205504+46967+008400FM-15+0450LSZC V0209999V000512200019N0112651N1+02001+01501999999ADDGA1021+015001999GF102991999999999999999999MA1101801999999REMMET051METAR LSZC 020550Z VRB01KT 9999 FEW050 20/15 Q1018;
0120068065999992010070207204+46967+008400FM-15+0450LSZC V0209999V001512200019N0112651N1+02301+01601999999ADDGA1021+015001999GF102991999999999999999999MA1101801999999REMMET051METAR LSZC 020720Z VRB03KT 9999 FEW050 23/16 Q1018;
0128068065999992010070208204+46967+008400FM-15+0450LSZC V0200801N002112200019N0112651N1+02401+01501999999ADDGA1021+015001999GF102991999999999999999999MA1101801999999REMMET059METAR LSZC 020820Z 08004KT 050V120 9999 FEW050 24/15 Q1018;
0128068065999992010070208504+46967+008400FM-15+0450LSZC V0200901N002612200019N0112651N1+02401+01501999999ADDGA1021+018001999GF102991999999999999999999MA1101801999999REMMET059METAR LSZC 020850Z 09005KT 060V120 9999 FEW060 24/15 Q1018;
0128068065999992010070209204+46967+008400FM-15+0450LSZC V0200701N002612200019N0112651N1+02501+01601999999ADDGA1021+018001999GF102991999999999999999999MA1101801999999REMMET059METAR LSZC 020920Z 07005KT 030V110 9999 FEW060 25/16 Q1018;
0128068065999992010070211204+46967+008400FM-15+0450LSZC V0200801N002112200019N0112651N1+02801+01801999999ADDGA1021+018001999GF102991999999999999999999MA1101691999999REMMET059METAR LSZC 021120Z 08004KT 040V120 9999 FEW060 28/18 Q1017;
0128068065999992010070211504+46967+008400FM-15+0450LSZC V0201301N002112200019N0112651N1+02901+01801999999ADDGA1021+018001999GF102991999999999999999999MA1101691999999REMMET059METAR LSZC 021150Z 13004KT 080V250 9999 FEW060 29/18 Q1017;
0120068065999992010070212204+46967+008400FM-15+0450LSZC V0209999V001512200019N0112651N1+03001+01601999999ADDGA1021+018001999GF102991999999999999999999MA1101691999999REMMET051METAR LSZC 021220Z VRB03KT 9999 FEW060 30/16 Q1017;
0131068065999992010070212504+46967+008400FM-15+0450LSZC V0203101N003112200019N0112651N1+03001+01601999999ADDGA1021+018001021GF102991999999999999999999MA1101691999999REMMET062METAR LSZC 021250Z 31006KT 260V010 9999 FEW060TCU 30/16 Q1017;
0123068065999992010070213204+46967+008400FM-15+0450LSZC V0209999V003112200019N0060001N1+03001+01601999999ADDGA1041+018001021GF104991999999999999999999MA1101691999999REMMET054METAR LSZC 021320Z VRB06KT 6000 SCT060TCU 30/16 Q1017;
0123068065999992010070213504+46967+008400FM-15+0450LSZC V0209999V001512200019N0060001N1+03001+01801999999ADDGA1041+018001021GF104991999999999999999999MA1101591999999REMMET054METAR LSZC 021350Z VRB03KT 6000 SCT060TCU 30/18 Q1016;
0131068065999992010070214204+46967+008400FM-15+0450LSZC V0203301N002612200019N0060001N1+03001+01701999999ADDGA1041+018001021GF104991999999999999999999MA1101591999999REMMET062METAR LSZC 021420Z 33005KT 290V010 6000 SCT060TCU 30/17 Q1016;
0131068065999992010070214504+46967+008400FM-15+0450LSZC V0203601N001512200019N0060001N1+03001+01701999999ADDGA1041+018001021GF104991999999999999999999MA1101591999999REMMET062METAR LSZC 021450Z 36003KT 300V080 6000 SCT060TCU 30/17 Q1016;
0120068065999992010070215204+46967+008400FM-15+0450LSZC V0209999V000512200019N0060001N1+03101+01501999999ADDGA1041+018001999GF104991999999999999999999MA1101591999999REMMET051METAR LSZC 021520Z VRB01KT 6000 SCT060 31/15 Q1016;
0120068065999992010070505504+46967+008400FM-15+0450LSZC V0209999C000010150019N0080001N1+02001+01701999999ADDGA1071+015001999GF107991999999999999999999MA1102101999999REMMET051METAR LSZC 050550Z 00000KT 8000 BKN050 20/17 Q1021;
0120068065999992010070506504+46967+008400FM-15+0450LSZC V0209999C000010135019N0080001N1+02001+01701999999ADDGA1071+013501999GF107991999999999999999999MA1102101999999REMMET051METAR LSZC 050650Z 00000KT 8000 BKN045 20/17 Q1021;
0148068065999992010070507204+46967+008400FM-15+0450LSZC V0209999V000510180019N0070001N1+02001+01701999999ADDGA1021+005401999GA2071+018001999GF107991999999999999999999MA1102101999999REMMET063METAR LSZC 050720Z VRB01KT 7000 FEW018 BKN065 20/17 Q1021 RERA;
0143068065999992010070507504+46967+008400FM-15+0450LSZC V0209999V000510180019N0070001N1+02001+01701999999ADDGA1021+006001999GA2071+018001999GF107991999999999999999999MA1102101999999REMMET058METAR LSZC 050750Z VRB01KT 7000 FEW020 BKN065 20/17 Q1021;
0143068065999992010070508204+46967+008400FM-15+0450LSZC V0201001N002110150019N0070001N1+02101+01801999999ADDGA1021+006001999GA2071+015001999GF107991999999999999999999MA1102101999999REMMET058METAR LSZC 050820Z 10004KT 7000 FEW020 BKN050 21/18 Q1021;
0151068065999992010070508504+46967+008400FM-15+0450LSZC V0200801N002110135019N0070001N1+02101+01801999999ADDGA1041+007501999GA2071+013501999GF107991999999999999999999MA1102101999999REMMET066METAR LSZC 050850Z 08004KT 040V120 7000 SCT025 BKN045 21/18 Q1021;
0151068065999992010070509504+46967+008400FM-15+0450LSZC V0200901N002612200019N0080001N1+02301+01801999999ADDGA1021+007801999GA2041+013501999GF104991999999999999999999MA1102101999999REMMET066METAR LSZC 050950Z 09005KT 060V140 8000 FEW026 SCT045 23/18 Q1021;
0143068065999992010070511204+46967+008400FM-15+0450LSZC V0200701N003112200019N0080001N1+02401+01801999999ADDGA1021+007801999GA2041+013501999GF104991999999999999999999MA1102101999999REMMET058METAR LSZC 051120Z 07006KT 8000 FEW026 SCT045 24/18 Q1021;
0120068065999992010070511504+46967+008400FM-15+0450LSZC V0209999V002112200019N0080001N1+02501+01701999999ADDGA1041+013501999GF104991999999999999999999MA1102001999999REMMET051METAR LSZC 051150Z VRB04KT 8000 SCT045 25/17 Q1020;
0128068065999992010070512204+46967+008400FM-15+0450LSZC V0201001N002112200019N0090001N1+02501+01701999999ADDGA1041+013501999GF104991999999999999999999MA1102001999999REMMET059METAR LSZC 051220Z 10004KT 050V160 9000 SCT045 25/17 Q1020;
0120068065999992010070512504+46967+008400FM-15+0450LSZC V0209999V001512200019N0090001N1+02601+01701999999ADDGA1041+013501999GF104991999999999999999999MA1102001999999REMMET051METAR LSZC 051250Z VRB03KT 9000 SCT045 26/17 Q1020;
0128068065999992010070513204+46967+008400FM-15+0450LSZC V0200901N002112200019N0090001N1+02601+01601999999ADDGA1041+013501999GF104991999999999999999999MA1102001999999REMMET059METAR LSZC 051320Z 09004KT 030V160 9000 SCT045 26/16 Q1020;
0128068065999992010070514204+46967+008400FM-15+0450LSZC V0200701N002112200019N0090001N1+02601+01601999999ADDGA1041+013501999GF104991999999999999999999MA1102001999999REMMET059METAR LSZC 051420Z 07004KT 350V150 9000 SCT045 26/16 Q1020;
0154068065999992010070605504+46967+008400FM-15+0450LSZC V0209999V003110120019N0112651N1+02001+01201999999ADDGA1071+012001999GA2081+015001999GF108991999999999999999999MA1102201999999OC100821REMMET061METAR LSZC 060550Z VRB06G16KT 9999 BKN040 OVC058 20/12 Q1022;
0153068065999992010070606204+46967+008400FM-15+0450LSZC V0209999V003610120019N0112651N1+01901+01401999999ADDGA1071+012001999GA2081+015001999GF108991999999999999999999MA1102301999999MW1611REMMET062METAR LSZC 060620Z VRB07KT 9999 -RA BKN040 OVC058 19/14 Q1023;
0148068065999992010070607204+46967+008400FM-15+0450LSZC V0209999V001010150019N0112651N1+01801+01501999999ADDGA1041+012001999GA2071+015001999GF107991999999999999999999MA1102301999999REMMET063METAR LSZC 060720Z VRB02KT 9999 SCT040 BKN058 18/15 Q1023 RERA;
0120068065999992010070607504+46967+008400FM-15+0450LSZC V0209999V000510138019N0112651N1+01901+01401999999ADDGA1071+013801999GF107991999999999999999999MA1102301999999REMMET051METAR LSZC 060750Z VRB01KT 9999 BKN046 19/14 Q1023;
0120068065999992010070608204+46967+008400FM-15+0450LSZC V0209999V001010138019N0112651N1+01901+01501999999ADDGA1071+013801999GF107991999999999999999999MA1102401999999REMMET051METAR LSZC 060820Z VRB02KT 9999 BKN046 19/15 Q1024;
0120068065999992010070608504+46967+008400FM-15+0450LSZC V0209999V000510138019N0112651N1+02001+01501999999ADDGA1071+013801999GF107991999999999999999999MA1102401999999REMMET051METAR LSZC 060850Z VRB01KT 9999 BKN046 20/15 Q1024;
0120068065999992010070609204+46967+008400FM-15+0450LSZC V0209999V000510138019N0112651N1+02001+01401999999ADDGA1071+013801999GF107991999999999999999999MA1102401999999REMMET051METAR LSZC 060920Z VRB01KT 9999 BKN046 20/14 Q1024;
0120068065999992010070609504+46967+008400FM-15+0450LSZC V0209999C000010138019N0112651N1+02101+01401999999ADDGA1071+013801999GF107991999999999999999999MA1102401999999REMMET051METAR LSZC 060950Z 00000KT 9999 BKN046 21/14 Q1024;
0151068065999992010070611204+46967+008400FM-15+0450LSZC V0200901N002110180019N0112651N1+02201+01501999999ADDGA1041+013801999GA2071+018001999GF107991999999999999999999MA1102301999999REMMET066METAR LSZC 061120Z 09004KT 050V140 9999 SCT046 BKN067 22/15 Q1023;
0151068065999992010070611504+46967+008400FM-15+0450LSZC V0200701N002610180019N0112651N1+02201+01401999999ADDGA1041+013801999GA2071+018001999GF107991999999999999999999MA1102301999999REMMET066METAR LSZC 061150Z 07005KT 040V110 9999 SCT046 BKN067 22/14 Q1023;
0151068065999992010070612204+46967+008400FM-15+0450LSZC V0200701N002110180019N0112651N1+02201+01301999999ADDGA1041+013801999GA2071+018001999GF107991999999999999999999MA1102301999999REMMET066METAR LSZC 061220Z 07004KT 030V110 9999 SCT046 BKN067 22/13 Q1023;
0128068065999992010070612504+46967+008400FM-15+0450LSZC V0201101N002112200019N0112651N1+02201+01301999999ADDGA1041+013801999GF104991999999999999999999MA1102301999999REMMET059METAR LSZC 061250Z 11004KT 060V150 9999 SCT046 22/13 Q1023;
0128068065999992010070613204+46967+008400FM-15+0450LSZC V0201101N001512200019N0112651N1+02301+01301999999ADDGA1041+015001999GF104991999999999999999999MA1102201999999REMMET059METAR LSZC 061320Z 11003KT 030V190 9999 SCT050 23/13 Q1022;
0128068065999992010070613504+46967+008400FM-15+0450LSZC V0200501N002612200019N0112651N1+02301+01401999999ADDGA1041+015001999GF104991999999999999999999MA1102201999999REMMET059METAR LSZC 061350Z 05005KT 340V110 9999 SCT050 23/14 Q1022;
0128068065999992010070614504+46967+008400FM-15+0450LSZC V0201001N002612200019N0112651N1+02401+01401999999ADDGA1041+015001999GF104991999999999999999999MA1102201999999REMMET059METAR LSZC 061450Z 10005KT 060V150 9999 SCT050 24/14 Q1022;
0072068065999992010070705504+46967+008400FM-15+0450LSZC V0209999V001519999999Y0099001N1+01601+01201999999ADDMA1102301999999REMMET045METAR LSZC 070550Z VRB03KT CAVOK 16/12 Q1023;
0072068065999992010070706204+46967+008400FM-15+0450LSZC V0209999V001519999999Y0099001N1+01701+01201999999ADDMA1102301999999REMMET045METAR LSZC 070620Z VRB03KT CAVOK 17/12 Q1023;
0072068065999992010070706504+46967+008400FM-15+0450LSZC V0209999V001019999999Y0099001N1+01801+01301999999ADDMA1102301999999REMMET045METAR LSZC 070650Z VRB02KT CAVOK 18/13 Q1023;
0072068065999992010070707204+46967+008400FM-15+0450LSZC V0209999V000519999999Y0099001N1+01901+01301999999ADDMA1102301999999REMMET045METAR LSZC 070720Z VRB01KT CAVOK 19/13 Q1023;
0080068065999992010070707504+46967+008400FM-15+0450LSZC V0200801N001519999999Y0099001N1+02001+01301999999ADDMA1102301999999REMMET053METAR LSZC 070750Z 08003KT 040V150 CAVOK 20/13 Q1023;
0072068065999992010070709504+46967+008400FM-15+0450LSZC V0209999V001519999999Y0099001N1+02201+01401999999ADDMA1102301999999REMMET045METAR LSZC 070950Z VRB03KT CAVOK 22/14 Q1023;
0080068065999992010070711204+46967+008400FM-15+0450LSZC V0200801N002619999999Y0099001N1+02401+01501999999ADDMA1102201999999REMMET053METAR LSZC 071120Z 08005KT 360V150 CAVOK 24/15 Q1022;
0080068065999992010070711504+46967+008400FM-15+0450LSZC V0200601N003119999999Y0099001N1+02401+01301999999ADDMA1102201999999REMMET053METAR LSZC 071150Z 06006KT 320V120 CAVOK 24/13 Q1022;
0080068065999992010070712204+46967+008400FM-15+0450LSZC V0200301N002619999999Y0099001N1+02501+01101999999ADDMA1102201999999REMMET053METAR LSZC 071220Z 03005KT 330V070 CAVOK 25/11 Q1022;
0080068065999992010070713204+46967+008400FM-15+0450LSZC V0200301N002619999999Y0099001N1+02601+01001999999ADDMA1102101999999REMMET053METAR LSZC 071320Z 03005KT 310V110 CAVOK 26/10 Q1021;
0072068065999992010070713504+46967+008400FM-15+0450LSZC V0209999V002119999999Y0099001N1+02601+01201999999ADDMA1102101999999REMMET045METAR LSZC 071350Z VRB04KT CAVOK 26/12 Q1021;
0080068065999992010070714204+46967+008400FM-15+0450LSZC V0200401N002619999999Y0099001N1+02601+01001999999ADDMA1102101999999REMMET053METAR LSZC 071420Z 04005KT 350V090 CAVOK 26/10 Q1021;
0080068065999992010070714504+46967+008400FM-15+0450LSZC V0200401N003119999999Y0099001N1+02601+01101999999ADDMA1102101999999REMMET053METAR LSZC 071450Z 04006KT 010V080 CAVOK 26/11 Q1021;
0080068065999992010070805504+46967+008400FM-15+0450LSZC V0202601N001519999999Y0099001N1+01801+01401999999ADDMA1102101999999REMMET053METAR LSZC 080550Z 26003KT 230V310 CAVOK 18/14 Q1021;
0072068065999992010070806204+46967+008400FM-15+0450LSZC V0209999V000519999999Y0099001N1+01901+01401999999ADDMA1102101999999REMMET045METAR LSZC 080620Z VRB01KT CAVOK 19/14 Q1021;
0072068065999992010070806504+46967+008400FM-15+0450LSZC V0209999C000019999999Y0099001N1+02101+01401999999ADDMA1102201999999REMMET045METAR LSZC 080650Z 00000KT CAVOK 21/14 Q1022;
0072068065999992010070807204+46967+008400FM-15+0450LSZC V0200701N002119999999Y0099001N1+02001+01401999999ADDMA1102201999999REMMET045METAR LSZC 080720Z 07004KT CAVOK 20/14 Q1022;
0080068065999992010070808204+46967+008400FM-15+0450LSZC V0200601N001519999999Y0099001N1+02201+01501999999ADDMA1102201999999REMMET053METAR LSZC 080820Z 06003KT 010V100 CAVOK 22/15 Q1022;
0080068065999992010070808504+46967+008400FM-15+0450LSZC V0200901N002119999999Y0099001N1+02201+01501999999ADDMA1102201999999REMMET053METAR LSZC 080850Z 09004KT 040V140 CAVOK 22/15 Q1022;
0072068065999992010070809504+46967+008400FM-15+0450LSZC V0209999V002119999999Y0099001N1+02401+01501999999ADDMA1102201999999REMMET045METAR LSZC 080950Z VRB04KT CAVOK 24/15 Q1022;
0080068065999992010070811204+46967+008400FM-15+0450LSZC V0200801N002119999999Y0099001N1+02601+01501999999ADDMA1102201999999REMMET053METAR LSZC 081120Z 08004KT 030V120 CAVOK 26/15 Q1022;
0080068065999992010070812204+46967+008400FM-15+0450LSZC V0200801N002619999999Y0099001N1+02801+01601999999ADDMA1102101999999REMMET053METAR LSZC 081220Z 08005KT 030V120 CAVOK 28/16 Q1021;
0080068065999992010070812504+46967+008400FM-15+0450LSZC V0200801N002119999999Y0099001N1+02801+01501999999ADDMA1102101999999REMMET053METAR LSZC 081250Z 08004KT 030V130 CAVOK 28/15 Q1021;
0080068065999992010070813204+46967+008400FM-15+0450LSZC V0201001N002119999999Y0099001N1+02801+01401999999ADDMA1102101999999REMMET053METAR LSZC 081320Z 10004KT 070V140 CAVOK 28/14 Q1021;
0080068065999992010070813504+46967+008400FM-15+0450LSZC V0200701N002619999999Y0099001N1+02801+01601999999ADDMA1102101999999REMMET053METAR LSZC 081350Z 07005KT 040V100 CAVOK 28/16 Q1021;
0080068065999992010070814204+46967+008400FM-15+0450LSZC V0200801N002119999999Y0099001N1+02901+01701999999ADDMA1102101999999REMMET053METAR LSZC 081420Z 08004KT 050V110 CAVOK 29/17 Q1021;
0072068065999992010070814504+46967+008400FM-15+0450LSZC V0200701N002119999999Y0099001N1+02901+01601999999ADDMA1102101999999REMMET045METAR LSZC 081450Z 07004KT CAVOK 29/16 Q1021;
0072068065999992010070906204+46967+008400FM-15+0450LSZC V0209999C000019999999Y0099001N1+02301+01601999999ADDMA1102201999999REMMET045METAR LSZC 090620Z 00000KT CAVOK 23/16 Q1022;
0072068065999992010070907204+46967+008400FM-15+0450LSZC V0209999C000019999999Y0099001N1+02501+01601999999ADDMA1102201999999REMMET045METAR LSZC 090720Z 00000KT CAVOK 25/16 Q1022;
0072068065999992010070908204+46967+008400FM-15+0450LSZC V0209999V001519999999Y0099001N1+02601+01601999999ADDMA1102101999999REMMET045METAR LSZC 090820Z VRB03KT CAVOK 26/16 Q1021;
0080068065999992010070908504+46967+008400FM-15+0450LSZC V0201001N002119999999Y0099001N1+02501+01501999999ADDMA1102101999999REMMET053METAR LSZC 090850Z 10004KT 070V140 CAVOK 25/15 Q1021;
0072068065999992010070909204+46967+008400FM-15+0450LSZC V0209999V001519999999Y0099001N1+02601+01601999999ADDMA1102001999999REMMET045METAR LSZC 090920Z VRB03KT CAVOK 26/16 Q1020;
0080068065999992010070909504+46967+008400FM-15+0450LSZC V0200701N002119999999Y0099001N1+02601+01601999999ADDMA1102101999999REMMET053METAR LSZC 090950Z 07004KT 030V090 CAVOK 26/16 Q1021;
0072068065999992010070911204+46967+008400FM-15+0450LSZC V0200601N002619999999Y0099001N1+02901+01801999999ADDMA1102001999999REMMET045METAR LSZC 091120Z 06005KT CAVOK 29/18 Q1020;
0072068065999992010070911504+46967+008400FM-15+0450LSZC V0209999V001019999999Y0099001N1+03001+01701999999ADDMA1102001999999REMMET045METAR LSZC 091150Z VRB02KT CAVOK 30/17 Q1020;
0128068065999992010070912204+46967+008400FM-15+0450LSZC V0201801N001510240019N0112651N1+03001+01601999999ADDGA1071+024001999GF107991999999999999999999MA1102001999999REMMET059METAR LSZC 091220Z 18003KT 100V270 9999 BKN080 30/16 Q1020;
0128068065999992010070912504+46967+008400FM-15+0450LSZC V0200601N002110240019N0112651N1+03001+01701999999ADDGA1071+024001999GF107991999999999999999999MA1102001999999REMMET059METAR LSZC 091250Z 06004KT 350V110 9999 BKN080 30/17 Q1020;
0120068065999992010070913504+46967+008400FM-15+0450LSZC V0209999V001512200019N0112651N1+03001+01501999999ADDGA1041+024001999GF104991999999999999999999MA1102101999999REMMET051METAR LSZC 091350Z VRB03KT 9999 SCT080 30/15 Q1021;
0120068065999992010070914204+46967+008400FM-15+0450LSZC V0209999V001512200019N0112651N1+03101+01501999999ADDGA1021+024001999GF102991999999999999999999MA1102101999999REMMET051METAR LSZC 091420Z VRB03KT 9999 FEW080 31/15 Q1021;
0128068065999992010070914504+46967+008400FM-15+0450LSZC V0200601N002112200019N0112651N1+03101+01701999999ADDGA1021+024001999GF102991999999999999999999MA1102001999999REMMET059METAR LSZC 091450Z 06004KT 020V100 9999 FEW080 31/17 Q1020;
0072068065999992010071206504+46967+008400FM-15+0450LSZC V0209999C000019999999Y0099001N1+02301+01601999999ADDMA1101591999999REMMET045METAR LSZC 120650Z 00000KT CAVOK 23/16 Q1016;
0072068065999992010071207504+46967+008400FM-15+0450LSZC V0209999V000519999999Y0099001N1+02401+01701999999ADDMA1101591999999REMMET045METAR LSZC 120750Z VRB01KT CAVOK 24/17 Q1016;
0120068065999992010071208204+46967+008400FM-15+0450LSZC V0200701N002112200019N0112651N1+02301+01701999999ADDGA1021+013501999GF102991999999999999999999MA1101591999999REMMET051METAR LSZC 120820Z 07004KT 9999 FEW045 23/17 Q1016;
0120068065999992010071208504+46967+008400FM-15+0450LSZC V0200601N002612200019N0112651N1+02301+01701999999ADDGA1021+013501999GF102991999999999999999999MA1101691999999REMMET051METAR LSZC 120850Z 06005KT 9999 FEW045 23/17 Q1017;
0151068065999992010071209504+46967+008400FM-15+0450LSZC V0200701N002612200019N0112651N1+02501+01801999999ADDGA1021+015001999GA2041+090001999GF104991999999999999999999MA1101591999999REMMET066METAR LSZC 120950Z 07005KT 040V110 9999 FEW050 SCT300 25/18 Q1016;
0128068065999992010071211204+46967+008400FM-15+0450LSZC V0200601N002612200019N0112651N1+02701+01901999999ADDGA1021+015001999GF102991999999999999999999MA1101591999999REMMET059METAR LSZC 121120Z 06005KT 020V090 9999 FEW050 27/19 Q1016;
0120068065999992010071211504+46967+008400FM-15+0450LSZC V0200701N002612200019N0112651N1+02701+01801999999ADDGA1021+015001999GF102991999999999999999999MA1101491999999REMMET051METAR LSZC 121150Z 07005KT 9999 FEW050 27/18 Q1015;
0120068065999992010071212204+46967+008400FM-15+0450LSZC V0200701N002612200019N0112651N1+02801+01801999999ADDGA1021+015001999GF102991999999999999999999MA1101491999999REMMET051METAR LSZC 121220Z 07005KT 9999 FEW050 28/18 Q1015;
0120068065999992010071212504+46967+008400FM-15+0450LSZC V0200701N002612200019N0112651N1+02801+01801999999ADDGA1021+015001999GF102991999999999999999999MA1101391999999REMMET051METAR LSZC 121250Z 07005KT 9999 FEW050 28/18 Q1014;
0120068065999992010071213204+46967+008400FM-15+0450LSZC V0200901N002612200019N0112651N1+02901+01901999999ADDGA1021+015001999GF102991999999999999999999MA1101391999999REMMET051METAR LSZC 121320Z 09005KT 9999 FEW050 29/19 Q1014;
0128068065999992010071213504+46967+008400FM-15+0450LSZC V0201201N001512200019N0112651N1+03101+01801999999ADDGA1021+018001999GF102991999999999999999999MA1101291999999REMMET059METAR LSZC 121350Z 12003KT 070V170 9999 FEW060 31/18 Q1013;
0120068065999992010071214504+46967+008400FM-15+0450LSZC V0200801N002612200019N0112651N1+03101+01901999999ADDGA1021+018001999GF102991999999999999999999MA1101191999999REMMET051METAR LSZC 121450Z 08005KT 9999 FEW060 31/19 Q1012;
0120068065999992010071305504+46967+008400FM-15+0450LSZC V0209999V001012200019N0112651N1+01801+01601999999ADDGA1041+024001999GF104991999999999999999999MA1101491999999REMMET051METAR LSZC 130550Z VRB02KT 9999 SCT080 18/16 Q1015;
0128068065999992010071306204+46967+008400FM-15+0450LSZC V0202601N002112200019N0112651N1+01901+01601999999ADDGA1041+024001999GF104991999999999999999999MA1101591999999REMMET059METAR LSZC 130620Z 26004KT 210V280 9999 SCT080 19/16 Q1016;
0120068065999992010071306504+46967+008400FM-15+0450LSZC V0209999V001512200019N0112651N1+01901+01601999999ADDGA1041+024001999GF104991999999999999999999MA1101491999999REMMET051METAR LSZC 130650Z VRB03KT 9999 SCT080 19/16 Q1015;
0120068065999992010071307204+46967+008400FM-15+0450LSZC V0209999V000512200019N0112651N1+02101+01601999999ADDGA1041+024001999GF104991999999999999999999MA1101491999999REMMET051METAR LSZC 130720Z VRB01KT 9999 SCT080 21/16 Q1015;
0120068065999992010071307504+46967+008400FM-15+0450LSZC V0209999V001012200019N0112651N1+02201+01701999999ADDGA1041+024001999GF104991999999999999999999MA1101491999999REMMET051METAR LSZC 130750Z VRB02KT 9999 SCT080 22/17 Q1015;
0143068065999992010071308204+46967+008400FM-15+0450LSZC V0209999V001010900019N0112651N1+02201+01601999999ADDGA1041+024001999GA2071+090001999GF107991999999999999999999MA1101491999999REMMET058METAR LSZC 130820Z VRB02KT 9999 SCT080 BKN300 22/16 Q1015;
0143068065999992010071308504+46967+008400FM-15+0450LSZC V0209999V001510900019N0112651N1+02201+01601999999ADDGA1041+024001999GA2071+090001999GF107991999999999999999999MA1101491999999REMMET058METAR LSZC 130850Z VRB03KT 9999 SCT080 BKN300 22/16 Q1015;
0143068065999992010071309504+46967+008400FM-15+0450LSZC V0209999V000512200019N0112651N1+02401+01701999999ADDGA1021+013501999GA2041+045001999GF104991999999999999999999MA1101491999999REMMET058METAR LSZC 130950Z VRB01KT 9999 FEW045 SCT150 24/17 Q1015;
0151068065999992010071312504+46967+008400FM-15+0450LSZC V0200801N002612200019N0070001N1+02601+01801999999ADDGA1021+013501999GA2041+045001999GF104991999999999999999999MA1101391999999REMMET066METAR LSZC 131250Z 08005KT 020V120 7000 FEW045 SCT150 26/18 Q1014;
0151068065999992010071313504+46967+008400FM-15+0450LSZC V0201101N002610900019N0070001N1+02701+01801999999ADDGA1021+013501999GA2071+090001999GF107991999999999999999999MA1101391999999REMMET066METAR LSZC 131350Z 11005KT 070V160 7000 FEW045 BKN300 27/18 Q1014;
0072068065999992010071405504+46967+008400FM-15+0450LSZC V0209999V000519999999Y0099001N1+02101+01701999999ADDMA1101291999999REMMET045METAR LSZC 140550Z VRB01KT CAVOK 21/17 Q1013;
0072068065999992010071406504+46967+008400FM-15+0450LSZC V0209999V000519999999Y0099001N1+02301+01701999999ADDMA1101291999999REMMET045METAR LSZC 140650Z VRB01KT CAVOK 23/17 Q1013;
0072068065999992010071407204+46967+008400FM-15+0450LSZC V0209999V000519999999Y0099001N1+02501+01701999999ADDMA1101191999999REMMET045METAR LSZC 140720Z VRB01KT CAVOK 25/17 Q1012;
0072068065999992010071407504+46967+008400FM-15+0450LSZC V0209999V001019999999Y0099001N1+02501+01801999999ADDMA1101191999999REMMET045METAR LSZC 140750Z VRB02KT CAVOK 25/18 Q1012;
0072068065999992010071408204+46967+008400FM-15+0450LSZC V0200701N002619999999Y0099001N1+02401+01801999999ADDMA1101191999999REMMET045METAR LSZC 140820Z 07005KT CAVOK 24/18 Q1012;
0072068065999992010071408504+46967+008400FM-15+0450LSZC V0200801N002619999999Y0099001N1+02401+01901999999ADDMA1101191999999REMMET045METAR LSZC 140850Z 08005KT CAVOK 24/19 Q1012;
0080068065999992010071409204+46967+008400FM-15+0450LSZC V0200901N002119999999Y0099001N1+02501+01801999999ADDMA1101081999999REMMET053METAR LSZC 140920Z 09004KT 060V160 CAVOK 25/18 Q1011;
0072068065999992010071409504+46967+008400FM-15+0450LSZC V0200701N002619999999Y0099001N1+02501+01701999999ADDMA1101081999999REMMET045METAR LSZC 140950Z 07005KT CAVOK 25/17 Q1011;
0120068065999992010071411504+46967+008400FM-15+0450LSZC V0209999V001512200019N0112651N1+02801+02001999999ADDGA1021+012001999GF102991999999999999999999MA1101021999999REMMET051METAR LSZC 141150Z VRB03KT 9999 FEW040 28/20 Q1010;
0128068065999992010071412204+46967+008400FM-15+0450LSZC V0200701N001512200019N0112651N1+02901+01901999999ADDGA1021+012001999GF102991999999999999999999MA1100911999999REMMET059METAR LSZC 141220Z 07003KT 040V140 9999 FEW040 29/19 Q1009;
0128068065999992010071412504+46967+008400FM-15+0450LSZC V0201001N002112200019N0112651N1+02901+02101999999ADDGA1021+018001999GF102991999999999999999999MA1100911999999REMMET059METAR LSZC 141250Z 10004KT 060V120 9999 FEW060 29/21 Q1009;
0120068065999992010071413204+46967+008400FM-15+0450LSZC V0209999V001512200019N0112651N1+03001+02001999999ADDGA1021+018001999GF102991999999999999999999MA1100911999999REMMET051METAR LSZC 141320Z VRB03KT 9999 FEW060 30/20 Q1009;
0120068065999992010071413504+46967+008400FM-15+0450LSZC V0209999V000512200019N0112651N1+03201+02101999999ADDGA1021+018001999GF102991999999999999999999MA1100811999999REMMET051METAR LSZC 141350Z VRB01KT 9999 FEW060 32/21 Q1008;
0120068065999992010071414204+46967+008400FM-15+0450LSZC V0209999V001012200019N0112651N1+03101+02001999999ADDGA1021+018001999GF102991999999999999999999MA1100811999999REMMET051METAR LSZC 141420Z VRB02KT 9999 FEW060 31/20 Q1008;
0120068065999992010071414504+46967+008400FM-15+0450LSZC V0200701N002112200019N0112651N1+03001+02101999999ADDGA1021+018001999GF102991999999999999999999MA1100811999999REMMET051METAR LSZC 141450Z 07004KT 9999 FEW060 30/21 Q1008;
0159068065999992010071505504+46967+008400FM-15+0450LSZC V0209999V001510117019N0112651N1+01701+01501999999ADDGA1021+005101999GA2071+011701999GF107991999999999999999999MA1101801999999MW1651REMMET068METAR LSZC 150550Z VRB03KT 9999 4000E +RA FEW017 BKN039 17/15 Q1018;
0125068065999992010071506204+46967+008400FM-15+0450LSZC V0209999V001010120019N0112651N1+01801+01601999999ADDGA1071+012001999GF107991999999999999999999MA1101801999999REMMET056METAR LSZC 150620Z VRB02KT 9999 BKN040 18/16 Q1018 RERA;
0129068065999992010071506504+46967+008400FM-15+0450LSZC V0209999V001010126019N0070001N1+01701+01501999999ADDGA1081+012601999GF108991999999999999999999MA1101801999999MW1631REMMET054METAR LSZC 150650Z VRB02KT 7000 RA OVC042 17/15 Q1018;
0153068065999992010071507204+46967+008400FM-15+0450LSZC V0209999V000510120019N0112651N1+01801+01601999999ADDGA1021+003601999GA2071+012001999GF107991999999999999999999MA1101801999999MW1611REMMET062METAR LSZC 150720Z VRB01KT 9999 -RA FEW012 BKN040 18/16 Q1018;
0143068065999992010071511204+46967+008400FM-15+0450LSZC V0209999V001010132019N0112651N1+02201+01601999999ADDGA1021+009001999GA2071+013201999GF107991999999999999999999MA1101801999999REMMET058METAR LSZC 151120Z VRB02KT 9999 FEW030 BKN044 22/16 Q1018;
0143068065999992010071511504+46967+008400FM-15+0450LSZC V0209999V000512200019N0112651N1+02301+01601999999ADDGA1021+009001999GA2041+013201999GF104991999999999999999999MA1101691999999REMMET058METAR LSZC 151150Z VRB01KT 9999 FEW030 SCT044 23/16 Q1017;
0128068065999992010071513204+46967+008400FM-15+0450LSZC V0200601N002112200019N0112651N1+02401+01501999999ADDGA1021+013201999GF102991999999999999999999MA1101691999999REMMET059METAR LSZC 151320Z 06004KT 010V100 9999 FEW044 24/15 Q1017;
0128068065999992010071513504+46967+008400FM-15+0450LSZC V0200601N001512200019N0112651N1+02401+01501999999ADDGA1021+013201999GF102991999999999999999999MA1101691999999REMMET059METAR LSZC 151350Z 06003KT 340V120 9999 FEW044 24/15 Q1017;
0128068065999992010071514204+46967+008400FM-15+0450LSZC V0200701N002112200019N0112651N1+02401+01501999999ADDGA1021+013201999GF102991999999999999999999MA1101691999999REMMET059METAR LSZC 151420Z 07004KT 050V110 9999 FEW044 24/15 Q1017;
0120068065999992010071605504+46967+008400FM-15+0450LSZC V0209999V000510300019N0112651N1+02001+01701999999ADDGA1071+030001999GF107991999999999999999999MA1101691999999REMMET051METAR LSZC 160550Z VRB01KT 9999 BKN100 20/17 Q1017;
0120068065999992010071606204+46967+008400FM-15+0450LSZC V0209999V001012200019N0112651N1+02201+01701999999ADDGA1041+030001999GF104991999999999999999999MA1101691999999REMMET051METAR LSZC 160620Z VRB02KT 9999 SCT100 22/17 Q1017;
0072068065999992010071606504+46967+008400FM-15+0450LSZC V0209999V000519999999Y0099001N1+02301+01801999999ADDMA1101801999999REMMET045METAR LSZC 160650Z VRB01KT CAVOK 23/18 Q1018;
0072068065999992010071607204+46967+008400FM-15+0450LSZC V0209999V001019999999Y0099001N1+02301+01801999999ADDMA1101801999999REMMET045METAR LSZC 160720Z VRB02KT CAVOK 23/18 Q1018;
0072068065999992010071607504+46967+008400FM-15+0450LSZC V0209999V001019999999Y0099001N1+02301+01801999999ADDMA1101691999999REMMET045METAR LSZC 160750Z VRB02KT CAVOK 23/18 Q1017;
0128068065999992010071608204+46967+008400FM-15+0450LSZC V0200601N002112200019N0112651N1+02301+01801999999ADDGA1021+015001999GF102991999999999999999999MA1101691999999REMMET059METAR LSZC 160820Z 06004KT 020V100 9999 FEW055 23/18 Q1017;
0120068065999992010071608504+46967+008400FM-15+0450LSZC V0209999V001512200019N0112651N1+02401+01801999999ADDGA1021+015001999GF102991999999999999999999MA1101691999999REMMET051METAR LSZC 160850Z VRB03KT 9999 FEW055 24/18 Q1017;
0128068065999992010071609504+46967+008400FM-15+0450LSZC V0200501N002112200019N0112651N1+02501+01801999999ADDGA1021+015001999GF102991999999999999999999MA1101691999999REMMET059METAR LSZC 160950Z 05004KT 360V090 9999 FEW055 25/18 Q1017;
0128068065999992010071611204+46967+008400FM-15+0450LSZC V0200901N002612200019N0112651N1+02601+02001999999ADDGA1021+015001999GF102991999999999999999999MA1101691999999REMMET059METAR LSZC 161120Z 09005KT 050V120 9999 FEW055 26/20 Q1017;
0128068065999992010071612504+46967+008400FM-15+0450LSZC V0200901N001512200019N0112651N1+02801+01901999999ADDGA1021+015001999GF102991999999999999999999MA1101591999999REMMET059METAR LSZC 161250Z 09003KT 050V150 9999 FEW055 28/19 Q1016;
0120068065999992010071613204+46967+008400FM-15+0450LSZC V0200701N002112200019N0112651N1+02801+02101999999ADDGA1021+015001999GF102991999999999999999999MA1101591999999REMMET051METAR LSZC 161320Z 07004KT 9999 FEW055 28/21 Q1016;
0128068065999992010071613504+46967+008400FM-15+0450LSZC V0200701N002112200019N0112651N1+02801+02001999999ADDGA1021+015001999GF102991999999999999999999MA1101591999999REMMET059METAR LSZC 161350Z 07004KT 030V100 9999 FEW055 28/20 Q1016;
0128068065999992010071614204+46967+008400FM-15+0450LSZC V0200701N001512200019N0112651N1+02901+01901999999ADDGA1021+015001999GF102991999999999999999999MA1101591999999REMMET059METAR LSZC 161420Z 07003KT 030V110 9999 FEW055 29/19 Q1016;
0120068065999992010071614504+46967+008400FM-15+0450LSZC V0200701N002112200019N0112651N1+02901+02001999999ADDGA1021+015001999GF102991999999999999999999MA1101591999999REMMET051METAR LSZC 161450Z 07004KT 9999 FEW055 29/20 Q1016;
0143068065999992010071707204+46967+008400FM-15+0450LSZC V0209999V002112200019N0112651N1+02201+01701999999ADDGA1021+009001999GA2041+024001999GF104991999999999999999999MA1102001999999REMMET058METAR LSZC 170720Z VRB04KT 9999 FEW030 SCT080 22/17 Q1020;
0128068065999992010071711204+46967+008400FM-15+0450LSZC V0202101N001510105019N0112651N1+02201+01601999999ADDGA1081+010501999GF108991999999999999999999MA1102101999999REMMET059METAR LSZC 171120Z 21003KT 150V290 9999 OVC035 22/16 Q1021;
0120068065999992010071808504+46967+008400FM-15+0450LSZC V0209999V002112200019N0112651N1+02001+01401999999ADDGA1041+009301999GF104991999999999999999999MA1102611999999REMMET051METAR LSZC 180850Z VRB04KT 9999 SCT031 20/14 Q1026;
0128068065999992010071809204+46967+008400FM-15+0450LSZC V0200101N002612200019N0112651N1+02001+01301999999ADDGA1041+009301999GF104991999999999999999999MA1102611999999REMMET059METAR LSZC 180920Z 01005KT 320V060 9999 SCT031 20/13 Q1026;
0128068065999992010071809504+46967+008400FM-15+0450LSZC V0203601N002612200019N0112651N1+02101+01301999999ADDGA1041+009301999GF104991999999999999999999MA1102611999999REMMET059METAR LSZC 180950Z 36005KT 280V070 9999 SCT031 21/13 Q1026;
0120068065999992010071811504+46967+008400FM-15+0450LSZC V0209999V001512200019N0112651N1+02301+01301999999ADDGA1041+010801999GF104991999999999999999999MA1102611999999REMMET051METAR LSZC 181150Z VRB03KT 9999 SCT036 23/13 Q1026;
0120068065999992010071812204+46967+008400FM-15+0450LSZC V0200101N002112200019N0112651N1+02201+01201999999ADDGA1041+012001999GF104991999999999999999999MA1102511999999REMMET051METAR LSZC 181220Z 01004KT 9999 SCT040 22/12 Q1025;
0128068065999992010071813204+46967+008400FM-15+0450LSZC V0200901N002112200019N0112651N1+02301+01301999999ADDGA1041+012001999GF104991999999999999999999MA1102511999999REMMET059METAR LSZC 181320Z 09004KT 020V140 9999 SCT040 23/13 Q1025;
0120068065999992010071813504+46967+008400FM-15+0450LSZC V0209999V001512200019N0112651N1+02301+01301999999ADDGA1041+014701999GF104991999999999999999999MA1102401999999REMMET051METAR LSZC 181350Z VRB03KT 9999 SCT049 23/13 Q1024;
0120068065999992010071814204+46967+008400FM-15+0450LSZC V0209999V001012200019N0112651N1+02401+01201999999ADDGA1041+014701999GF104991999999999999999999MA1102401999999REMMET051METAR LSZC 181420Z VRB02KT 9999 SCT049 24/12 Q1024;
0120068065999992010071814504+46967+008400FM-15+0450LSZC V0209999V001512200019N0112651N1+02401+01301999999ADDGA1041+014701999GF104991999999999999999999MA1102401999999REMMET051METAR LSZC 181450Z VRB03KT 9999 SCT049 24/13 Q1024;
0120068065999992010071907204+46967+008400FM-15+0450LSZC V0209999V001512200019N0112651N1+01801+01401999999ADDGA1021+006001999GF102991999999999999999999MA1102201999999REMMET051METAR LSZC 190720Z VRB03KT 9999 FEW020 18/14 Q1022;
0120068065999992010071907504+46967+008400FM-15+0450LSZC V0209999V001512200019N0112651N1+01901+01401999999ADDGA1021+006001999GF102991999999999999999999MA1102201999999REMMET051METAR LSZC 190750Z VRB03KT 9999 FEW020 19/14 Q1022;
0128068065999992010071914204+46967+008400FM-15+0450LSZC V0203301N002112200019N0112651N1+02601+01501999999ADDGA1021+006001999GF102991999999999999999999MA1102001999999REMMET059METAR LSZC 191420Z 33004KT 290V070 9999 FEW020 26/15 Q1020;
0072068065999992010072005504+46967+008400FM-15+0450LSZC V0202501N001019999999Y0099001N1+01801+01501999999ADDMA1101691999999REMMET045METAR LSZC 200550Z 25002KT CAVOK 18/15 Q1017;
0072068065999992010072007204+46967+008400FM-15+0450LSZC V0209999V001019999999Y0099001N1+02001+01601999999ADDMA1101691999999REMMET045METAR LSZC 200720Z VRB02KT CAVOK 20/16 Q1017;
0080068065999992010072008204+46967+008400FM-15+0450LSZC V0200601N002119999999Y0099001N1+02101+01601999999ADDMA1101591999999REMMET053METAR LSZC 200820Z 06004KT 350V100 CAVOK 21/16 Q1016;
0080068065999992010072008504+46967+008400FM-15+0450LSZC V0200801N001519999999Y0099001N1+02201+01601999999ADDMA1101591999999REMMET053METAR LSZC 200850Z 08003KT 020V110 CAVOK 22/16 Q1016;
0072068065999992010072009504+46967+008400FM-15+0450LSZC V0209999V001519999999Y0099001N1+02301+01701999999ADDMA1101591999999REMMET045METAR LSZC 200950Z VRB03KT CAVOK 23/17 Q1016;
0128068065999992010072011204+46967+008400FM-15+0450LSZC V0200501N002612200019N0112651N1+02401+01701999999ADDGA1021+013501999GF102991999999999999999999MA1101491999999REMMET059METAR LSZC 201120Z 05005KT 350V090 9999 FEW045 24/17 Q1015;
0128068065999992010072012204+46967+008400FM-15+0450LSZC V0200801N002112200019N0112651N1+02601+01601999999ADDGA1021+013501999GF102991999999999999999999MA1101391999999REMMET059METAR LSZC 201220Z 08004KT 040V120 9999 FEW045 26/16 Q1014;
0128068065999992010072013204+46967+008400FM-15+0450LSZC V0201001N002112200019N0112651N1+02601+01701999999ADDGA1021+013501999GF102991999999999999999999MA1101391999999REMMET059METAR LSZC 201320Z 10004KT 070V160 9999 FEW045 26/17 Q1014;
0128068065999992010072013504+46967+008400FM-15+0450LSZC V0201001N002112200019N0112651N1+02701+01801999999ADDGA1021+013501999GF102991999999999999999999MA1101291999999REMMET059METAR LSZC 201350Z 10004KT 050V170 9999 FEW045 27/18 Q1013;
0128068065999992010072014204+46967+008400FM-15+0450LSZC V0201001N002612200019N0112651N1+02701+01701999999ADDGA1021+013501999GF102991999999999999999999MA1101291999999REMMET059METAR LSZC 201420Z 10005KT 070V130 9999 FEW045 27/17 Q1013;
0128068065999992010072014504+46967+008400FM-15+0450LSZC V0200801N002112200019N0112651N1+02701+01701999999ADDGA1021+013501999GF102991999999999999999999MA1101291999999REMMET059METAR LSZC 201450Z 08004KT 020V170 9999 FEW045 27/17 Q1013;
0120068065999992010072106504+46967+008400FM-15+0450LSZC V0209999V001012200019N0112651N1+02301+01701999999ADDGA1021+030001999GF102991999999999999999999MA1101191999999REMMET051METAR LSZC 210650Z VRB02KT 9999 FEW100 23/17 Q1012;
0128068065999992010072107204+46967+008400FM-15+0450LSZC V0200901N001512200019N0112651N1+02301+01801999999ADDGA1021+030001999GF102991999999999999999999MA1101191999999REMMET059METAR LSZC 210720Z 09003KT 030V150 9999 FEW100 23/18 Q1012;
0120068065999992010072107504+46967+008400FM-15+0450LSZC V0209999V001012200019N0112651N1+02401+01801999999ADDGA1021+030001999GF102991999999999999999999MA1101191999999REMMET051METAR LSZC 210750Z VRB02KT 9999 FEW100 24/18 Q1012;
0128068065999992010072109204+46967+008400FM-15+0450LSZC V0200701N002612200019N0112651N1+02501+01801999999ADDGA1041+030001999GF104991999999999999999999MA1101191999999REMMET059METAR LSZC 210920Z 07005KT 020V100 9999 SCT100 25/18 Q1012;
0120068065999992010072109504+46967+008400FM-15+0450LSZC V0200701N002112200019N0112651N1+02501+01901999999ADDGA1041+030001999GF104991999999999999999999MA1101191999999REMMET051METAR LSZC 210950Z 07004KT 9999 SCT100 25/19 Q1012;
0128068065999992010072110204+46967+008400FM-15+0450LSZC V0200401N003112200019N0112651N1+02601+01901999999ADDGA1021+024001999GF102991999999999999999999MA1101191999999REMMET059METAR LSZC 211020Z 04006KT 360V080 9999 FEW080 26/19 Q1012;
0128068065999992010072112204+46967+008400FM-15+0450LSZC V0200801N001512200019N0112651N1+02801+01801999999ADDGA1021+024001999GF102991999999999999999999MA1101081999999REMMET059METAR LSZC 211220Z 08003KT 040V120 9999 FEW080 28/18 Q1011;
0120068065999992010072113204+46967+008400FM-15+0450LSZC V0209999V001012200019N0112651N1+03001+01501999999ADDGA1021+024001999GF102991999999999999999999MA1101081999999REMMET051METAR LSZC 211320Z VRB02KT 9999 FEW080 30/15 Q1011;
0143068065999992010072205504+46967+008400FM-15+0450LSZC V0209999C000012200019N0112651N1+02001+01601999999ADDGA1021+018001999GA2041+036001999GF104991999999999999999999MA1101491999999REMMET058METAR LSZC 220550Z 00000KT 9999 FEW060 SCT120 20/16 Q1015;
0151068065999992010072206204+46967+008400FM-15+0450LSZC V0200701N001512200019N0112651N1+02101+01701999999ADDGA1021+018001999GA2041+036001999GF104991999999999999999999MA1101491999999REMMET066METAR LSZC 220620Z 07003KT 020V110 9999 FEW060 SCT120 21/17 Q1015;
0120068065999992010072206504+46967+008400FM-15+0450LSZC V0200701N001512200019N0112651N1+02001+01601999999ADDGA1021+018001999GF102991999999999999999999MA1101491999999REMMET051METAR LSZC 220650Z 07003KT 9999 FEW060 20/16 Q1015;
0120068065999992010072207204+46967+008400FM-15+0450LSZC V0209999V001512200019N0112651N1+02201+01701999999ADDGA1021+018001999GF102991999999999999999999MA1101491999999REMMET051METAR LSZC 220720Z VRB03KT 9999 FEW060 22/17 Q1015;
0120068065999992010072207504+46967+008400FM-15+0450LSZC V0209999V001012200019N0112651N1+02201+01601999999ADDGA1021+018001999GF102991999999999999999999MA1101491999999REMMET051METAR LSZC 220750Z VRB02KT 9999 FEW060 22/16 Q1015;
0120068065999992010072208204+46967+008400FM-15+0450LSZC V0209999V000512200019N0112651N1+02201+01601999999ADDGA1021+018001999GF102991999999999999999999MA1101391999999REMMET051METAR LSZC 220820Z VRB01KT 9999 FEW060 22/16 Q1014;
0128068065999992010072208504+46967+008400FM-15+0450LSZC V0200301N001512200019N0112651N1+02201+01601999999ADDGA1021+018001999GF102991999999999999999999MA1101391999999REMMET059METAR LSZC 220850Z 03003KT 330V100 9999 FEW060 22/16 Q1014;
0120068065999992010072209504+46967+008400FM-15+0450LSZC V0209999V001012200019N0112651N1+02401+01801999999ADDGA1041+018001999GF104991999999999999999999MA1101391999999REMMET051METAR LSZC 220950Z VRB02KT 9999 SCT060 24/18 Q1014;
0120068065999992010072210504+46967+008400FM-15+0450LSZC V0209999V001012200019N0112651N1+02601+01801999999ADDGA1021+015001999GF102991999999999999999999MA1101391999999REMMET051METAR LSZC 221050Z VRB02KT 9999 FEW050 26/18 Q1014;
0120068065999992010072211204+46967+008400FM-15+0450LSZC V0209999V001012200019N0112651N1+02601+01701999999ADDGA1021+013201999GF102991999999999999999999MA1101391999999REMMET051METAR LSZC 221120Z VRB02KT 9999 FEW044 26/17 Q1014;
0120068065999992010072211504+46967+008400FM-15+0450LSZC V0209999V001012200019N0112651N1+02601+01901999999ADDGA1021+013201999GF102991999999999999999999MA1101391999999REMMET051METAR LSZC 221150Z VRB02KT 9999 FEW044 26/19 Q1014;
0128068065999992010072212504+46967+008400FM-15+0450LSZC V0200801N002112200019N0112651N1+02601+01801999999ADDGA1041+013501999GF104991999999999999999999MA1101291999999REMMET059METAR LSZC 221250Z 08004KT 350V160 9999 SCT045 26/18 Q1013;
0151068065999992010072213204+46967+008400FM-15+0450LSZC V0200401N002110180019N0112651N1+02601+01801999999ADDGA1021+012001999GA2071+018001999GF107991999999999999999999MA1101291999999REMMET066METAR LSZC 221320Z 04004KT 330V120 9999 FEW040 BKN062 26/18 Q1013;
0190068065999992010072214204+46967+008400FM-15+0450LSZC V0203201N01031014101CN0112651N1+02201+01601999999ADDGA1021+003001999GA2041+014101999GA3071+018001999GF107991999999999999999999MA1101391999999OC101751REMMET081METAR LSZC 221420Z 32020G34KT 250V350 9999 FEW010 SCT047 BKN060 22/16 Q1014 RERA;
0148068065999992010072214504+46967+008400FM-15+0450LSZC V0203101N005710054019N0025001N1+02101+01801999999ADDGA1091+005401999GF109991999999000251999999MA1101491999999MW1651OC101131REMMET065METAR LSZC 221450Z 31011G22KT 260V350 2500 +RA VV018 21/18 Q1015;
0176068065999992010072305204+46967+008400FM-15+0450LSZC V0209999V000510090019N0050001N1+01801+01701999999ADDGA1041+006001999GA2071+009001999GA3081+018001999GF108991999999999999999999MA1101691999999MW1611REMMET069METAR LSZC 230520Z VRB01KT 5000 -RA SCT020 BKN030 OVC060 18/17 Q1017;
0176068065999992010072305504+46967+008400FM-15+0450LSZC V0209999V000510105019N0050001N1+01801+01701999999ADDGA1041+005401999GA2071+010501999GA3081+018001999GF108991999999999999999999MA1101691999999MW1611REMMET069METAR LSZC 230550Z VRB01KT 5000 -RA SCT018 BKN035 OVC060 18/17 Q1017;
0176068065999992010072306204+46967+008400FM-15+0450LSZC V0202701N002110105019N0050001N1+01801+01701999999ADDGA1041+005401999GA2071+010501999GA3081+018001999GF108991999999999999999999MA1101691999999MW1611REMMET069METAR LSZC 230620Z 27004KT 5000 -RA SCT018 BKN035 OVC060 18/17 Q1017;
0120068065999992010072307204+46967+008400FM-15+0450LSZC V0209999V000510060019N0070001N1+01901+01701999999ADDGA1071+006001999GF107991999999999999999999MA1101691999999REMMET051METAR LSZC 230720Z VRB01KT 7000 BKN020 19/17 Q1017;
0143068065999992010072307504+46967+008400FM-15+0450LSZC V0209999V000510060019N0070001N1+01901+01701999999ADDGA1021+004801999GA2071+006001999GF107991999999999999999999MA1101691999999REMMET058METAR LSZC 230750Z VRB01KT 7000 FEW016 BKN020 19/17 Q1017;
0160068065999992010072308204+46967+008400FM-15+0450LSZC V0202101N002610072019N0035001N1+01801+01601999999ADDGA1041+004801999GA2071+007201999GF107991999999999999999999MA1101691999999MW1631REMMET069METAR LSZC 230820Z 21005KT 170V270 3500 RA SCT016 BKN024 18/16 Q1017;
0152068065999992010072309204+46967+008400FM-15+0450LSZC V0202401N001510057019N0040001N1+01801+01701999999ADDGA1041+003601999GA2071+005701999GF107991999999999999999999MA1101691999999MW1631REMMET061METAR LSZC 230920Z 24003KT 4000 RA SCT012 BKN019 18/17 Q1017;
0175068065999992010072309504+46967+008400FM-15+0450LSZC V0209999V001010066019N0050001N1+01801+01601999999ADDGA1041+003901999GA2071+006601999GA3081+015001999GF108991999999999999999999MA1101691999999MW1631REMMET068METAR LSZC 230950Z VRB02KT 5000 RA SCT013 BKN022 OVC056 18/16 Q1017;
0184068065999992010072310204+46967+008400FM-15+0450LSZC V0202101N002110066019N0060001N1+01901+01701999999ADDGA1041+003901999GA2071+006601999GA3081+015001999GF108991999999999999999999MA1101691999999MW1611REMMET077METAR LSZC 231020Z 21004KT 180V250 6000 -RA SCT013 BKN022 OVC056 19/17 Q1017;
0184068065999992010072311204+46967+008400FM-15+0450LSZC V0203101N002110066019N0060001N1+01801+01501999999ADDGA1041+003901999GA2071+006601999GA3081+015001999GF108991999999999999999999MA1101691999999MW1611REMMET077METAR LSZC 231120Z 31004KT 270V350 6000 -RA SCT013 BKN022 OVC056 18/15 Q1017;
0183068065999992010072312204+46967+008400FM-15+0450LSZC V0203201N005110066019N0040001N1+01701+01301999999ADDGA1041+003901999GA2071+006601999GA3081+010501999GF108991999999999999999999MA1101801999999MW1631REMMET076METAR LSZC 231220Z 32010KT 290V360 4000 RA SCT013 BKN022 OVC035 17/13 Q1018;
0175068065999992010072312504+46967+008400FM-15+0450LSZC V0209999V002110066019N0040001N1+01701+01401999999ADDGA1041+003901999GA2071+006601999GA3081+010501999GF108991999999999999999999MA1101801999999MW1631REMMET068METAR LSZC 231250Z VRB04KT 4000 RA SCT013 BKN022 OVC035 17/14 Q1018;
0152068065999992010072313204+46967+008400FM-15+0450LSZC V0209999V001510060019N0040001N1+01701+01501999999ADDGA1041+003301999GA2081+006001999GF108991999999999999999999MA1101801999999MW1631REMMET061METAR LSZC 231320Z VRB03KT 4000 RA SCT011 OVC020 17/15 Q1018;
0187068065999992010072313504+46967+008400FM-15+0450LSZC V0209999V004110150019N0070001N1+01701+01301999999ADDGA1041+005101999GA2071+015001999GA3081+021001999GF108991999999999999999999MA1101901999999MW1611OC101391REMMET072METAR LSZC 231350Z VRB08G27KT 7000 -RA SCT017 BKN056 OVC079 17/13 Q1019;
0175068065999992010072314504+46967+008400FM-15+0450LSZC V0209999V00151009901CN0040001N1+01601+01401999999ADDGA1021+003901999GA2041+009901999GA3081+013801999GF108991999999999999999999MA1102001999999MW1631REMMET068METAR LSZC 231450Z VRB03KT 4000 RA FEW013 SCT033 OVC046 16/14 Q1020;
0185068065999992010072406504+46967+008400FM-15+0450LSZC V0202501N002610135019N0050001N1+01301+01101999999ADDGA1021+006001999GA2071+013501999GA3081+015001999GF108991999999999999999999MA1102301999999MW1161REMMET078METAR LSZC 240650Z 25005KT 230V290 5000 VCSH FEW020 BKN045 OVC055 13/11 Q1023;
0183068065999992010072407204+46967+008400FM-15+0450LSZC V0202501N003110135019N0050001N1+01301+01101999999ADDGA1021+006001999GA2071+013501999GA3081+015001999GF108991999999999999999999MA1102301999999MW1631REMMET076METAR LSZC 240720Z 25006KT 210V300 5000 RA FEW020 BKN045 OVC055 13/11 Q1023;
0175068065999992010072407504+46967+008400FM-15+0450LSZC V0209999V001010135019N0050001N1+01201+01101999999ADDGA1021+006001999GA2071+013501999GA3081+015001999GF108991999999999999999999MA1102301999999MW1631REMMET068METAR LSZC 240750Z VRB02KT 5000 RA FEW020 BKN045 OVC055 12/11 Q1023;
0175068065999992010072408204+46967+008400FM-15+0450LSZC V0202801N002110135019N0050001N1+01301+01101999999ADDGA1021+006001999GA2071+013501999GA3081+015001999GF108991999999999999999999MA1102301999999MW1631REMMET068METAR LSZC 240820Z 28004KT 5000 RA FEW020 BKN045 OVC055 13/11 Q1023;
0183068065999992010072408504+46967+008400FM-15+0450LSZC V0202501N003110135019N0050001N1+01301+01101999999ADDGA1021+006001999GA2071+013501999GA3081+015001999GF108991999999999999999999MA1102301999999MW1631REMMET076METAR LSZC 240850Z 25006KT 210V290 5000 RA FEW020 BKN045 OVC055 13/11 Q1023;
0153068065999992010072409504+46967+008400FM-15+0450LSZC V0209999V000511200019N0080001N1+01301+01101999999ADDGA1021+009001999GA2081+120001999GF108991999999999999999999MA1102301999999MW1611REMMET062METAR LSZC 240950Z VRB01KT 8000 -RA FEW030 OVC440 13/11 Q1023;
0153068065999992010072410204+46967+008400FM-15+0450LSZC V0209999V000511200019N0080001N1+01301+01201999999ADDGA1021+009001999GA2081+120001999GF108991999999999999999999MA1102301999999MW1611REMMET062METAR LSZC 241020Z VRB01KT 8000 -RA FEW030 OVC440 13/12 Q1023;
0153068065999992010072410504+46967+008400FM-15+0450LSZC V0209999C000010105019N0040001N1+01301+01101999999ADDGA1021+002101999GA2081+010501999GF108991999999999999999999MA1102301999999MW1611REMMET062METAR LSZC 241050Z 00000KT 4000 -RA FEW007 OVC035 13/11 Q1023;
0158068065999992010072411204+46967+008400FM-15+0450LSZC V0209999V001010099019N0070001N1+01301+01201999999ADDGA1021+002101999GA2081+009901999GF108991999999999999999999MA1102301999999MW1631REMMET067METAR LSZC 241120Z VRB02KT 7000 3000E RA FEW007 OVC033 13/12 Q1023;
0166068065999992010072412204+46967+008400FM-15+0450LSZC V0202601N001510099019N0070001N1+01301+01201999999ADDGA1021+002101999GA2081+009901999GF108991999999999999999999MA1102301999999MW1631REMMET075METAR LSZC 241220Z 26003KT 220V290 7000 3000E RA FEW007 OVC033 13/12 Q1023;
0143068065999992010072413504+46967+008400FM-15+0450LSZC V0209999V000510120019N0112651N1+01401+01201999999ADDGA1021+005401999GA2081+012001999GF108991999999999999999999MA1102301999999REMMET058METAR LSZC 241350Z VRB01KT 9999 FEW018 OVC040 14/12 Q1023;
0143068065999992010072414204+46967+008400FM-15+0450LSZC V0209999V000510132019N0112651N1+01401+01201999999ADDGA1021+005401999GA2081+013201999GF108991999999999999999999MA1102301999999REMMET058METAR LSZC 241420Z VRB01KT 9999 FEW018 OVC044 14/12 Q1023;
0143068065999992010072414504+46967+008400FM-15+0450LSZC V0209999C000010126019N0070001N1+01401+01201999999ADDGA1021+003301999GA2081+012601999GF108991999999999999999999MA1102301999999REMMET058METAR LSZC 241450Z 00000KT 7000 FEW011 OVC042 14/12 Q1023;
0153068065999992010072415204+46967+008400FM-15+0450LSZC V0209999V000510132019N0090001N1+01401+01201999999ADDGA1021+003901999GA2081+013201999GF108991999999999999999999MA1102301999999MW1611REMMET062METAR LSZC 241520Z VRB01KT 9000 -RA FEW013 OVC044 14/12 Q1023;
0148068065999992010072415504+46967+008400FM-15+0450LSZC V0209999C000010141019N0090001N1+01401+01201999999ADDGA1021+003901999GA2081+014101999GF108991999999999999999999MA1102301999999REMMET063METAR LSZC 241550Z 00000KT 9000 FEW013 OVC047 14/12 Q1023 RERA;
0120068065999992010072606204+46967+008400FM-15+0450LSZC V0209999V001010210019N0090001N1+01401+01101999999ADDGA1081+021001999GF108991999999999999999999MA1101591999999REMMET051METAR LSZC 260620Z VRB02KT 9000 OVC070 14/11 Q1016;
0120068065999992010072606504+46967+008400FM-15+0450LSZC V0202701N001010210019N0090001N1+01501+01101999999ADDGA1071+021001999GF107991999999999999999999MA1101591999999REMMET051METAR LSZC 260650Z 27002KT 9000 BKN070 15/11 Q1016;
0120068065999992010072607504+46967+008400FM-15+0450LSZC V0209999V000510210019N0090001N1+01601+01101999999ADDGA1071+021001999GF107991999999999999999999MA1101591999999REMMET051METAR LSZC 260750Z VRB01KT 9000 BKN070 16/11 Q1016;
0151068065999992010072608504+46967+008400FM-15+0450LSZC V0200801N001510180019N0112651N1+01601+01101999999ADDGA1021+012001999GA2081+018001999GF108991999999999999999999MA1101591999999REMMET066METAR LSZC 260850Z 08003KT 050V120 9999 FEW040 OVC067 16/11 Q1016;
0166068065999992010072609204+46967+008400FM-15+0450LSZC V0209999V001010180019N0112651N1+01701+01101999999ADDGA1021+012001999GA2071+018001999GA3081+027001999GF108991999999999999999999MA1101591999999REMMET065METAR LSZC 260920Z VRB02KT 9999 FEW040 BKN067 OVC095 17/11 Q1016;
0166068065999992010072609504+46967+008400FM-15+0450LSZC V0209999V001010180019N0112651N1+01701+01101999999ADDGA1021+012001999GA2071+018001999GA3081+027001999GF108991999999999999999999MA1101591999999REMMET065METAR LSZC 260950Z VRB02KT 9999 FEW040 BKN067 OVC095 17/11 Q1016;
0120068065999992010072612204+46967+008400FM-15+0450LSZC V0209999V001010135019N0112651N1+02001+01201999999ADDGA1071+013501999GF107991999999999999999999MA1101491999999REMMET051METAR LSZC 261220Z VRB02KT 9999 BKN045 20/12 Q1015;
0128068065999992010072612504+46967+008400FM-15+0450LSZC V0200601N002110135019N0112651N1+02001+01201999999ADDGA1071+013501999GF107991999999999999999999MA1101491999999REMMET059METAR LSZC 261250Z 06004KT 350V120 9999 BKN045 20/12 Q1015;
0120068065999992010072613204+46967+008400FM-15+0450LSZC V0200601N002110135019N0112651N1+02001+01301999999ADDGA1071+013501999GF107991999999999999999999MA1101491999999REMMET051METAR LSZC 261320Z 06004KT 9999 BKN045 20/13 Q1015;
0151068065999992010072613504+46967+008400FM-15+0450LSZC V0200601N002610270019N0112651N1+02001+01101999999ADDGA1041+015001999GA2071+027001999GF107991999999999999999999MA1101391999999REMMET066METAR LSZC 261350Z 06005KT 030V100 9999 SCT050 BKN090 20/11 Q1014;
0148068065999992010072614204+46967+008400FM-15+0450LSZC V0203201N004110063019N0030001N1+01701+01301999999ADDGA1091+006301999GF109991999999000251999999MA1101491999999MW1651OC100981REMMET065METAR LSZC 261420Z 32008G19KT 270V360 3000 +RA VV021 17/13 Q1015;
0148068065999992010072614504+46967+008400FM-15+0450LSZC V0209999V001510240019N0070001N1+01701+01401999999ADDGA1021+015001999GA2071+024001999GF107991999999999999999999MA1101491999999REMMET063METAR LSZC 261450Z VRB03KT 7000 FEW050 BKN084 17/14 Q1015 RERA;
0153068065999992010072705504+46967+008400FM-15+0450LSZC V0202701N003110150019N0080001N1+01501+01201999999ADDGA1041+005401999GA2071+015001999GF107991999999999999999999MA1101801999999MW1611REMMET062METAR LSZC 270550Z 27006KT 8000 -RA SCT018 BKN054 15/12 Q1018;
0171068065999992010072706204+46967+008400FM-15+0450LSZC V0202801N00361005401CN0070001N1+01501+01201999999ADDGA1021+003001999GA2041+005401999GA3071+015001999GF107991999999999999999999MA1101801999999REMMET070METAR LSZC 270620Z 28007KT 7000 FEW010 SCT018 BKN054 15/12 Q1018 RERA;
0161068065999992010072706504+46967+008400FM-15+0450LSZC V0202301N004610081019N0035001N1+01401+01201999999ADDGA1021+003001999GA2071+008101999GF107991999999999999999999MA1101801999999MW1651REMMET070METAR LSZC 270650Z 23009KT 200V260 3500 +RA FEW010 BKN027 14/12 Q1018;
0171068065999992010072707204+46967+008400FM-15+0450LSZC V0202701N005110096019N0090001N1+01401+01201999999ADDGA1021+003001999GA2071+009601999GA3071+021001999GF107991999999999999999999MA1101901999999REMMET070METAR LSZC 270720Z 27010KT 9000 FEW010 BKN032 BKN075 14/12 Q1019 RERA;
0180068065999992010072707504+46967+008400FM-15+0450LSZC V0202501N00311009601CN0112651N1+01501+01301999999ADDGA1021+003001999GA2041+009601999GA3071+021001999GF107991999999999999999999MA1101901999999REMMET079METAR LSZC 270750Z 25006KT 230V320 9999 4000E FEW010 SCT032 BKN070 15/13 Q1019;
0151068065999992010072711204+46967+008400FM-15+0450LSZC V0200601N002610210019N0112651N1+01801+01301999999ADDGA1041+010501999GA2071+021001999GF107991999999999999999999MA1102001999999REMMET066METAR LSZC 271120Z 06005KT 010V100 9999 SCT035 BKN070 18/13 Q1020;
0143068065999992010072711504+46967+008400FM-15+0450LSZC V0200701N003610210019N0112651N1+01801+01301999999ADDGA1041+010501999GA2071+021001999GF107991999999999999999999MA1101901999999REMMET058METAR LSZC 271150Z 07007KT 9999 SCT035 BKN070 18/13 Q1019;
0143068065999992010072712504+46967+008400FM-15+0450LSZC V0200701N004112200019N0112651N1+01901+01201999999ADDGA1021+012001999GA2041+018001999GF104991999999999999999999MA1101901999999REMMET058METAR LSZC 271250Z 07008KT 9999 FEW040 SCT060 19/12 Q1019;
0120068065999992010072713204+46967+008400FM-15+0450LSZC V0200701N004612200019N0112651N1+02001+01101999999ADDGA1041+013801999GF104991999999999999999999MA1101901999999REMMET051METAR LSZC 271320Z 07009KT 9999 SCT046 20/11 Q1019;
0128068065999992010072713504+46967+008400FM-15+0450LSZC V0200701N003612200019N0112651N1+01901+01201999999ADDGA1041+013801999GF104991999999999999999999MA1101901999999REMMET059METAR LSZC 271350Z 07007KT 030V100 9999 SCT046 19/12 Q1019;
0120068065999992010072805504+46967+008400FM-15+0450LSZC V0209999V000512200019N0112651N1+01401+01201999999ADDGA1021+030001999GF102991999999999999999999MA1102001999999REMMET051METAR LSZC 280550Z VRB01KT 9999 FEW100 14/12 Q1020;
0120068065999992010072806204+46967+008400FM-15+0450LSZC V0209999V000512200019N0112651N1+01601+01201999999ADDGA1021+030001999GF102991999999999999999999MA1102001999999REMMET051METAR LSZC 280620Z VRB01KT 9999 FEW100 16/12 Q1020;
0120068065999992010072806504+46967+008400FM-15+0450LSZC V0209999V001012200019N0112651N1+01801+01201999999ADDGA1041+030001999GF104991999999999999999999MA1102001999999REMMET051METAR LSZC 280650Z VRB02KT 9999 SCT100 18/12 Q1020;
0120068065999992010072807504+46967+008400FM-15+0450LSZC V0209999V001512200019N0112651N1+01801+01201999999ADDGA1041+030001999GF104991999999999999999999MA1102001999999REMMET051METAR LSZC 280750Z VRB03KT 9999 SCT100 18/12 Q1020;
0128068065999992010072808504+46967+008400FM-15+0450LSZC V0200901N002612200019N0112651N1+01901+01301999999ADDGA1041+030001999GF104991999999999999999999MA1102001999999REMMET059METAR LSZC 280850Z 09005KT 050V120 9999 SCT100 19/13 Q1020;
0128068065999992010072809204+46967+008400FM-15+0450LSZC V0200801N002612200019N0112651N1+01901+01401999999ADDGA1041+030001999GF104991999999999999999999MA1102001999999REMMET059METAR LSZC 280920Z 08005KT 030V110 9999 SCT100 19/14 Q1020;
0156068065999992010072811204+46967+008400FM-15+0450LSZC V0200401N002110240019N0112651N1+02001+01401999999ADDGA1021+011401999GA2081+024001999GF108991999999999999999999MA1102001999999REMMET071METAR LSZC 281120Z 04004KT 350V070 9999 FEW038 OVC087 20/14 Q1020 RERA;
0151068065999992010072811504+46967+008400FM-15+0450LSZC V0200901N002110240019N0112651N1+01901+01401999999ADDGA1021+011401999GA2081+024001999GF108991999999999999999999MA1102001999999REMMET066METAR LSZC 281150Z 09004KT 060V130 9999 FEW038 OVC087 19/14 Q1020;
0152068065999992010072812204+46967+008400FM-15+0450LSZC V0200501N002610240019N0050001N1+01801+01401999999ADDGA1041+011401999GA2081+024001999GF108991999999999999999999MA1102001999999MW1631REMMET061METAR LSZC 281220Z 05005KT 5000 RA SCT038 OVC087 18/14 Q1020;
0152068065999992010072813504+46967+008400FM-15+0450LSZC V0201201N001010150019N0060001N1+01801+01401999999ADDGA1021+005401999GA2081+015001999GF108991999999999999999999MA1102001999999MW1631REMMET061METAR LSZC 281350Z 12002KT 6000 RA FEW018 OVC050 18/14 Q1020;
0160068065999992010072814204+46967+008400FM-15+0450LSZC V0200801N001510150019N0050001N1+01701+01401999999ADDGA1021+005401999GA2081+015001999GF108991999999999999999999MA1102001999999MW1631REMMET069METAR LSZC 281420Z 08003KT 040V120 5000 RA FEW018 OVC055 17/14 Q1020;
0153068065999992010072814504+46967+008400FM-15+0450LSZC V0209999V001010150019N0070001N1+01701+01401999999ADDGA1021+004501999GA2081+015001999GF108991999999999999999999MA1101901999999MW1611REMMET062METAR LSZC 281450Z VRB02KT 7000 -RA FEW015 OVC055 17/14 Q1019;
0161068065999992010072905504+46967+008400FM-15+0450LSZC V0200801N003110150019N0070001N1+01501+01401999999ADDGA1021+004501999GA2081+015001999GF108991999999999999999999MA1101391999999MW1611REMMET070METAR LSZC 290550Z 08006KT 050V140 7000 -RA FEW015 OVC055 15/14 Q1014;
0153068065999992010072906204+46967+008400FM-15+0450LSZC V0209999V001510150019N0070001N1+01601+01401999999ADDGA1021+004501999GA2081+015001999GF108991999999999999999999MA1101291999999MW1611REMMET062METAR LSZC 290620Z VRB03KT 7000 -RA FEW015 OVC055 16/14 Q1013;
0153068065999992010072906504+46967+008400FM-15+0450LSZC V0209999V001010150019N0070001N1+01501+01301999999ADDGA1021+004501999GA2081+015001999GF108991999999999999999999MA1101291999999MW1611REMMET062METAR LSZC 290650Z VRB02KT 7000 -RA FEW015 OVC055 15/13 Q1013;
0136068065999992010072907204+46967+008400FM-15+0450LSZC V0203401N002110075019N0030001N1+01601+01401999999ADDGA1091+007501999GF109991999999000251999999MA1101391999999MW1631REMMET061METAR LSZC 290720Z 34004KT 270V020 3000 RA VV025 16/14 Q1014;
0181068065999992010072907504+46967+008400FM-15+0450LSZC V0209999V002110060019N0112651N1+01501+01401999999ADDGA1021+003301999GA2071+006001999GA3081+014401999GF108991999999999999999999MA1101391999999MW1631REMMET074METAR LSZC 290750Z VRB04KT 9999 4000E RA FEW011 BKN020 OVC048 15/14 Q1014;
0160068065999992010072908204+46967+008400FM-15+0450LSZC V0200401N003110135019N0050001N1+01501+01201999999ADDGA1021+003301999GA2081+013501999GF108991999999999999999999MA1101391999999MW1631REMMET069METAR LSZC 290820Z 04006KT 010V080 5000 RA FEW011 OVC045 15/12 Q1014;
0160068065999992010072908504+46967+008400FM-15+0450LSZC V0200301N002610135019N0050001N1+01401+01201999999ADDGA1021+003301999GA2081+013501999GF108991999999999999999999MA1101291999999MW1631REMMET069METAR LSZC 290850Z 03005KT 360V060 5000 RA FEW011 OVC045 14/12 Q1013;
0183068065999992010072909204+46967+008400FM-15+0450LSZC V0200701N00261013501CN0060001N1+01501+01301999999ADDGA1021+002401999GA2041+013501999GA3081+021001999GF108991999999999999999999MA1101291999999MW1631REMMET076METAR LSZC 290920Z 07005KT 010V120 6000 RA FEW008 SCT045 OVC070 15/13 Q1013;
0183068065999992010072909504+46967+008400FM-15+0450LSZC V0202101N00361013501CN0050001N1+01401+01201999999ADDGA1021+003901999GA2041+013501999GA3081+021001999GF108991999999999999999999MA1101491999999MW1631REMMET076METAR LSZC 290950Z 21007KT 160V250 5000 RA FEW013 SCT045 OVC070 14/12 Q1015;
0183068065999992010072911204+46967+008400FM-15+0450LSZC V0202701N00261013501CN0050001N1+01401+01101999999ADDGA1021+003901999GA2041+013501999GA3081+018001999GF108991999999999999999999MA1101391999999MW1631REMMET076METAR LSZC 291120Z 27005KT 230V340 5000 RA FEW013 SCT045 OVC060 14/11 Q1014;
0153068065999992010072912504+46967+008400FM-15+0450LSZC V0209999V001010150019N0112651N1+01401+01201999999ADDGA1021+004501999GA2081+015001999GF108991999999999999999999MA1101391999999MW1611REMMET062METAR LSZC 291250Z VRB02KT 9999 -RA FEW015 OVC050 14/12 Q1014;
0152068065999992010072913204+46967+008400FM-15+0450LSZC V0209999V000510150019N0045001N1+01401+01201999999ADDGA1021+004501999GA2081+015001999GF108991999999999999999999MA1101491999999MW1631REMMET061METAR LSZC 291320Z VRB01KT 4500 RA FEW015 OVC050 14/12 Q1015;
0151068065999992010072913504+46967+008400FM-15+0450LSZC V0200301N001510135019N0112651N1+01501+01201999999ADDGA1021+004501999GA2071+013501999GF107991999999999999999999MA1101391999999REMMET066METAR LSZC 291350Z 03003KT 300V080 9999 FEW015 BKN045 15/12 Q1014;
0151068065999992010072914204+46967+008400FM-15+0450LSZC V0200701N003610135019N0112651N1+01601+01301999999ADDGA1021+004501999GA2071+013501999GF107991999999999999999999MA1101391999999REMMET066METAR LSZC 291420Z 07007KT 040V110 9999 FEW015 BKN045 16/13 Q1014;
0151068065999992010072914504+46967+008400FM-15+0450LSZC V0200501N002610150019N0112651N1+01501+01201999999ADDGA1021+004501999GA2081+015001999GF108991999999999999999999MA1101391999999REMMET066METAR LSZC 291450Z 05005KT 020V080 9999 FEW015 OVC053 15/12 Q1014;
0143068065999992010073006504+46967+008400FM-15+0450LSZC V0209999V001010150019N0070001N1+01301+01101999999ADDGA1021+004501999GA2081+015001999GF108991999999999999999999MA1101591999999REMMET058METAR LSZC 300650Z VRB02KT 7000 FEW015 OVC053 13/11 Q1016;
0160068065999992010073007204+46967+008400FM-15+0450LSZC V0201101N005710090019N0040001N1+01201+01001999999ADDGA1021+004501999GA2081+009001999GF108991999999999999999999MA1101691999999MW1631REMMET069METAR LSZC 300720Z 11011KT 060V140 4000 RA FEW015 OVC030 12/10 Q1017;
0152068065999992010073007504+46967+008400FM-15+0450LSZC V0209999V002110120019N0030001N1+01101+00901999999ADDGA1021+006001999GA2081+012001999GF108991999999999999999999MA1101801999999MW1631REMMET061METAR LSZC 300750Z VRB04KT 3000 RA FEW020 OVC040 11/09 Q1018;
0152068065999992010073008204+46967+008400FM-15+0450LSZC V0209999V001510135019N0045001N1+01101+01001999999ADDGA1041+004501999GA2081+013501999GF108991999999999999999999MA1101801999999MW1631REMMET061METAR LSZC 300820Z VRB03KT 4500 RA SCT015 OVC045 11/10 Q1018;
0160068065999992010073008504+46967+008400FM-15+0450LSZC V0201101N001510135019N0090001N1+01201+01001999999ADDGA1021+004501999GA2071+013501999GF107991999999999999999999MA1101801999999MW1631REMMET069METAR LSZC 300850Z 11003KT 060V150 9000 RA FEW015 BKN045 12/10 Q1018;
0171068065999992010073009204+46967+008400FM-15+0450LSZC V0209999V00151013501CN0112651N1+01301+01001999999ADDGA1021+004501999GA2041+013501999GA3071+018001999GF107991999999999999999999MA1101801999999REMMET070METAR LSZC 300920Z VRB03KT 9999 FEW015 SCT045 BKN066 13/10 Q1018 RERA;
0166068065999992010073009504+46967+008400FM-15+0450LSZC V0209999V00101013501CN0112651N1+01401+00901999999ADDGA1021+006001999GA2041+013501999GA3071+027001999GF107991999999999999999999MA1101801999999REMMET065METAR LSZC 300950Z VRB02KT 9999 FEW020 SCT045 BKN090 14/09 Q1018;
0151068065999992010073011204+46967+008400FM-15+0450LSZC V0200801N001512200019N0112651N1+01601+00801999999ADDGA1021+006001999GA2041+013501999GF104991999999999999999999MA1101691999999REMMET066METAR LSZC 301120Z 08003KT 010V150 9999 FEW020 SCT045 16/08 Q1017;
0128068065999992010073011504+46967+008400FM-15+0450LSZC V0200701N002112200019N0112651N1+01701+01001999999ADDGA1041+013501999GF104991999999999999999999MA1101691999999REMMET059METAR LSZC 301150Z 07004KT 020V130 9999 SCT045 17/10 Q1017;
0128068065999992010073012204+46967+008400FM-15+0450LSZC V0200601N002612200019N0112651N1+01701+00901999999ADDGA1041+013501999GF104991999999999999999999MA1101691999999REMMET059METAR LSZC 301220Z 06005KT 010V080 9999 SCT045 17/09 Q1017;
0128068065999992010073012504+46967+008400FM-15+0450LSZC V0200501N002112200019N0112651N1+01801+00901999999ADDGA1041+013501999GF104991999999999999999999MA1101691999999REMMET059METAR LSZC 301250Z 05004KT 350V080 9999 SCT045 18/09 Q1017;
0128068065999992010073013204+46967+008400FM-15+0450LSZC V0200901N002112200019N0112651N1+01801+01001999999ADDGA1041+015001999GF104991999999999999999999MA1101591999999REMMET059METAR LSZC 301320Z 09004KT 050V140 9999 SCT055 18/10 Q1016;
0120068065999992010073013504+46967+008400FM-15+0450LSZC V0209999V001012200019N0112651N1+02001+00801999999ADDGA1041+013501999GF104991999999999999999999MA1101591999999REMMET051METAR LSZC 301350Z VRB02KT 9999 SCT045 20/08 Q1016;
0128068065999992010073014204+46967+008400FM-15+0450LSZC V0200701N002112200019N0112651N1+02001+01001999999ADDGA1041+013501999GF104991999999999999999999MA1101591999999REMMET059METAR LSZC 301420Z 07004KT 030V120 9999 SCT045 20/10 Q1016;
0120068065999992010073014504+46967+008400FM-15+0450LSZC V0209999V002112200019N0112651N1+02001+01101999999ADDGA1041+014401999GF104991999999999999999999MA1101591999999REMMET051METAR LSZC 301450Z VRB04KT 9999 SCT048 20/11 Q1016;
0153068065999992010080205504+46967+008400FM-15+0450LSZC V0202401N001510240019N0112651N1+01701+01601999999ADDGA1041+001501999GA2071+024001999GF107991999999999999999999MA1101691999999MW1611REMMET062METAR LSZC 020550Z 24003KT 9999 -RA SCT005 BKN080 17/16 Q1017;
0153068065999992010080206204+46967+008400FM-15+0450LSZC V0209999V000510240019N0112651N1+01701+01601999999ADDGA1041+001501999GA2071+024001999GF107991999999999999999999MA1101691999999MW1611REMMET062METAR LSZC 020620Z VRB01KT 9999 -RA SCT005 BKN080 17/16 Q1017;
0153068065999992010080207204+46967+008400FM-15+0450LSZC V0202401N001010240019N0112651N1+01801+01601999999ADDGA1041+001501999GA2071+024001999GF107991999999999999999999MA1101691999999MW1611REMMET062METAR LSZC 020720Z 24002KT 9999 -RA SCT005 BKN080 18/16 Q1017;
0143068065999992010080207504+46967+008400FM-15+0450LSZC V0202601N001510240019N0112651N1+01801+01601999999ADDGA1021+001501999GA2071+024001999GF107991999999999999999999MA1101691999999REMMET058METAR LSZC 020750Z 26003KT 9999 FEW005 BKN080 18/16 Q1017;
0143068065999992010080208204+46967+008400FM-15+0450LSZC V0209999V000512200019N0112651N1+02001+01701999999ADDGA1021+003001999GA2041+033001999GF104991999999999999999999MA1101691999999REMMET058METAR LSZC 020820Z VRB01KT 9999 FEW010 SCT110 20/17 Q1017;
0151068065999992010080209204+46967+008400FM-15+0450LSZC V0200801N002112200019N0112651N1+02101+01701999999ADDGA1041+013501999GA2041+033001999GF104991999999999999999999MA1101691999999REMMET066METAR LSZC 020920Z 08004KT 040V120 9999 SCT045 SCT110 21/17 Q1017;
0174068065999992010080209504+46967+008400FM-15+0450LSZC V0201001N00151013501CN0112651N1+02201+01701999999ADDGA1021+006001999GA2041+013501999GA3071+030001999GF107991999999999999999999MA1101691999999REMMET073METAR LSZC 020950Z 10003KT 340V150 9999 FEW020 SCT045 BKN100 22/17 Q1017;
0152068065999992010080211204+46967+008400FM-15+0450LSZC V0209999V000510135019N0050001N1+02001+01701999999ADDGA1071+013501999GA2071+030001999GF107991999999999999999999MA1101691999999MW1631REMMET061METAR LSZC 021120Z VRB01KT 5000 RA BKN045 BKN100 20/17 Q1017;
0174068065999992010080211504+46967+008400FM-15+0450LSZC V0202201N001510135019N0070001N1+02001+01701999999ADDGA1041+004501999GA2071+013501999GA3081+030001999GF108991999999999999999999MA1101691999999REMMET073METAR LSZC 021150Z 22003KT 190V260 7000 SCT015 BKN045 OVC100 20/17 Q1017;
0166068065999992010080212204+46967+008400FM-15+0450LSZC V0202801N001510135019N0070001N1+02001+01701999999ADDGA1041+004501999GA2071+013501999GA3081+030001999GF108991999999999999999999MA1101691999999REMMET065METAR LSZC 021220Z 28003KT 7000 SCT015 BKN045 OVC100 20/17 Q1017;
0166068065999992010080212504+46967+008400FM-15+0450LSZC V0209999V000510135019N0070001N1+02001+01601999999ADDGA1041+004501999GA2071+013501999GA3081+030001999GF108991999999999999999999MA1101691999999REMMET065METAR LSZC 021250Z VRB01KT 7000 SCT015 BKN045 OVC100 20/16 Q1017;
0176068065999992010080213204+46967+008400FM-15+0450LSZC V0209999V001510135019N0030001N1+02001+01601999999ADDGA1041+004501999GA2071+013501999GA3081+030001999GF108991999999999999999999MA1101691999999MW1651REMMET069METAR LSZC 021320Z VRB03KT 3000 +RA SCT015 BKN045 OVC100 20/16 Q1017;
0176068065999992010080213504+46967+008400FM-15+0450LSZC V0209999V001510135019N0030001N1+01901+01601999999ADDGA1041+004501999GA2071+013501999GA3081+030001999GF108991999999999999999999MA1101801999999MW1651REMMET069METAR LSZC 021350Z VRB03KT 3000 +RA SCT015 BKN045 OVC100 19/16 Q1018;
0175068065999992010080214204+46967+008400FM-15+0450LSZC V0209999V000510135019N0035001N1+01801+01601999999ADDGA1041+004501999GA2071+013501999GA3081+030001999GF108991999999999999999999MA1101801999999MW1631REMMET068METAR LSZC 021420Z VRB01KT 3500 RA SCT015 BKN045 OVC100 18/16 Q1018;
0171068065999992010080214504+46967+008400FM-15+0450LSZC V0209999V00051013501CN0090001N1+01801+01601999999ADDGA1021+004501999GA2041+013501999GA3081+024001999GF108991999999999999999999MA1101801999999REMMET070METAR LSZC 021450Z VRB01KT 9000 FEW015 SCT045 OVC085 18/16 Q1018 RERA;
0171068065999992010080305504+46967+008400FM-15+0450LSZC V0209999V000510180019N0112651N1+01401+01301999999ADDGA1021+012001999GA2071+018001999GA3081+030001999GF108991999999999999999999MA1101691999999REMMET070METAR LSZC 030550Z VRB01KT 9999 FEW040 BKN068 OVC100 14/13 Q1017 RERA;
0166068065999992010080306204+46967+008400FM-15+0450LSZC V0209999V001010180019N0112651N1+01501+01301999999ADDGA1021+013201999GA2071+018001999GA3081+030001999GF108991999999999999999999MA1101691999999REMMET065METAR LSZC 030620Z VRB02KT 9999 FEW044 BKN062 OVC100 15/13 Q1017;
0166068065999992010080306504+46967+008400FM-15+0450LSZC V0209999V001010150019N0112651N1+01501+01201999999ADDGA1021+003001999GA2071+015001999GA3081+030001999GF108991999999999999999999MA1101691999999REMMET065METAR LSZC 030650Z VRB02KT 9999 FEW010 BKN054 OVC100 15/12 Q1017;
0166068065999992010080307204+46967+008400FM-15+0450LSZC V0203101N000510150019N0112651N1+01501+01301999999ADDGA1021+003001999GA2071+015001999GA3081+030001999GF108991999999999999999999MA1101801999999REMMET065METAR LSZC 030720Z 31001KT 9999 FEW010 BKN054 OVC100 15/13 Q1018;
0166068065999992010080309504+46967+008400FM-15+0450LSZC V0209999V00051015001CN0112651N1+01701+01301999999ADDGA1021+004501999GA2041+015001999GA3071+030001999GF107991999999999999999999MA1101691999999REMMET065METAR LSZC 030950Z VRB01KT 9999 FEW015 SCT054 BKN100 17/13 Q1017;
0152068065999992010080311204+46967+008400FM-15+0450LSZC V0209999V002110135019N0040001N1+01601+01301999999ADDGA1021+004501999GA2081+013501999GF108991999999999999999999MA1101691999999MW1631REMMET061METAR LSZC 031120Z VRB04KT 4000 RA FEW015 OVC045 16/13 Q1017;
0176068065999992010080312204+46967+008400FM-15+0450LSZC V0209999V00051013501CN0070001N1+01701+01401999999ADDGA1021+004501999GA2041+013501999GA3081+021001999GF108991999999999999999999MA1101691999999MW1611REMMET069METAR LSZC 031220Z VRB01KT 7000 -RA FEW015 SCT045 OVC070 17/14 Q1017;
0148068065999992010080312504+46967+008400FM-15+0450LSZC V0209999V001010210019N0112651N1+01701+01401999999ADDGA1041+012001999GA2071+021001999GF107991999999999999999999MA1101691999999REMMET063METAR LSZC 031250Z VRB02KT 9999 SCT040 BKN075 17/14 Q1017 RERA;
0149068065999992010080313204+46967+008400FM-15+0450LSZC V0209999V001010132019N0112651N1+01701+01301999999ADDGA1071+013201999GA2071+021001999GF107991999999999999999999MA1101691999999REMMET064METAR LSZC 031320Z VRB02KT 9999 4500W BKN044 BKN077 17/13 Q1017;
0143068065999992010080405204+46967+008400FM-15+0450LSZC V0202501N002112200019N0112651N1+01201+01101999999ADDGA1021+006001999GA2041+027001999GF104991999999999999999999MA1101491999999REMMET058METAR LSZC 040520Z 25004KT 9999 FEW020 SCT090 12/11 Q1015;
0120068065999992010080406504+46967+008400FM-15+0450LSZC V0209999V000512200019N0112651N1+01501+01101999999ADDGA1021+006001999GF102991999999999999999999MA1101491999999REMMET051METAR LSZC 040650Z VRB01KT 9999 FEW020 15/11 Q1015;
0120068065999992010080407204+46967+008400FM-15+0450LSZC V0209999V000512200019N0112651N1+01601+01301999999ADDGA1041+006001999GF104991999999999999999999MA1101491999999REMMET051METAR LSZC 040720Z VRB01KT 9999 SCT020 16/13 Q1015;
0120068065999992010080407504+46967+008400FM-15+0450LSZC V0209999V000512200019N0112651N1+01701+01201999999ADDGA1041+006001999GF104991999999999999999999MA1101491999999REMMET051METAR LSZC 040750Z VRB01KT 9999 SCT020 17/12 Q1015;
0143068065999992010080408204+46967+008400FM-15+0450LSZC V0209999V001012200019N0112651N1+01801+01301999999ADDGA1021+006001999GA2041+015001999GF104991999999999999999999MA1101491999999REMMET058METAR LSZC 040820Z VRB02KT 9999 FEW020 SCT050 18/13 Q1015;
0151068065999992010080409204+46967+008400FM-15+0450LSZC V0200701N002112200019N0112651N1+01801+01301999999ADDGA1021+006001999GA2041+015001999GF104991999999999999999999MA1101391999999REMMET066METAR LSZC 040920Z 07004KT 020V120 9999 FEW020 SCT050 18/13 Q1014;
0151068065999992010080409504+46967+008400FM-15+0450LSZC V0200901N002612200019N0112651N1+01901+01401999999ADDGA1021+006001999GA2041+015001999GF104991999999999999999999MA1101391999999REMMET066METAR LSZC 040950Z 09005KT 050V190 9999 FEW020 SCT050 19/14 Q1014;
0093068065999992010080411204+46967+008400FM-15+0450LSZC V02099999999992200019N0112651N1+02001+01201999999ADDMA1101301999999REMMET066METAR LSZC 041120Z /////KT ///V/// 9999 FEW020 SCT050 20/12 Q1013;
0143068065999992010080411504+46967+008400FM-15+0450LSZC V0209999V001012200019N0112651N1+02201+01201999999ADDGA1021+006001999GA2041+015001999GF104991999999999999999999MA1101191999999REMMET058METAR LSZC 041150Z VRB02KT 9999 FEW020 SCT050 22/12 Q1012;
0151068065999992010080412204+46967+008400FM-15+0450LSZC V0200801N002112200019N0112651N1+02101+01201999999ADDGA1021+006001999GA2041+015001999GF104991999999999999999999MA1101191999999REMMET066METAR LSZC 041220Z 08004KT 030V120 9999 FEW020 SCT050 21/12 Q1012;
0151068065999992010080412504+46967+008400FM-15+0450LSZC V0200701N002110210019N0112651N1+02201+01201999999ADDGA1041+012001999GA2071+021001999GF107991999999999999999999MA1101191999999REMMET066METAR LSZC 041250Z 07004KT 360V140 9999 SCT040 BKN070 22/12 Q1012;
0152068065999992010080505504+46967+008400FM-15+0450LSZC V0203101N001510180019N0080001N1+01401+01301999999ADDGA1041+009001999GA2071+018001999GF107991999999999999999999MA1100911999999MW1631REMMET061METAR LSZC 050550Z 31003KT 8000 RA SCT030 BKN060 14/13 Q1009;
0152068065999992010080506204+46967+008400FM-15+0450LSZC V0209999V001010180019N0080001N1+01401+01301999999ADDGA1041+009001999GA2071+018001999GF107991999999999999999999MA1100911999999MW1631REMMET061METAR LSZC 050620Z VRB02KT 8000 RA SCT030 BKN060 14/13 Q1009;
0152068065999992010080506504+46967+008400FM-15+0450LSZC V0209999C000010150019N0040001N1+01401+01301999999ADDGA1041+006001999GA2081+015001999GF108991999999999999999999MA1100911999999MW1631REMMET061METAR LSZC 050650Z 00000KT 4000 RA SCT020 OVC050 14/13 Q1009;
0152068065999992010080507204+46967+008400FM-15+0450LSZC V0209999V000510120019N0040001N1+01401+01301999999ADDGA1041+006001999GA2081+012001999GF108991999999999999999999MA1100911999999MW1631REMMET061METAR LSZC 050720Z VRB01KT 4000 RA SCT020 OVC040 14/13 Q1009;
0152068065999992010080507504+46967+008400FM-15+0450LSZC V0209999V001510030019N0020001N1+01401+01301999999ADDGA1071+003001999GA2081+009001999GF108991999999999999999999MA1101021999999MW1631REMMET061METAR LSZC 050750Z VRB03KT 2000 RA BKN010 OVC030 14/13 Q1010;
0152068065999992010080508204+46967+008400FM-15+0450LSZC V0209999V000510030019N0040001N1+01401+01301999999ADDGA1071+003001999GA2081+009001999GF108991999999999999999999MA1101021999999MW1631REMMET061METAR LSZC 050820Z VRB01KT 4000 RA BKN010 OVC030 14/13 Q1010;
0152068065999992010080508504+46967+008400FM-15+0450LSZC V0209999C000010030019N0040001N1+01401+01301999999ADDGA1071+003001999GA2081+012001999GF108991999999999999999999MA1101021999999MW1631REMMET061METAR LSZC 050850Z 00000KT 4000 RA BKN010 OVC040 14/13 Q1010;
0152068065999992010080509204+46967+008400FM-15+0450LSZC V0209999C000010030019N0060001N1+01401+01201999999ADDGA1071+003001999GA2081+012001999GF108991999999999999999999MA1101021999999MW1631REMMET061METAR LSZC 050920Z 00000KT 6000 RA BKN010 OVC040 14/12 Q1010;
0143068065999992010080509504+46967+008400FM-15+0450LSZC V0209999V001010120019N0112651N1+01501+01301999999ADDGA1041+003001999GA2081+012001999GF108991999999999999999999MA1101021999999REMMET058METAR LSZC 050950Z VRB02KT 9999 SCT010 OVC040 15/13 Q1010;
0143068065999992010080511204+46967+008400FM-15+0450LSZC V0209999V001010150019N0112651N1+01601+01201999999ADDGA1041+003001999GA2081+015001999GF108991999999999999999999MA1101021999999REMMET058METAR LSZC 051120Z VRB02KT 9999 SCT010 OVC050 16/12 Q1010;
0143068065999992010080511504+46967+008400FM-15+0450LSZC V0209999V001010150019N0112651N1+01601+01201999999ADDGA1041+003001999GA2081+015001999GF108991999999999999999999MA1101021999999REMMET058METAR LSZC 051150Z VRB02KT 9999 SCT010 OVC050 16/12 Q1010;
0143068065999992010080512504+46967+008400FM-15+0450LSZC V0209999V000510150019N0112651N1+01701+01301999999ADDGA1041+006001999GA2081+015001999GF108991999999999999999999MA1101021999999REMMET058METAR LSZC 051250Z VRB01KT 9999 SCT020 OVC050 17/13 Q1010;
0151068065999992010080607204+46967+008400FM-15+0450LSZC V0202601N002110150019N0112651N1+01301+01101999999ADDGA1041+006001999GA2081+015001999GF108991999999999999999999MA1101801999999REMMET066METAR LSZC 060720Z 26004KT 230V310 9999 SCT020 OVC050 13/11 Q1018;
0143068065999992010080607504+46967+008400FM-15+0450LSZC V0202801N002110150019N0112651N1+01401+01101999999ADDGA1021+003001999GA2071+015001999GF107991999999999999999999MA1101801999999REMMET058METAR LSZC 060750Z 28004KT 9999 FEW010 BKN050 14/11 Q1018;
0174068065999992010080608204+46967+008400FM-15+0450LSZC V0202301N00211018001CN0112651N1+01501+01101999999ADDGA1041+010501999GA2041+018001999GA3071+027001999GF107991999999999999999999MA1101801999999REMMET073METAR LSZC 060820Z 23004KT 170V260 9999 SCT035 SCT069 BKN096 15/11 Q1018;
0143068065999992010080608504+46967+008400FM-15+0450LSZC V0209999V000510180019N0112651N1+01601+01101999999ADDGA1041+010501999GA2071+018001999GF107991999999999999999999MA1101801999999REMMET058METAR LSZC 060850Z VRB01KT 9999 SCT035 BKN064 16/11 Q1018;
0143068065999992010080609204+46967+008400FM-15+0450LSZC V0209999V001510150019N0112651N1+01801+01201999999ADDGA1041+009001999GA2071+015001999GF107991999999999999999999MA1101801999999REMMET058METAR LSZC 060920Z VRB03KT 9999 SCT030 BKN057 18/12 Q1018;
0143068065999992010080611204+46967+008400FM-15+0450LSZC V0209999V001010180019N0112651N1+01601+01001999999ADDGA1041+009001999GA2081+018001999GF108991999999999999999999MA1101901999999REMMET058METAR LSZC 061120Z VRB02KT 9999 SCT030 OVC060 16/10 Q1019;
0143068065999992010080612204+46967+008400FM-15+0450LSZC V0209999V000510180019N0112651N1+01701+01001999999ADDGA1041+009001999GA2081+018001999GF108991999999999999999999MA1101901999999REMMET058METAR LSZC 061220Z VRB01KT 9999 SCT030 OVC060 17/10 Q1019;
0143068065999992010080613204+46967+008400FM-15+0450LSZC V0209999V000510240019N0112651N1+01801+01101999999ADDGA1041+010501999GA2071+024001999GF107991999999999999999999MA1101901999999REMMET058METAR LSZC 061320Z VRB01KT 9999 SCT035 BKN080 18/11 Q1019;
0072068065999992010080906204+46967+008400FM-15+0450LSZC V0209999V000519999999Y0099001N1+01701+01301999999ADDMA1101901999999REMMET045METAR LSZC 090620Z VRB01KT CAVOK 17/13 Q1019;
0072068065999992010080906504+46967+008400FM-15+0450LSZC V0209999V001019999999Y0099001N1+01801+01401999999ADDMA1101901999999REMMET045METAR LSZC 090650Z VRB02KT CAVOK 18/14 Q1019;
0080068065999992010080907204+46967+008400FM-15+0450LSZC V0200801N001519999999Y0099001N1+01801+01401999999ADDMA1101901999999REMMET053METAR LSZC 090720Z 08003KT 050V120 CAVOK 18/14 Q1019;
0080068065999992010080907504+46967+008400FM-15+0450LSZC V0200901N002119999999Y0099001N1+01901+01301999999ADDMA1101901999999REMMET053METAR LSZC 090750Z 09004KT 040V130 CAVOK 19/13 Q1019;
0128068065999992010080908204+46967+008400FM-15+0450LSZC V0200801N002612200019N0112651N1+01901+01301999999ADDGA1021+013501999GF102991999999999999999999MA1101901999999REMMET059METAR LSZC 090820Z 08005KT 050V120 9999 FEW045 19/13 Q1019;
0128068065999992010080908504+46967+008400FM-15+0450LSZC V0200901N002112200019N0112651N1+02001+01401999999ADDGA1021+013501999GF102991999999999999999999MA1101901999999REMMET059METAR LSZC 090850Z 09004KT 050V130 9999 FEW045 20/14 Q1019;
0120068065999992010080909204+46967+008400FM-15+0450LSZC V0200601N002612200019N0112651N1+02001+01401999999ADDGA1021+013501999GF102991999999999999999999MA1101901999999REMMET051METAR LSZC 090920Z 06005KT 9999 FEW045 20/14 Q1019;
0128068065999992010080909504+46967+008400FM-15+0450LSZC V0200601N002612200019N0112651N1+02001+01501999999ADDGA1021+013501999GF102991999999999999999999MA1101801999999REMMET059METAR LSZC 090950Z 06005KT 020V100 9999 FEW045 20/15 Q1018;
0128068065999992010080911504+46967+008400FM-15+0450LSZC V0200901N002112200019N0112651N1+02401+01401999999ADDGA1021+013501999GF102991999999999999999999MA1101691999999REMMET059METAR LSZC 091150Z 09004KT 040V170 9999 FEW045 24/14 Q1017;
0128068065999992010080912504+46967+008400FM-15+0450LSZC V0203201N003112200019N0112651N1+02501+01501999999ADDGA1021+013501999GF102991999999999999999999MA1101691999999REMMET059METAR LSZC 091250Z 32006KT 280V020 9999 FEW045 25/15 Q1017;
0120068065999992010080913204+46967+008400FM-15+0450LSZC V0209999V002112200019N0112651N1+02501+01301999999ADDGA1021+015001999GF102991999999999999999999MA1101591999999REMMET051METAR LSZC 091320Z VRB04KT 9999 FEW055 25/13 Q1016;
0120068065999992010080913504+46967+008400FM-15+0450LSZC V0209999V001512200019N0112651N1+02501+01401999999ADDGA1021+015001999GF102991999999999999999999MA1101591999999REMMET051METAR LSZC 091350Z VRB03KT 9999 FEW055 25/14 Q1016;
0128068065999992010080914204+46967+008400FM-15+0450LSZC V0203101N002612200019N0112651N1+02601+01301999999ADDGA1021+015001999GF102991999999999999999999MA1101591999999REMMET059METAR LSZC 091420Z 31005KT 210V360 9999 FEW055 26/13 Q1016;
0120068065999992010080914504+46967+008400FM-15+0450LSZC V0209999V001512200019N0112651N1+02501+01401999999ADDGA1021+015001999GF102991999999999999999999MA1101591999999REMMET051METAR LSZC 091450Z VRB03KT 9999 FEW055 25/14 Q1016;
0120068065999992010081005504+46967+008400FM-15+0450LSZC V0209999V001010240019N0112651N1+01701+01401999999ADDGA1071+024001999GF107991999999999999999999MA1101801999999REMMET051METAR LSZC 100550Z VRB02KT 9999 BKN080 17/14 Q1018;
0120068065999992010081006204+46967+008400FM-15+0450LSZC V0209999V001512200019N0112651N1+01701+01401999999ADDGA1041+024001999GF104991999999999999999999MA1101801999999REMMET051METAR LSZC 100620Z VRB03KT 9999 SCT080 17/14 Q1018;
0120068065999992010081006504+46967+008400FM-15+0450LSZC V0209999V001012200019N0112651N1+01801+01501999999ADDGA1041+027001999GF104991999999999999999999MA1101801999999REMMET051METAR LSZC 100650Z VRB02KT 9999 SCT095 18/15 Q1018;
0120068065999992010081007204+46967+008400FM-15+0450LSZC V0209999C000012200019N0112651N1+02001+01501999999ADDGA1041+033001999GF104991999999999999999999MA1101801999999REMMET051METAR LSZC 100720Z 00000KT 9999 SCT110 20/15 Q1018;
0120068065999992010081007504+46967+008400FM-15+0450LSZC V0209999V000512200019N0112651N1+02001+01501999999ADDGA1021+033001999GF102991999999999999999999MA1101801999999REMMET051METAR LSZC 100750Z VRB01KT 9999 FEW110 20/15 Q1018;
0128068065999992010081008504+46967+008400FM-15+0450LSZC V0200601N002112200019N0112651N1+02101+01601999999ADDGA1021+015001999GF102991999999999999999999MA1101801999999REMMET059METAR LSZC 100850Z 06004KT 020V100 9999 FEW055 21/16 Q1018;
0120068065999992010081009204+46967+008400FM-15+0450LSZC V0209999V001512200019N0112651N1+02101+01501999999ADDGA1021+015001999GF102991999999999999999999MA1101801999999REMMET051METAR LSZC 100920Z VRB03KT 9999 FEW055 21/15 Q1018;
0120068065999992010081009504+46967+008400FM-15+0450LSZC V0209999V001012200019N0112651N1+02301+01601999999ADDGA1021+015001999GF102991999999999999999999MA1101801999999REMMET051METAR LSZC 100950Z VRB02KT 9999 FEW055 23/16 Q1018;
0128068065999992010081011204+46967+008400FM-15+0450LSZC V0201101N002112200019N0112651N1+02501+01401999999ADDGA1021+015001999GF102991999999999999999999MA1101691999999REMMET059METAR LSZC 101120Z 11004KT 060V160 9999 FEW055 25/14 Q1017;
0128068065999992010081011504+46967+008400FM-15+0450LSZC V0201001N002112200019N0112651N1+02401+01501999999ADDGA1021+015001999GF102991999999999999999999MA1101691999999REMMET059METAR LSZC 101150Z 10004KT 030V190 9999 FEW055 24/15 Q1017;
0120068065999992010081012204+46967+008400FM-15+0450LSZC V0209999V001512200019N0112651N1+02501+01501999999ADDGA1021+015001999GF102991999999999999999999MA1101691999999REMMET051METAR LSZC 101220Z VRB03KT 9999 FEW055 25/15 Q1017;
0128068065999992010081012504+46967+008400FM-15+0450LSZC V0201001N002612200019N0112651N1+02501+01401999999ADDGA1041+015001999GF104991999999999999999999MA1101691999999REMMET059METAR LSZC 101250Z 10005KT 050V150 9999 SCT055 25/14 Q1017;
0128068065999992010081013204+46967+008400FM-15+0450LSZC V0201001N002112200019N0112651N1+02501+01501999999ADDGA1041+015001999GF104991999999999999999999MA1101591999999REMMET059METAR LSZC 101320Z 10004KT 050V170 9999 SCT055 25/15 Q1016;
0120068065999992010081014204+46967+008400FM-15+0450LSZC V0209999V001512200019N0112651N1+02601+01501999999ADDGA1041+015001999GF104991999999999999999999MA1101591999999REMMET051METAR LSZC 101420Z VRB03KT 9999 SCT055 26/15 Q1016;
0143068065999992010081105504+46967+008400FM-15+0450LSZC V0209999V001010390019N0112651N1+01801+01601999999ADDGA1021+015001999GA2071+039001999GF107991999999999999999999MA1101691999999REMMET058METAR LSZC 110550Z VRB02KT 9999 FEW058 BKN130 18/16 Q1017;
0143068065999992010081106204+46967+008400FM-15+0450LSZC V0209999V000510390019N0112651N1+01901+01601999999ADDGA1021+015001999GA2071+039001999GF107991999999999999999999MA1101691999999REMMET058METAR LSZC 110620Z VRB01KT 9999 FEW058 BKN130 19/16 Q1017;
0143068065999992010081106504+46967+008400FM-15+0450LSZC V0209999V000510390019N0112651N1+02101+01601999999ADDGA1021+015001999GA2071+039001999GF107991999999999999999999MA1101691999999REMMET058METAR LSZC 110650Z VRB01KT 9999 FEW058 BKN130 21/16 Q1017;
0120068065999992010081107204+46967+008400FM-15+0450LSZC V0209999V001010360019N0112651N1+02101+01701999999ADDGA1071+036001999GF107991999999999999999999MA1101691999999REMMET051METAR LSZC 110720Z VRB02KT 9999 BKN120 21/17 Q1017;
0143068065999992010081107504+46967+008400FM-15+0450LSZC V0209999V001510360019N0112651N1+02001+01601999999ADDGA1021+018001999GA2071+036001999GF107991999999999999999999MA1101691999999REMMET058METAR LSZC 110750Z VRB03KT 9999 FEW060 BKN120 20/16 Q1017;
0151068065999992010081109504+46967+008400FM-15+0450LSZC V0200501N002110360019N0112651N1+02201+01701999999ADDGA1021+018001999GA2071+036001999GF107991999999999999999999MA1101691999999REMMET066METAR LSZC 110950Z 05004KT 350V080 9999 FEW060 BKN120 22/17 Q1017;
0151068065999992010081111204+46967+008400FM-15+0450LSZC V0200801N002110360019N0112651N1+02401+01701999999ADDGA1021+018001999GA2071+036001999GF107991999999999999999999MA1101691999999REMMET066METAR LSZC 111120Z 08004KT 020V160 9999 FEW060 BKN120 24/17 Q1017;
0151068065999992010081111504+46967+008400FM-15+0450LSZC V0201001N002110360019N0112651N1+02401+01601999999ADDGA1021+013801999GA2071+036001999GF107991999999999999999999MA1101691999999REMMET066METAR LSZC 111150Z 10004KT 060V170 9999 FEW046 BKN120 24/16 Q1017;
0151068065999992010081112204+46967+008400FM-15+0450LSZC V0201001N002110300019N0112651N1+02401+01601999999ADDGA1021+013801999GA2071+030001999GF107991999999999999999999MA1101591999999REMMET066METAR LSZC 111220Z 10004KT 030V150 9999 FEW046 BKN100 24/16 Q1016;
0151068065999992010081112504+46967+008400FM-15+0450LSZC V0201101N001510300019N0112651N1+02401+01601999999ADDGA1041+013801999GA2071+030001999GF107991999999999999999999MA1101591999999REMMET066METAR LSZC 111250Z 11003KT 050V140 9999 SCT046 BKN100 24/16 Q1016;
0151068065999992010081113204+46967+008400FM-15+0450LSZC V0201001N002610300019N0112651N1+02401+01701999999ADDGA1041+013801999GA2071+030001999GF107991999999999999999999MA1101591999999REMMET066METAR LSZC 111320Z 10005KT 060V150 9999 SCT046 BKN100 24/17 Q1016;
0151068065999992010081113504+46967+008400FM-15+0450LSZC V0201101N002110300019N0080001N1+02401+01701999999ADDGA1041+013801999GA2071+030001999GF107991999999999999999999MA1101591999999REMMET066METAR LSZC 111350Z 11004KT 060V140 8000 SCT046 BKN100 24/17 Q1016;
0166068065999992010081205504+46967+008400FM-15+0450LSZC V0202901N001010045019N0070001N1+01801+01701999999ADDGA1041+001801999GA2071+004501999GA3081+018001999GF108991999999999999999999MA1101391999999REMMET065METAR LSZC 120550Z 29002KT 7000 SCT006 BKN015 OVC060 18/17 Q1014;
0166068065999992010081206204+46967+008400FM-15+0450LSZC V0209999V000510045019N0070001N1+01801+01701999999ADDGA1041+001801999GA2071+004501999GA3081+018001999GF108991999999999999999999MA1101391999999REMMET065METAR LSZC 120620Z VRB01KT 7000 SCT006 BKN015 OVC060 18/17 Q1014;
0175068065999992010081207204+46967+008400FM-15+0450LSZC V0209999V001510045019N0045001N1+01801+01501999999ADDGA1041+001201999GA2071+004501999GA3081+009001999GF108991999999999999999999MA1101391999999MW1631REMMET068METAR LSZC 120720Z VRB03KT 4500 RA SCT004 BKN015 OVC030 18/15 Q1014;
0174068065999992010081207504+46967+008400FM-15+0450LSZC V0201101N002110045019N0060001N1+01801+01601999999ADDGA1041+001201999GA2071+004501999GA3081+009001999GF108991999999999999999999MA1101391999999REMMET073METAR LSZC 120750Z 11004KT 080V150 6000 SCT004 BKN015 OVC030 18/16 Q1014;
0179068065999992010081208204+46967+008400FM-15+0450LSZC V0200901N00211012301CN0090001N1+01801+01501999999ADDGA1021+002701999GA2041+012301999GA3071+018001999GF107991999999999999999999MA1101391999999REMMET078METAR LSZC 120820Z 09004KT 060V150 9000 FEW009 SCT041 BKN064 18/15 Q1014 RERA;
0174068065999992010081208504+46967+008400FM-15+0450LSZC V0200601N00211012901CN0090001N1+01901+01501999999ADDGA1021+003601999GA2041+012901999GA3071+018001999GF107991999999999999999999MA1101391999999REMMET073METAR LSZC 120850Z 06004KT 020V100 9000 FEW012 SCT043 BKN061 19/15 Q1014;
0166068065999992010081209204+46967+008400FM-15+0450LSZC V0209999V00101012901CN0090001N1+01901+01501999999ADDGA1021+004801999GA2041+012901999GA3071+015001999GF107991999999999999999999MA1101391999999REMMET065METAR LSZC 120920Z VRB02KT 9000 FEW016 SCT043 BKN058 19/15 Q1014;
0175068065999992010081209504+46967+008400FM-15+0450LSZC V0209999V001010105019N0040001N1+01801+01501999999ADDGA1021+004801999GA2071+010501999GA3071+015001999GF107991999999999999999999MA1101491999999MW1631REMMET068METAR LSZC 120950Z VRB02KT 4000 RA FEW016 BKN035 BKN055 18/15 Q1015;
0174068065999992010081212204+46967+008400FM-15+0450LSZC V0200901N002610105019N0112651N1+01901+01601999999ADDGA1021+004801999GA2071+010501999GA3071+015001999GF107991999999999999999999MA1101491999999REMMET073METAR LSZC 121220Z 09005KT 030V130 9999 FEW016 BKN035 BKN055 19/16 Q1015;
0174068065999992010081212504+46967+008400FM-15+0450LSZC V0203301N003110105019N0112651N1+01901+01501999999ADDGA1021+004801999GA2071+010501999GA3071+015001999GF107991999999999999999999MA1101591999999REMMET073METAR LSZC 121250Z 33006KT 280V020 9999 FEW016 BKN035 BKN055 19/15 Q1016;
0174068065999992010081213204+46967+008400FM-15+0450LSZC V0201101N00311012301CN0112651N1+02001+01601999999ADDGA1021+004801999GA2041+012301999GA3071+018001999GF107991999999999999999999MA1101591999999REMMET073METAR LSZC 121320Z 11006KT 090V150 9999 FEW016 SCT041 BKN060 20/16 Q1016;
0166068065999992010081213504+46967+008400FM-15+0450LSZC V0200701N00261012301CN0112651N1+01901+01501999999ADDGA1021+004801999GA2041+012301999GA3071+018001999GF107991999999999999999999MA1101591999999REMMET065METAR LSZC 121350Z 07005KT 9999 FEW016 SCT041 BKN060 19/15 Q1016;
0177068065999992010081214204+46967+008400FM-15+0450LSZC V0209999V001510117019N0070001N1+01901+01501999999ADDGA1041+005401999GA2071+011701999GA3081+015001999GF108991999999999999999999MA1101591999999MW1161REMMET070METAR LSZC 121420Z VRB03KT 7000 VCSH SCT018 BKN039 OVC055 19/15 Q1016;
0183068065999992010081214504+46967+008400FM-15+0450LSZC V0200901N00261011101CN0045001N1+01701+01501999999ADDGA1021+005401999GA2041+011101999GA3081+018001999GF108991999999999999999999MA1101591999999MW1631REMMET076METAR LSZC 121450Z 09005KT 060V120 4500 RA FEW018 SCT037 OVC067 17/15 Q1016;
0143068065999992010081306204+46967+008400FM-15+0450LSZC V0202701N001010240019N0112651N1+01501+01301999999ADDGA1021+004501999GA2071+024001999GF107991999999999999999999MA1101691999999REMMET058METAR LSZC 130620Z 27002KT 9999 FEW015 BKN080 15/13 Q1017;
0143068065999992010081307204+46967+008400FM-15+0450LSZC V0202701N001510240019N0112651N1+01601+01301999999ADDGA1041+004501999GA2071+024001999GF107991999999999999999999MA1101691999999REMMET058METAR LSZC 130720Z 27003KT 9999 SCT015 BKN080 16/13 Q1017;
0143068065999992010081307504+46967+008400FM-15+0450LSZC V0209999V001010180019N0112651N1+01601+01301999999ADDGA1041+004501999GA2071+018001999GF107991999999999999999999MA1101691999999REMMET058METAR LSZC 130750Z VRB02KT 9999 SCT015 BKN060 16/13 Q1017;
0143068065999992010081308204+46967+008400FM-15+0450LSZC V0209999V001510150019N0112651N1+01701+01301999999ADDGA1041+004501999GA2071+015001999GF107991999999999999999999MA1101691999999REMMET058METAR LSZC 130820Z VRB03KT 9999 SCT015 BKN057 17/13 Q1017;
0143068065999992010081308504+46967+008400FM-15+0450LSZC V0209999V001010150019N0112651N1+01701+01301999999ADDGA1041+004801999GA2071+015001999GF107991999999999999999999MA1101691999999REMMET058METAR LSZC 130850Z VRB02KT 9999 SCT016 BKN057 17/13 Q1017;
0143068065999992010081309204+46967+008400FM-15+0450LSZC V0209999V000510150019N0112651N1+01801+01301999999ADDGA1041+005101999GA2071+015001999GF107991999999999999999999MA1101691999999REMMET058METAR LSZC 130920Z VRB01KT 9999 SCT017 BKN057 18/13 Q1017;
0143068065999992010081309504+46967+008400FM-15+0450LSZC V0209999V000510150019N0112651N1+01901+01301999999ADDGA1041+005401999GA2071+015001999GF107991999999999999999999MA1101691999999REMMET058METAR LSZC 130950Z VRB01KT 9999 SCT018 BKN055 19/13 Q1017;
0143068065999992010081311204+46967+008400FM-15+0450LSZC V0209999V001510150019N0112651N1+01901+01401999999ADDGA1041+005401999GA2071+015001999GF107991999999999999999999MA1101591999999REMMET058METAR LSZC 131120Z VRB03KT 9999 SCT018 BKN055 19/14 Q1016;
0151068065999992010081311504+46967+008400FM-15+0450LSZC V0200901N002110150019N0112651N1+01901+01401999999ADDGA1041+005401999GA2071+015001999GF107991999999999999999999MA1101691999999REMMET066METAR LSZC 131150Z 09004KT 050V120 9999 SCT018 BKN055 19/14 Q1017;
0143068065999992010081312204+46967+008400FM-15+0450LSZC V0209999V001010150019N0112651N1+01901+01301999999ADDGA1041+005401999GA2071+015001999GF107991999999999999999999MA1101691999999REMMET058METAR LSZC 131220Z VRB02KT 9999 SCT018 BKN055 19/13 Q1017;
0143068065999992010081312504+46967+008400FM-15+0450LSZC V0209999V001010150019N0112651N1+02001+01401999999ADDGA1041+005401999GA2071+015001999GF107991999999999999999999MA1101691999999REMMET058METAR LSZC 131250Z VRB02KT 9999 SCT018 BKN055 20/14 Q1017;
0143068065999992010081313204+46967+008400FM-15+0450LSZC V0209999V001010210019N0112651N1+02001+01301999999ADDGA1041+009001999GA2071+021001999GF107991999999999999999999MA1101691999999REMMET058METAR LSZC 131320Z VRB02KT 9999 SCT030 BKN079 20/13 Q1017;
0151068065999992010081313504+46967+008400FM-15+0450LSZC V0200701N002610210019N0112651N1+02001+01401999999ADDGA1041+010501999GA2071+021001999GF107991999999999999999999MA1101591999999REMMET066METAR LSZC 131350Z 07005KT 030V100 9999 SCT035 BKN079 20/14 Q1016;
0143068065999992010081314504+46967+008400FM-15+0450LSZC V0209999V001010210019N0112651N1+01901+01301999999ADDGA1041+013501999GA2071+021001999GF107991999999999999999999MA1101691999999REMMET058METAR LSZC 131450Z VRB02KT 9999 SCT045 BKN079 19/13 Q1017;
0131068065999992010081606204+46967+008400FM-15+0450LSZC V0209999V000510210019N0112651N1+01201+01001999999ADDGA1081+021001999GF108991999999999999999999MA1101491999999MW1161REMMET056METAR LSZC 160620Z VRB01KT 9999 VCSH OVC070 12/10 Q1015;
0143068065999992010081606504+46967+008400FM-15+0450LSZC V0209999V000510210019N0112651N1+01201+01001999999ADDGA1021+004501999GA2081+021001999GF108991999999999999999999MA1101491999999REMMET058METAR LSZC 160650Z VRB01KT 9999 FEW015 OVC070 12/10 Q1015;
0143068065999992010081607204+46967+008400FM-15+0450LSZC V0209999C000010210019N0112651N1+01301+01101999999ADDGA1021+004501999GA2081+021001999GF108991999999999999999999MA1101491999999REMMET058METAR LSZC 160720Z 00000KT 9999 FEW015 OVC070 13/11 Q1015;
0143068065999992010081607504+46967+008400FM-15+0450LSZC V0209999V001010210019N0112651N1+01301+01101999999ADDGA1021+004501999GA2081+021001999GF108991999999999999999999MA1101391999999REMMET058METAR LSZC 160750Z VRB02KT 9999 FEW015 OVC070 13/11 Q1014;
0143068065999992010081608204+46967+008400FM-15+0450LSZC V0209999V000510210019N0112651N1+01401+01101999999ADDGA1021+004501999GA2081+021001999GF108991999999999999999999MA1101491999999REMMET058METAR LSZC 160820Z VRB01KT 9999 FEW015 OVC070 14/11 Q1015;
0143068065999992010081608504+46967+008400FM-15+0450LSZC V0209999V001510210019N0112651N1+01401+01101999999ADDGA1021+004501999GA2081+021001999GF108991999999999999999999MA1101491999999REMMET058METAR LSZC 160850Z VRB03KT 9999 FEW015 OVC070 14/11 Q1015;
0120068065999992010081609204+46967+008400FM-15+0450LSZC V0209999V000510210019N0112651N1+01401+01101999999ADDGA1081+021001999GF108991999999999999999999MA1101491999999REMMET051METAR LSZC 160920Z VRB01KT 9999 OVC070 14/11 Q1015;
0120068065999992010081609504+46967+008400FM-15+0450LSZC V0209999V000510180019N0112651N1+01401+01101999999ADDGA1081+018001999GF108991999999999999999999MA1101591999999REMMET051METAR LSZC 160950Z VRB01KT 9999 OVC060 14/11 Q1016;
0152068065999992010081611204+46967+008400FM-15+0450LSZC V0209999C000010150019N0070001N1+01401+01101999999ADDGA1041+007501999GA2081+015001999GF108991999999999999999999MA1101591999999MW1631REMMET061METAR LSZC 161120Z 00000KT 7000 RA SCT025 OVC050 14/11 Q1016;
0152068065999992010081611504+46967+008400FM-15+0450LSZC V0209999V001010150019N0070001N1+01401+01201999999ADDGA1041+007501999GA2081+015001999GF108991999999999999999999MA1101591999999MW1631REMMET061METAR LSZC 161150Z VRB02KT 7000 RA SCT025 OVC050 14/12 Q1016;
0151068065999992010081612504+46967+008400FM-15+0450LSZC V0200701N002610150019N0070001N1+01501+01101999999ADDGA1041+007501999GA2081+015001999GF108991999999999999999999MA1101691999999REMMET066METAR LSZC 161250Z 07005KT 030V110 7000 SCT025 OVC050 15/11 Q1017;
0166068065999992010081613204+46967+008400FM-15+0450LSZC V0200501N00261007501CN0112651N1+01501+01201999999ADDGA1021+004501999GA2041+007501999GA3071+015001999GF107991999999999999999999MA1101591999999REMMET065METAR LSZC 161320Z 05005KT 9999 FEW015 SCT025 BKN050 15/12 Q1016;
0166068065999992010081613504+46967+008400FM-15+0450LSZC V0200401N00261007501CN0112651N1+01501+01101999999ADDGA1021+004501999GA2041+007501999GA3081+021001999GF108991999999999999999999MA1101691999999REMMET065METAR LSZC 161350Z 04005KT 9999 FEW015 SCT025 OVC077 15/11 Q1017;
0166068065999992010081614204+46967+008400FM-15+0450LSZC V0200601N00261007501CN0112651N1+01501+01101999999ADDGA1021+004501999GA2041+007501999GA3081+021001999GF108991999999999999999999MA1101691999999REMMET065METAR LSZC 161420Z 06005KT 9999 FEW015 SCT025 OVC077 15/11 Q1017;
0174068065999992010081705504+46967+008400FM-15+0450LSZC V0200501N00261013501CN0112651N1+01401+01201999999ADDGA1021+003001999GA2041+013501999GA3071+021001999GF107991999999999999999999MA1101691999999REMMET073METAR LSZC 170550Z 05005KT 010V070 9999 FEW010 SCT045 BKN075 14/12 Q1017;
0151068065999992010081707204+46967+008400FM-15+0450LSZC V0200401N002610150019N0112651N1+01401+01201999999ADDGA1021+003001999GA2071+015001999GF107991999999999999999999MA1101801999999REMMET066METAR LSZC 170720Z 04005KT 350V070 9999 FEW010 BKN058 14/12 Q1018;
0143068065999992010081707504+46967+008400FM-15+0450LSZC V0200201N002110150019N0112651N1+01401+01201999999ADDGA1021+003001999GA2071+015001999GF107991999999999999999999MA1101801999999REMMET058METAR LSZC 170750Z 02004KT 9999 FEW010 BKN058 14/12 Q1018;
0143068065999992010081708204+46967+008400FM-15+0450LSZC V0209999V001010150019N0112651N1+01501+01201999999ADDGA1021+003001999GA2071+015001999GF107991999999999999999999MA1101801999999REMMET058METAR LSZC 170820Z VRB02KT 9999 FEW010 BKN058 15/12 Q1018;
0143068065999992010081708504+46967+008400FM-15+0450LSZC V0209999V000510150019N0112651N1+01501+01201999999ADDGA1021+003001999GA2071+015001999GF107991999999999999999999MA1101801999999REMMET058METAR LSZC 170850Z VRB01KT 9999 FEW010 BKN058 15/12 Q1018;
0120068065999992010081709204+46967+008400FM-15+0450LSZC V0209999C000010150019N0112651N1+01501+01201999999ADDGA1071+015001999GF107991999999999999999999MA1101801999999REMMET051METAR LSZC 170920Z 00000KT 9999 BKN058 15/12 Q1018;
0120068065999992010081709504+46967+008400FM-15+0450LSZC V0209999V000510150019N0112651N1+01501+01301999999ADDGA1071+015001999GF107991999999999999999999MA1101801999999REMMET051METAR LSZC 170950Z VRB01KT 9999 BKN058 15/13 Q1018;
0128068065999992010081711204+46967+008400FM-15+0450LSZC V0200801N001510150019N0112651N1+01601+01301999999ADDGA1071+015001999GF107991999999999999999999MA1101691999999REMMET059METAR LSZC 171120Z 08003KT 030V130 9999 BKN058 16/13 Q1017;
0128068065999992010081712204+46967+008400FM-15+0450LSZC V0200801N002110150019N0112651N1+01601+01201999999ADDGA1071+015001999GF107991999999999999999999MA1101691999999REMMET059METAR LSZC 171220Z 08004KT 050V110 9999 BKN058 16/12 Q1017;
0143068065999992010081712504+46967+008400FM-15+0450LSZC V0200501N002610150019N0112651N1+01801+01201999999ADDGA1071+015001999GA2081+030001999GF108991999999999999999999MA1101591999999REMMET058METAR LSZC 171250Z 05005KT 9999 BKN058 OVC100 18/12 Q1016;
0143068065999992010081713204+46967+008400FM-15+0450LSZC V0200601N002610150019N0112651N1+01801+01301999999ADDGA1071+015001999GA2081+030001999GF108991999999999999999999MA1101591999999REMMET058METAR LSZC 171320Z 06005KT 9999 BKN058 OVC100 18/13 Q1016;
0151068065999992010081714204+46967+008400FM-15+0450LSZC V0200901N002110150019N0112651N1+01901+01201999999ADDGA1071+015001999GA2081+030001999GF108991999999999999999999MA1101591999999REMMET066METAR LSZC 171420Z 09004KT 050V110 9999 BKN058 OVC100 19/12 Q1016;
0120068065999992010081805504+46967+008400FM-15+0450LSZC V0202601N002110300019N0112651N1+01501+01201999999ADDGA1071+030001999GF107991999999999999999999MA1101291999999REMMET051METAR LSZC 180550Z 26004KT 9999 BKN100 15/12 Q1013;
0120068065999992010081806204+46967+008400FM-15+0450LSZC V0209999V001010300019N0112651N1+01601+01201999999ADDGA1071+030001999GF107991999999999999999999MA1101291999999REMMET051METAR LSZC 180620Z VRB02KT 9999 BKN100 16/12 Q1013;
0120068065999992010081806504+46967+008400FM-15+0450LSZC V0202601N002110300019N0112651N1+01601+01301999999ADDGA1081+030001999GF108991999999999999999999MA1101291999999REMMET051METAR LSZC 180650Z 26004KT 9999 OVC100 16/13 Q1013;
0120068065999992010081807204+46967+008400FM-15+0450LSZC V0202601N002110300019N0112651N1+01601+01301999999ADDGA1081+030001999GF108991999999999999999999MA1101291999999REMMET051METAR LSZC 180720Z 26004KT 9999 OVC100 16/13 Q1013;
0120068065999992010081808204+46967+008400FM-15+0450LSZC V0209999V001010300019N0112651N1+01701+01301999999ADDGA1081+030001999GF108991999999999999999999MA1101291999999REMMET051METAR LSZC 180820Z VRB02KT 9999 OVC100 17/13 Q1013;
0120068065999992010081809204+46967+008400FM-15+0450LSZC V0200801N001010300019N0112651N1+01701+01301999999ADDGA1081+030001999GF108991999999999999999999MA1101291999999REMMET051METAR LSZC 180920Z 08002KT 9999 OVC100 17/13 Q1013;
0130068065999992010081812204+46967+008400FM-15+0450LSZC V0209999V000510300019N0112651N1+01801+01301999999ADDGA1081+030001999GF108991999999999999999999MA1101291999999MW1611REMMET055METAR LSZC 181220Z VRB01KT 9999 -RA OVC100 18/13 Q1013;
0130068065999992010081813204+46967+008400FM-15+0450LSZC V0209999V000510300019N0112651N1+01801+01401999999ADDGA1081+030001999GF108991999999999999999999MA1101291999999MW1611REMMET055METAR LSZC 181320Z VRB01KT 9999 -RA OVC100 18/14 Q1013;
0130068065999992010081813504+46967+008400FM-15+0450LSZC V0209999C000010300019N0112651N1+01801+01401999999ADDGA1081+030001999GF108991999999999999999999MA1101291999999MW1611REMMET055METAR LSZC 181350Z 00000KT 9999 -RA OVC100 18/14 Q1013;
0153068065999992010081905504+46967+008400FM-15+0450LSZC V0209999C000010135019N0080001N1+01501+01401999999ADDGA1041+004501999GA2081+013501999GF108991999999999999999999MA1101801999999MW1611REMMET062METAR LSZC 190550Z 00000KT 8000 -RA SCT015 OVC045 15/14 Q1018;
0143068065999992010081906204+46967+008400FM-15+0450LSZC V0209999C000010135019N0080001N1+01601+01401999999ADDGA1041+004501999GA2071+013501999GF107991999999999999999999MA1101801999999REMMET058METAR LSZC 190620Z 00000KT 8000 SCT015 BKN045 16/14 Q1018;
0143068065999992010081906504+46967+008400FM-15+0450LSZC V0209999V000510045019N0060001N1+01601+01401999999ADDGA1071+004501999GA2071+013501999GF107991999999999999999999MA1101801999999REMMET058METAR LSZC 190650Z VRB01KT 6000 BKN015 BKN045 16/14 Q1018;
0143068065999992010081907204+46967+008400FM-15+0450LSZC V0209999C000010045019N0060001N1+01601+01401999999ADDGA1071+004501999GA2071+013501999GF107991999999999999999999MA1101801999999REMMET058METAR LSZC 190720Z 00000KT 6000 BKN015 BKN045 16/14 Q1018;
0143068065999992010081907504+46967+008400FM-15+0450LSZC V0209999V000510045019N0060001N1+01701+01401999999ADDGA1071+004501999GA2071+013501999GF107991999999999999999999MA1101801999999REMMET058METAR LSZC 190750Z VRB01KT 6000 BKN015 BKN045 17/14 Q1018;
0120068065999992010081908504+46967+008400FM-15+0450LSZC V0209999V000510054019N0070001N1+01701+01401999999ADDGA1081+005401999GF108991999999999999999999MA1101901999999REMMET051METAR LSZC 190850Z VRB01KT 7000 OVC018 17/14 Q1019;
0128068065999992010081911504+46967+008400FM-15+0450LSZC V0201001N002112200019N0080001N1+02101+01501999999ADDGA1041+015001999GF104991999999999999999999MA1101801999999REMMET059METAR LSZC 191150Z 10004KT 050V140 8000 SCT055 21/15 Q1018;
0120068065999992010081912204+46967+008400FM-15+0450LSZC V0209999V001512200019N0112651N1+02101+01501999999ADDGA1021+015001999GF102991999999999999999999MA1101801999999REMMET051METAR LSZC 191220Z VRB03KT 9999 FEW055 21/15 Q1018;
0128068065999992010081912504+46967+008400FM-15+0450LSZC V0200901N002112200019N0112651N1+02101+01501999999ADDGA1021+015001999GF102991999999999999999999MA1101801999999REMMET059METAR LSZC 191250Z 09004KT 360V160 9999 FEW055 21/15 Q1018;
0128068065999992010081913504+46967+008400FM-15+0450LSZC V0200801N002112200019N0112651N1+02101+01501999999ADDGA1021+010501999GF102991999999999999999999MA1101801999999REMMET059METAR LSZC 191350Z 08004KT 040V140 9999 FEW035 21/15 Q1018;
0120068065999992010081914204+46967+008400FM-15+0450LSZC V0209999V001012200019N0112651N1+02301+01501999999ADDGA1021+010501999GF102991999999999999999999MA1101801999999REMMET051METAR LSZC 191420Z VRB02KT 9999 FEW035 23/15 Q1018;
0120068065999992010081914504+46967+008400FM-15+0450LSZC V0209999V000512200019N0112651N1+02301+01501999999ADDGA1021+010501999GF102991999999999999999999MA1101801999999REMMET051METAR LSZC 191450Z VRB01KT 9999 FEW035 23/15 Q1018;
0120068065999992010082005504+46967+008400FM-15+0450LSZC V0209999V000510150019N0112651N1+01601+01501999999ADDGA1071+015001999GF107991999999999999999999MA1102101999999REMMET051METAR LSZC 200550Z VRB01KT 9999 BKN050 16/15 Q1021;
0120068065999992010082006204+46967+008400FM-15+0450LSZC V0202601N000510150019N0112651N1+01601+01501999999ADDGA1071+015001999GF107991999999999999999999MA1102101999999REMMET051METAR LSZC 200620Z 26001KT 9999 BKN050 16/15 Q1021;
0120068065999992010082006504+46967+008400FM-15+0450LSZC V0209999V000510150019N0112651N1+01701+01501999999ADDGA1071+015001999GF107991999999999999999999MA1102101999999REMMET051METAR LSZC 200650Z VRB01KT 9999 BKN050 17/15 Q1021;
0120068065999992010082007204+46967+008400FM-15+0450LSZC V0209999V000510150019N0112651N1+01801+01501999999ADDGA1071+015001999GF107991999999999999999999MA1102101999999REMMET051METAR LSZC 200720Z VRB01KT 9999 BKN050 18/15 Q1021;
0120068065999992010082008204+46967+008400FM-15+0450LSZC V0209999V000510150019N0070001N1+02001+01601999999ADDGA1071+015001999GF107991999999999999999999MA1102101999999REMMET051METAR LSZC 200820Z VRB01KT 7000 BKN050 20/16 Q1021;
0120068065999992010082008504+46967+008400FM-15+0450LSZC V0200701N002610150019N0070001N1+02001+01601999999ADDGA1071+015001999GF107991999999999999999999MA1102101999999REMMET051METAR LSZC 200850Z 07005KT 7000 BKN050 20/16 Q1021;
0120068065999992010082009504+46967+008400FM-15+0450LSZC V0209999V001010150019N0070001N1+02001+01601999999ADDGA1071+015001999GF107991999999999999999999MA1102201999999REMMET051METAR LSZC 200950Z VRB02KT 7000 BKN050 20/16 Q1022;
0120068065999992010082011204+46967+008400FM-15+0450LSZC V0200701N002110150019N0070001N1+02101+01601999999ADDGA1071+015001999GF107991999999999999999999MA1102201999999REMMET051METAR LSZC 201120Z 07004KT 7000 BKN050 21/16 Q1022;
0128068065999992010082011504+46967+008400FM-15+0450LSZC V0200701N002612200019N0112651N1+02201+01701999999ADDGA1041+015001999GF104991999999999999999999MA1102201999999REMMET059METAR LSZC 201150Z 07005KT 050V120 9999 SCT050 22/17 Q1022;
0120068065999992010082012204+46967+008400FM-15+0450LSZC V0200701N003112200019N0112651N1+02101+01701999999ADDGA1041+015001999GF104991999999999999999999MA1102201999999REMMET051METAR LSZC 201220Z 07006KT 9999 SCT050 21/17 Q1022;
0128068065999992010082012504+46967+008400FM-15+0450LSZC V0200701N003112200019N0112651N1+02201+01601999999ADDGA1041+015001999GF104991999999999999999999MA1102201999999REMMET059METAR LSZC 201250Z 07006KT 030V100 9999 SCT050 22/16 Q1022;
0123068065999992010082014204+46967+008400FM-15+0450LSZC V0209999V001012200019N0112651N1+02401+01501999999ADDGA1041+013501021GF104991999999999999999999MA1102201999999REMMET054METAR LSZC 201420Z VRB02KT 9999 SCT045TCU 24/15 Q1022;
0120068065999992010082305504+46967+008400FM-15+0450LSZC V0209999V000510300019N0112651N1+01901+01601999999ADDGA1071+030001999GF107991999999999999999999MA1101191999999REMMET051METAR LSZC 230550Z VRB01KT 9999 BKN100 19/16 Q1012;
0128068065999992010082306204+46967+008400FM-15+0450LSZC V0202001N002110300019N0112651N1+02001+01601999999ADDGA1071+030001999GF107991999999999999999999MA1101291999999REMMET059METAR LSZC 230620Z 20004KT 160V240 9999 BKN100 20/16 Q1013;
0128068065999992010082306504+46967+008400FM-15+0450LSZC V0202401N002610300019N0112651N1+02001+01601999999ADDGA1071+030001999GF107991999999999999999999MA1101191999999REMMET059METAR LSZC 230650Z 24005KT 210V290 9999 BKN100 20/16 Q1012;
0143068065999992010082307204+46967+008400FM-15+0450LSZC V0209999V001010300019N0112651N1+02101+01601999999ADDGA1021+015001999GA2071+030001999GF107991999999999999999999MA1101291999999REMMET058METAR LSZC 230720Z VRB02KT 9999 FEW050 BKN100 21/16 Q1013;
0151068065999992010082308204+46967+008400FM-15+0450LSZC V0200701N002110300019N0112651N1+02201+01701999999ADDGA1021+015001999GA2071+030001999GF107991999999999999999999MA1101291999999REMMET066METAR LSZC 230820Z 07004KT 040V110 9999 FEW050 BKN100 22/17 Q1013;
0143068065999992010082308504+46967+008400FM-15+0450LSZC V0209999V001010420019N0112651N1+02201+01701999999ADDGA1041+030001999GA2071+042001999GF107991999999999999999999MA1101291999999REMMET058METAR LSZC 230850Z VRB02KT 9999 SCT100 BKN140 22/17 Q1013;
0151068065999992010082311204+46967+008400FM-15+0450LSZC V0200601N001510420019N0112651N1+02401+01701999999ADDGA1041+030001999GA2071+042001999GF107991999999999999999999MA1101191999999REMMET066METAR LSZC 231120Z 06003KT 030V100 9999 SCT100 BKN140 24/17 Q1012;
0143068065999992010082311504+46967+008400FM-15+0450LSZC V0209999V000510420019N0112651N1+02401+01701999999ADDGA1041+030001999GA2071+042001999GF107991999999999999999999MA1101081999999REMMET058METAR LSZC 231150Z VRB01KT 9999 SCT100 BKN140 24/17 Q1011;
0120068065999992010082312204+46967+008400FM-15+0450LSZC V0202501N003110360019N0112651N1+02301+01801999999ADDGA1071+036001999GF107991999999999999999999MA1101081999999REMMET051METAR LSZC 231220Z 25006KT 9999 BKN120 23/18 Q1011;
0120068065999992010082312504+46967+008400FM-15+0450LSZC V0209999V001510360019N0112651N1+02401+01801999999ADDGA1081+036001999GF108991999999999999999999MA1101081999999REMMET051METAR LSZC 231250Z VRB03KT 9999 OVC120 24/18 Q1011;
0128068065999992010082313204+46967+008400FM-15+0450LSZC V0202401N002110360019N0112651N1+02401+01701999999ADDGA1081+036001999GF108991999999999999999999MA1101021999999REMMET059METAR LSZC 231320Z 24004KT 210V280 9999 OVC120 24/17 Q1010;
0166068065999992010082405504+46967+008400FM-15+0450LSZC V0209999V00101006001CN0080001N1+01901+01701999999ADDGA1021+001501999GA2041+006001999GA3071+018001999GF107991999999999999999999MA1101081999999REMMET065METAR LSZC 240550Z VRB02KT 8000 FEW005 SCT020 BKN060 19/17 Q1011;
0166068065999992010082406204+46967+008400FM-15+0450LSZC V0209999V00051006001CN0080001N1+01901+01701999999ADDGA1021+001501999GA2041+006001999GA3071+018001999GF107991999999999999999999MA1101191999999REMMET065METAR LSZC 240620Z VRB01KT 8000 FEW005 SCT020 BKN060 19/17 Q1012;
0143068065999992010082406504+46967+008400FM-15+0450LSZC V0209999V000512200019N0112651N1+01901+01701999999ADDGA1021+001501999GA2041+015001999GF104991999999999999999999MA1101081999999REMMET058METAR LSZC 240650Z VRB01KT 9999 FEW005 SCT050 19/17 Q1011;
0143068065999992010082407504+46967+008400FM-15+0450LSZC V0209999V000510240019N0112651N1+02001+01801999999ADDGA1021+003001999GA2071+024001999GF107991999999999999999999MA1101081999999REMMET058METAR LSZC 240750Z VRB01KT 9999 FEW010 BKN080 20/18 Q1011;
0143068065999992010082409204+46967+008400FM-15+0450LSZC V0201001N001010240019N0112651N1+02101+01801999999ADDGA1021+003001999GA2071+024001999GF107991999999999999999999MA1101191999999REMMET058METAR LSZC 240920Z 10002KT 9999 FEW010 BKN080 21/18 Q1012;
0143068065999992010082411204+46967+008400FM-15+0450LSZC V0209999V000512200019N0112651N1+02401+01701999999ADDGA1021+004501999GA2041+024001999GF104991999999999999999999MA1101191999999REMMET058METAR LSZC 241120Z VRB01KT 9999 FEW015 SCT080 24/17 Q1012;
0143068065999992010082412504+46967+008400FM-15+0450LSZC V0200601N003612200019N0112651N1+02401+01801999999ADDGA1021+004501999GA2041+024001999GF104991999999999999999999MA1101291999999REMMET058METAR LSZC 241250Z 06007KT 9999 FEW015 SCT080 24/18 Q1013;
0162068065999992010082414204+46967+008400FM-15+0450LSZC V0203301N007710210019N0112651N1+02401+01501999999ADDGA1041+010201999GA2071+021001999GF107991999999999999999999MA1101291999999OC101541REMMET069METAR LSZC 241420Z 33015G30KT 290V010 9999 SCT034 BKN070 24/15 Q1013;
0143068065999992010082507204+46967+008400FM-15+0450LSZC V0209999V000512200019N0112651N1+01801+01101999999ADDGA1041+012001999GA2041+060001999GF104991999999999999999999MA1101901999999REMMET058METAR LSZC 250720Z VRB01KT 9999 SCT040 SCT200 18/11 Q1019;
0120068065999992010082508204+46967+008400FM-15+0450LSZC V0209999V001512200019N0112651N1+01901+01101999999ADDGA1021+012001999GF102991999999999999999999MA1102001999999REMMET051METAR LSZC 250820Z VRB03KT 9999 FEW040 19/11 Q1020;
0128068065999992010082508504+46967+008400FM-15+0450LSZC V0201001N001512200019N0112651N1+01901+01201999999ADDGA1021+012001999GF102991999999999999999999MA1102001999999REMMET059METAR LSZC 250850Z 10003KT 020V150 9999 FEW040 19/12 Q1020;
0080068065999992010082512504+46967+008400FM-15+0450LSZC V0201101N002619999999Y0099001N1+02201+01201999999ADDMA1101901999999REMMET053METAR LSZC 251250Z 11005KT 050V180 CAVOK 22/12 Q1019;
0080068065999992010082513504+46967+008400FM-15+0450LSZC V0200901N001519999999Y0099001N1+02301+01201999999ADDMA1101801999999REMMET053METAR LSZC 251350Z 09003KT 030V150 CAVOK 23/12 Q1018;
0080068065999992010082514504+46967+008400FM-15+0450LSZC V0200901N002119999999Y0099001N1+02301+01201999999ADDMA1101801999999REMMET053METAR LSZC 251450Z 09004KT 050V140 CAVOK 23/12 Q1018;
0120068065999992010082605504+46967+008400FM-15+0450LSZC V0202401N003110240019N0112651N1+01701+01401999999ADDGA1071+024001999GF107991999999999999999999MA1101801999999REMMET051METAR LSZC 260550Z 24006KT 9999 BKN083 17/14 Q1018;
0120068065999992010082606204+46967+008400FM-15+0450LSZC V0202501N002612200019N0112651N1+01801+01501999999ADDGA1041+024001999GF104991999999999999999999MA1101801999999REMMET051METAR LSZC 260620Z 25005KT 9999 SCT083 18/15 Q1018;
0128068065999992010082606504+46967+008400FM-15+0450LSZC V0202401N002112200019N0112651N1+01901+01501999999ADDGA1041+024001999GF104991999999999999999999MA1101691999999REMMET059METAR LSZC 260650Z 24004KT 200V260 9999 SCT083 19/15 Q1017;
0128068065999992010082607204+46967+008400FM-15+0450LSZC V0202601N002112200019N0112651N1+02001+01501999999ADDGA1021+024001999GF102991999999999999999999MA1101691999999REMMET059METAR LSZC 260720Z 26004KT 230V290 9999 FEW083 20/15 Q1017;
0120068065999992010082607504+46967+008400FM-15+0450LSZC V0209999V000512200019N0112651N1+02101+01401999999ADDGA1021+024001999GF102991999999999999999999MA1101691999999REMMET051METAR LSZC 260750Z VRB01KT 9999 FEW083 21/14 Q1017;
0072068065999992010082608504+46967+008400FM-15+0450LSZC V0209999V001519999999Y0099001N1+02301+01401999999ADDMA1101691999999REMMET045METAR LSZC 260850Z VRB03KT CAVOK 23/14 Q1017;
0072068065999992010082609204+46967+008400FM-15+0450LSZC V0200701N002619999999Y0099001N1+02201+01401999999ADDMA1101691999999REMMET045METAR LSZC 260920Z 07005KT CAVOK 22/14 Q1017;
0080068065999992010082609504+46967+008400FM-15+0450LSZC V0200901N002119999999Y0099001N1+02301+01401999999ADDMA1101691999999REMMET053METAR LSZC 260950Z 09004KT 050V120 CAVOK 23/14 Q1017;
0072068065999992010082611204+46967+008400FM-15+0450LSZC V0200801N002119999999Y0099001N1+02401+01501999999ADDMA1101591999999REMMET045METAR LSZC 261120Z 08004KT CAVOK 24/15 Q1016;
0072068065999992010082612204+46967+008400FM-15+0450LSZC V0200701N001519999999Y0099001N1+02501+01501999999ADDMA1101491999999REMMET045METAR LSZC 261220Z 07003KT CAVOK 25/15 Q1015;
0072068065999992010082612504+46967+008400FM-15+0450LSZC V0200701N002119999999Y0099001N1+02501+01601999999ADDMA1101491999999REMMET045METAR LSZC 261250Z 07004KT CAVOK 25/16 Q1015;
0080068065999992010082614204+46967+008400FM-15+0450LSZC V0200701N002119999999Y0099001N1+02601+01501999999ADDMA1101391999999REMMET053METAR LSZC 261420Z 07004KT 040V110 CAVOK 26/15 Q1014;
0151068065999992010082705204+46967+008400FM-15+0450LSZC V0202801N001510210019N0112651N1+02101+01501999999ADDGA1071+021001999GA2081+024001999GF108991999999999999999999MA1101021999999REMMET066METAR LSZC 270520Z 28003KT 240V330 9999 BKN079 OVC085 21/15 Q1010;
0143068065999992010082705504+46967+008400FM-15+0450LSZC V0209999V001010210019N0112651N1+02101+01501999999ADDGA1071+021001999GA2081+024001999GF108991999999999999999999MA1101021999999REMMET058METAR LSZC 270550Z VRB02KT 9999 BKN079 OVC085 21/15 Q1010;
0185068065999992010082706504+46967+008400FM-15+0450LSZC V0200101N003610150019N0112651N1+02201+01501999999ADDGA1021+010501999GA2071+015001999GA3081+021001999GF108991999999999999999999MA1101081999999OC100871REMMET076METAR LSZC 270650Z 01007G17KT 330V040 9999 FEW035 BKN053 OVC075 22/15 Q1011;
0193068065999992010082707204+46967+008400FM-15+0450LSZC V0200301N005710150019N0035001N1+02001+01601999999ADDGA1041+010501999GA2071+015001999GA3081+021001999GF108991999999999999999999MA1101191999999MW1101MW2651REMMET080METAR LSZC 270720Z 03011KT 350V060 3500 +RA BR SCT035 BKN053 OVC075 20/16 Q1012;
0178068065999992010082707504+46967+008400FM-15+0450LSZC V0209999V00261009001CN0050001N1+01901+01501999999ADDGA1021+006001999GA2041+009001999GA3071+012001999GF107991999999999999999999MA1101291999999MW1821REMMET071METAR LSZC 270750Z VRB05KT 5000 +SHRA FEW020 SCT030 BKN040 19/15 Q1013;
0175068065999992010082709204+46967+008400FM-15+0450LSZC V0209999V00101009001CN0050001N1+01701+01501999999ADDGA1021+006001999GA2041+009001999GA3071+012001999GF107991999999999999999999MA1101391999999MW1631REMMET068METAR LSZC 270920Z VRB02KT 5000 RA FEW020 SCT030 BKN040 17/15 Q1014;
0183068065999992010082709504+46967+008400FM-15+0450LSZC V0201001N00211009001CN0060001N1+01701+01501999999ADDGA1021+006001999GA2041+009001999GA3071+012001999GF107991999999999999999999MA1101391999999MW1631REMMET076METAR LSZC 270950Z 10004KT 060V140 6000 RA FEW020 SCT030 BKN040 17/15 Q1014;
0143068065999992010082711204+46967+008400FM-15+0450LSZC V0209999V001012200019N0112651N1+02101+01601999999ADDGA1021+006001999GA2041+021001999GF104991999999999999999999MA1101191999999REMMET058METAR LSZC 271120Z VRB02KT 9999 FEW020 SCT076 21/16 Q1012;
0151068065999992010082711504+46967+008400FM-15+0450LSZC V0200501N003110210019N0112651N1+02001+01501999999ADDGA1021+006001999GA2071+021001999GF107991999999999999999999MA1101081999999REMMET066METAR LSZC 271150Z 05006KT 020V080 9999 FEW020 BKN076 20/15 Q1011;
0151068065999992010082712504+46967+008400FM-15+0450LSZC V0200601N003110210019N0112651N1+02001+01601999999ADDGA1021+006001999GA2071+021001999GF107991999999999999999999MA1101021999999REMMET066METAR LSZC 271250Z 06006KT 030V110 9999 FEW020 BKN076 20/16 Q1010;
0143068065999992010082714204+46967+008400FM-15+0450LSZC V0209999V000510210019N0112651N1+02301+01501999999ADDGA1021+006001999GA2071+021001999GF107991999999999999999999MA1101021999999REMMET058METAR LSZC 271420Z VRB01KT 9999 FEW020 BKN076 23/15 Q1010;
0143068065999992010083005504+46967+008400FM-15+0450LSZC V0209999V002110105019N0112651N1+01101+00501999999ADDGA1021+006001999GA2071+010501999GF107991999999999999999999MA1101591999999REMMET058METAR LSZC 300550Z VRB04KT 9999 FEW020 BKN035 11/05 Q1016;
0151068065999992010083006204+46967+008400FM-15+0450LSZC V0201601N002110105019N0112651N1+01001+00701999999ADDGA1021+006001999GA2071+010501999GF107991999999999999999999MA1101591999999REMMET066METAR LSZC 300620Z 16004KT 100V190 9999 FEW020 BKN035 10/07 Q1016;
0151068065999992010083006504+46967+008400FM-15+0450LSZC V0203301N003110105019N0112651N1+01101+00501999999ADDGA1021+006001999GA2071+010501999GF107991999999999999999999MA1101591999999REMMET066METAR LSZC 300650Z 33006KT 280V010 9999 FEW020 BKN035 11/05 Q1016;
0143068065999992010083007204+46967+008400FM-15+0450LSZC V0209999V002110105019N0112651N1+01101+00601999999ADDGA1021+006001999GA2071+010501999GF107991999999999999999999MA1101691999999REMMET058METAR LSZC 300720Z VRB04KT 9999 FEW020 BKN035 11/06 Q1017;
0162068065999992010083007504+46967+008400FM-15+0450LSZC V0203501N002610105019N0112651N1+01201+00601999999ADDGA1021+006001999GA2071+010501999GF107991999999999999999999MA1101691999999OC100821REMMET069METAR LSZC 300750Z 35005G16KT 300V030 9999 FEW020 BKN035 12/06 Q1017;
0128068065999992010083008204+46967+008400FM-15+0450LSZC V0201601N002610111019N0112651N1+01201+00601999999ADDGA1071+011101999GF107991999999999999999999MA1101691999999REMMET059METAR LSZC 300820Z 16005KT 120V190 9999 BKN037 12/06 Q1017;
0128068065999992010083008504+46967+008400FM-15+0450LSZC V0201201N002610126019N0112651N1+01301+00701999999ADDGA1071+012601999GF107991999999999999999999MA1101691999999REMMET059METAR LSZC 300850Z 12005KT 100V160 9999 BKN042 13/07 Q1017;
0143068065999992010083009204+46967+008400FM-15+0450LSZC V0209999V001510150019N0112651N1+01301+00701999999ADDGA1041+012601999GA2071+015001999GF107991999999999999999999MA1101691999999REMMET058METAR LSZC 300920Z VRB03KT 9999 SCT042 BKN052 13/07 Q1017;
0151068065999992010083009504+46967+008400FM-15+0450LSZC V0201101N001510150019N0112651N1+01401+00601999999ADDGA1041+012601999GA2071+015001999GF107991999999999999999999MA1101691999999REMMET066METAR LSZC 300950Z 11003KT 050V160 9999 SCT042 BKN052 14/06 Q1017;
0128068065999992010083011204+46967+008400FM-15+0450LSZC V0202701N004110180019N0112651N1+01401+00401999999ADDGA1071+018001999GF107991999999999999999999MA1101691999999REMMET059METAR LSZC 301120Z 27008KT 210V360 9999 BKN060 14/04 Q1017;
0128068065999992010083011504+46967+008400FM-15+0450LSZC V0202701N004110180019N0112651N1+01401+00501999999ADDGA1071+018001999GF107991999999999999999999MA1101691999999REMMET059METAR LSZC 301150Z 27008KT 240V300 9999 BKN060 14/05 Q1017;
0120068065999992010083012204+46967+008400FM-15+0450LSZC V0202601N004610180019N0112651N1+01401+00401999999ADDGA1071+018001999GF107991999999999999999999MA1101691999999REMMET051METAR LSZC 301220Z 26009KT 9999 BKN060 14/04 Q1017;
0128068065999992010083012504+46967+008400FM-15+0450LSZC V0202601N003110180019N0112651N1+01401+00501999999ADDGA1071+018001999GF107991999999999999999999MA1101691999999REMMET059METAR LSZC 301250Z 26006KT 190V300 9999 BKN060 14/05 Q1017;
0128068065999992010083013204+46967+008400FM-15+0450LSZC V0202701N003110150019N0112651N1+01401+00501999999ADDGA1071+015001999GF107991999999999999999999MA1101691999999REMMET059METAR LSZC 301320Z 27006KT 200V290 9999 BKN058 14/05 Q1017;
0154068065999992010083013504+46967+008400FM-15+0450LSZC V0202601N004610180019N0112651N1+01401+00501999999ADDGA1041+015001999GA2071+018001999GF107991999999999999999999MA1101691999999MW1161REMMET063METAR LSZC 301350Z 26009KT 9999 VCSH SCT055 BKN065 14/05 Q1017;
0131068065999992010083014204+46967+008400FM-15+0450LSZC V0202501N006210150019N0112651N1+01401+00501999999ADDGA1071+015001999GF107991999999999999999999MA1101691999999MW1161REMMET056METAR LSZC 301420Z 25012KT 9999 VCSH BKN054 14/05 Q1017;
0142068065999992010083014504+46967+008400FM-15+0450LSZC V0202601N005710150019N0112651N1+01301+00601999999ADDGA1071+015001999GF107991999999999999999999MA1101801999999MW1161OC101081REMMET059METAR LSZC 301450Z 26011G21KT 9999 VCSH BKN054 13/06 Q1018;
0143068065999992010083105504+46967+008400FM-15+0450LSZC V0209999V000510078019N0112651N1+01001+00801999999ADDGA1041+004801999GA2071+007801999GF107991999999999999999999MA1102201999999REMMET058METAR LSZC 310550Z VRB01KT 9999 SCT016 BKN026 10/08 Q1022;
0159068065999992010083106204+46967+008400FM-15+0450LSZC V0209999V001010078019N0112651N1+01001+00801999999ADDGA1041+004501999GA2071+007801999GF107991999999999999999999MA1102201999999MW1651REMMET068METAR LSZC 310620Z VRB02KT 9999 3000E +RA SCT015 BKN026 10/08 Q1022;
0175068065999992010083106504+46967+008400FM-15+0450LSZC V0209999V00101008401CN0070001N1+01001+00801999999ADDGA1041+003601999GA2041+008401999GA3071+013501999GF107991999999999999999999MA1102201999999MW1631REMMET068METAR LSZC 310650Z VRB02KT 7000 RA SCT012 SCT028 BKN045 10/08 Q1022;
0153068065999992010083107204+46967+008400FM-15+0450LSZC V0209999V000510126019N0070001N1+01001+00801999999ADDGA1041+003601999GA2071+012601999GF107991999999999999999999MA1102301999999MW1611REMMET062METAR LSZC 310720Z VRB01KT 7000 -RA SCT012 BKN042 10/08 Q1023;
0152068065999992010083107504+46967+008400FM-15+0450LSZC V0209999V000510135019N0112651N1+01001+00901999999ADDGA1041+004801999GA2071+013501999GF107991999999999999999999MA1102301999999MW1631REMMET061METAR LSZC 310750Z VRB01KT 9999 RA SCT016 BKN045 10/09 Q1023;
0152068065999992010083108204+46967+008400FM-15+0450LSZC V0209999V000510135019N0050001N1+01101+00901999999ADDGA1041+004801999GA2071+013501999GF107991999999999999999999MA1102301999999MW1631REMMET061METAR LSZC 310820Z VRB01KT 5000 RA SCT016 BKN045 11/09 Q1023;
0143068065999992010083108504+46967+008400FM-15+0450LSZC V0209999V001010135019N0112651N1+01101+00901999999ADDGA1041+004801999GA2071+013501999GF107991999999999999999999MA1102301999999REMMET058METAR LSZC 310850Z VRB02KT 9999 SCT016 BKN045 11/09 Q1023;
0151068065999992010083109504+46967+008400FM-15+0450LSZC V0200701N002610135019N0112651N1+01201+00801999999ADDGA1041+004801999GA2071+013501999GF107991999999999999999999MA1102301999999REMMET066METAR LSZC 310950Z 07005KT 030V140 9999 SCT016 BKN045 12/08 Q1023;
0151068065999992010083111204+46967+008400FM-15+0450LSZC V0200601N002612200019N0112651N1+01401+00801999999ADDGA1041+013501999GA2041+024001999GF104991999999999999999999MA1102201999999REMMET066METAR LSZC 311120Z 06005KT 030V090 9999 SCT045 SCT082 14/08 Q1022;
0151068065999992010083112204+46967+008400FM-15+0450LSZC V0200801N003612200019N0112651N1+01501+00901999999ADDGA1041+015001999GA2041+024001999GF104991999999999999999999MA1102201999999REMMET066METAR LSZC 311220Z 08007KT 050V120 9999 SCT053 SCT082 15/09 Q1022;
0151068065999992010083112504+46967+008400FM-15+0450LSZC V0200701N003112200019N0112651N1+01401+00801999999ADDGA1041+013501999GA2041+021001999GF104991999999999999999999MA1102201999999REMMET066METAR LSZC 311250Z 07006KT 040V110 9999 SCT045 SCT079 14/08 Q1022;
0143068065999992010083113204+46967+008400FM-15+0450LSZC V0200601N003612200019N0112651N1+01401+00701999999ADDGA1041+013501999GA2041+021001999GF104991999999999999999999MA1102201999999REMMET058METAR LSZC 311320Z 06007KT 9999 SCT045 SCT079 14/07 Q1022;
0151068065999992010083113504+46967+008400FM-15+0450LSZC V0200501N002612200019N0112651N1+01501+00801999999ADDGA1041+013501999GA2041+024001999GF104991999999999999999999MA1102201999999REMMET066METAR LSZC 311350Z 05005KT 020V090 9999 SCT045 SCT084 15/08 Q1022;
0128068065999992010083114204+46967+008400FM-15+0450LSZC V0200801N002112200019N0112651N1+01601+00801999999ADDGA1041+015001999GF104991999999999999999999MA1102201999999REMMET059METAR LSZC 311420Z 08004KT 040V140 9999 SCT050 16/08 Q1022;
0072068065999992010090105504+46967+008400FM-15+0450LSZC V0202401N002119999999Y0099001N1+00701+00501999999ADDMA1101901999999REMMET045METAR LSZC 010550Z 24004KT CAVOK 07/05 Q1019;
0072068065999992010090106204+46967+008400FM-15+0450LSZC V0202601N002619999999Y0099001N1+00801+00601999999ADDMA1101901999999REMMET045METAR LSZC 010620Z 26005KT CAVOK 08/06 Q1019;
0080068065999992010090108204+46967+008400FM-15+0450LSZC V02099999999999999999Y0099001N1+01201+00601999999ADDMA1101901999999REMMET053METAR LSZC 010820Z /////KT ///V/// CAVOK 12/06 Q1019;
0072068065999992010090111504+46967+008400FM-15+0450LSZC V0209999V001019999999Y0099001N1+01701+00801999999ADDMA1101801999999REMMET045METAR LSZC 011150Z VRB02KT CAVOK 17/08 Q1018;
0072068065999992010090112204+46967+008400FM-15+0450LSZC V0209999V001519999999Y0099001N1+01801+01001999999ADDMA1101801999999REMMET045METAR LSZC 011220Z VRB03KT CAVOK 18/10 Q1018;
0080068065999992010090112504+46967+008400FM-15+0450LSZC V0200701N002119999999Y0099001N1+01701+01001999999ADDMA1101691999999REMMET053METAR LSZC 011250Z 07004KT 030V110 CAVOK 17/10 Q1017;
0080068065999992010090113504+46967+008400FM-15+0450LSZC V0201101N001519999999Y0099001N1+01801+00901999999ADDMA1101691999999REMMET053METAR LSZC 011350Z 11003KT 060V180 CAVOK 18/09 Q1017;
0120068065999992010090205504+46967+008400FM-15+0450LSZC V0202501N001512200019N0112651N1+00801+00701999999ADDGA1021+006001999GF102991999999999999999999MA1101691999999REMMET051METAR LSZC 020550Z 25003KT 9999 FEW020 08/07 Q1017;
0120068065999992010090206204+46967+008400FM-15+0450LSZC V0202701N002112200019N0112651N1+01001+00801999999ADDGA1021+006001999GF102991999999999999999999MA1101691999999REMMET051METAR LSZC 020620Z 27004KT 9999 FEW020 10/08 Q1017;
0120068065999992010090206504+46967+008400FM-15+0450LSZC V0202701N002112200019N0112651N1+01101+00801999999ADDGA1021+006001999GF102991999999999999999999MA1101691999999REMMET051METAR LSZC 020650Z 27004KT 9999 FEW020 11/08 Q1017;
0128068065999992010090207204+46967+008400FM-15+0450LSZC V0202601N001512200019N0112651N1+01201+00901999999ADDGA1021+006001999GF102991999999999999999999MA1101691999999REMMET059METAR LSZC 020720Z 26003KT 220V290 9999 FEW020 12/09 Q1017;
0120068065999992010090207504+46967+008400FM-15+0450LSZC V0209999V000512200019N0112651N1+01301+01001999999ADDGA1021+006001999GF102991999999999999999999MA1101691999999REMMET051METAR LSZC 020750Z VRB01KT 9999 FEW020 13/10 Q1017;
0120068065999992010090208204+46967+008400FM-15+0450LSZC V0209999V001012200019N0112651N1+01401+00901999999ADDGA1021+006001999GF102991999999999999999999MA1101691999999REMMET051METAR LSZC 020820Z VRB02KT 9999 FEW020 14/09 Q1017;
0080068065999992010090209504+46967+008400FM-15+0450LSZC V0200501N001519999999Y0099001N1+01501+01001999999ADDMA1101691999999REMMET053METAR LSZC 020950Z 05003KT 010V100 CAVOK 15/10 Q1017;
0072068065999992010090211204+46967+008400FM-15+0450LSZC V0209999V001519999999Y0099001N1+01701+01001999999ADDMA1101691999999REMMET045METAR LSZC 021120Z VRB03KT CAVOK 17/10 Q1017;
0080068065999992010090211504+46967+008400FM-15+0450LSZC V0200801N002119999999Y0099001N1+01701+01101999999ADDMA1101691999999REMMET053METAR LSZC 021150Z 08004KT 030V120 CAVOK 17/11 Q1017;
0080068065999992010090212204+46967+008400FM-15+0450LSZC V0200801N002119999999Y0099001N1+01801+01101999999ADDMA1101691999999REMMET053METAR LSZC 021220Z 08004KT 030V130 CAVOK 18/11 Q1017;
0080068065999992010090212504+46967+008400FM-15+0450LSZC V0201101N001519999999Y0099001N1+01801+01201999999ADDMA1101591999999REMMET053METAR LSZC 021250Z 11003KT 010V160 CAVOK 18/12 Q1016;
0080068065999992010090213204+46967+008400FM-15+0450LSZC V0200801N002119999999Y0099001N1+01801+01201999999ADDMA1101591999999REMMET053METAR LSZC 021320Z 08004KT 010V130 CAVOK 18/12 Q1016;
0080068065999992010090213504+46967+008400FM-15+0450LSZC V0200701N002119999999Y0099001N1+01901+01201999999ADDMA1101591999999REMMET053METAR LSZC 021350Z 07004KT 030V120 CAVOK 19/12 Q1016;
0143068065999992010090305504+46967+008400FM-15+0450LSZC V0209999V001510600019N0112651N1+01201+01001999999ADDGA1021+003001999GA2071+060001999GF107991999999999999999999MA1101801999999REMMET058METAR LSZC 030550Z VRB03KT 9999 FEW010 BKN200 12/10 Q1018;
0143068065999992010090306204+46967+008400FM-15+0450LSZC V0202601N001510600019N0112651N1+01201+01001999999ADDGA1021+003001999GA2071+060001999GF107991999999999999999999MA1101801999999REMMET058METAR LSZC 030620Z 26003KT 9999 FEW010 BKN200 12/10 Q1018;
0143068065999992010090306504+46967+008400FM-15+0450LSZC V0202501N001012200019N0112651N1+01301+01101999999ADDGA1021+003001999GA2041+060001999GF104991999999999999999999MA1101901999999REMMET058METAR LSZC 030650Z 25002KT 9999 FEW010 SCT200 13/11 Q1019;
0120068065999992010090307204+46967+008400FM-15+0450LSZC V0209999C000012200019N0112651N1+01501+01101999999ADDGA1021+003001999GF102991999999999999999999MA1101901999999REMMET051METAR LSZC 030720Z 00000KT 9999 FEW010 15/11 Q1019;
0120068065999992010090307504+46967+008400FM-15+0450LSZC V0209999V000512200019N0112651N1+01601+01201999999ADDGA1021+005101999GF102991999999999999999999MA1101901999999REMMET051METAR LSZC 030750Z VRB01KT 9999 FEW017 16/12 Q1019;
0120068065999992010090308204+46967+008400FM-15+0450LSZC V0209999V001512200019N0112651N1+01601+01201999999ADDGA1021+005101999GF102991999999999999999999MA1101901999999REMMET051METAR LSZC 030820Z VRB03KT 9999 FEW017 16/12 Q1019;
0120068065999992010090308504+46967+008400FM-15+0450LSZC V0209999V001012200019N0112651N1+01701+01201999999ADDGA1021+005101999GF102991999999999999999999MA1101901999999REMMET051METAR LSZC 030850Z VRB02KT 9999 FEW017 17/12 Q1019;
0128068065999992010090309204+46967+008400FM-15+0450LSZC V0200801N002112200019N0112651N1+01701+01201999999ADDGA1021+005101999GF102991999999999999999999MA1101801999999REMMET059METAR LSZC 030920Z 08004KT 030V110 9999 FEW017 17/12 Q1018;
0128068065999992010090309504+46967+008400FM-15+0450LSZC V0200801N001512200019N0112651N1+01801+01201999999ADDGA1021+015001999GF102991999999999999999999MA1101801999999REMMET059METAR LSZC 030950Z 08003KT 040V120 9999 FEW050 18/12 Q1018;
0120068065999992010090311204+46967+008400FM-15+0450LSZC V0209999V001512200019N0112651N1+02001+01401999999ADDGA1021+012001999GF102991999999999999999999MA1101801999999REMMET051METAR LSZC 031120Z VRB03KT 9999 FEW040 20/14 Q1018;
0128068065999992010090312204+46967+008400FM-15+0450LSZC V0200701N002112200019N0112651N1+02001+01501999999ADDGA1021+012001999GF102991999999999999999999MA1101801999999REMMET059METAR LSZC 031220Z 07004KT 340V110 9999 FEW040 20/15 Q1018;
0128068065999992010090312504+46967+008400FM-15+0450LSZC V0200801N002112200019N0112651N1+02101+01301999999ADDGA1021+015001999GF102991999999999999999999MA1101691999999REMMET059METAR LSZC 031250Z 08004KT 050V140 9999 FEW050 21/13 Q1017;
0128068065999992010090313204+46967+008400FM-15+0450LSZC V0201001N001512200019N0112651N1+02201+01401999999ADDGA1021+015001999GF102991999999999999999999MA1101691999999REMMET059METAR LSZC 031320Z 10003KT 030V160 9999 FEW050 22/14 Q1017;
0128068065999992010090313504+46967+008400FM-15+0450LSZC V0200701N002112200019N0112651N1+02201+01301999999ADDGA1021+015001999GF102991999999999999999999MA1101691999999REMMET059METAR LSZC 031350Z 07004KT 030V140 9999 FEW050 22/13 Q1017;
0120068065999992010090314204+46967+008400FM-15+0450LSZC V0209999V001512200019N0112651N1+02201+01201999999ADDGA1021+015001999GF102991999999999999999999MA1101691999999REMMET051METAR LSZC 031420Z VRB03KT 9999 FEW050 22/12 Q1017;
0120068065999992010090314504+46967+008400FM-15+0450LSZC V0209999V001512200019N0112651N1+02201+01301999999ADDGA1021+015001999GF102991999999999999999999MA1101691999999REMMET051METAR LSZC 031450Z VRB03KT 9999 FEW050 22/13 Q1017;
0120068065999992010090605504+46967+008400FM-15+0450LSZC V0202601N001512200019N0080001N1+01301+01001999999ADDGA1041+003601999GF104991999999999999999999MA1101591999999REMMET051METAR LSZC 060550Z 26003KT 8000 SCT012 13/10 Q1016;
0120068065999992010090606204+46967+008400FM-15+0450LSZC V0202401N002112200019N0080001N1+01301+01101999999ADDGA1041+003601999GF104991999999999999999999MA1101591999999REMMET051METAR LSZC 060620Z 24004KT 8000 SCT012 13/11 Q1016;
0120068065999992010090607204+46967+008400FM-15+0450LSZC V0209999V001012200019N0080001N1+01401+01101999999ADDGA1041+003901999GF104991999999999999999999MA1101591999999REMMET051METAR LSZC 060720Z VRB02KT 8000 SCT013 14/11 Q1016;
0143068065999992010090607504+46967+008400FM-15+0450LSZC V0209999C000010420019N0070001N1+01501+01101999999ADDGA1041+003901999GA2081+042001999GF108991999999999999999999MA1101591999999REMMET058METAR LSZC 060750Z 00000KT 7000 SCT013 OVC140 15/11 Q1016;
0143068065999992010090608204+46967+008400FM-15+0450LSZC V0209999V001010420019N0070001N1+01501+01101999999ADDGA1041+003901999GA2081+042001999GF108991999999999999999999MA1101591999999REMMET058METAR LSZC 060820Z VRB02KT 7000 SCT013 OVC140 15/11 Q1016;
0143068065999992010090608504+46967+008400FM-15+0450LSZC V0209999V001010420019N0070001N1+01501+01201999999ADDGA1041+003901999GA2081+042001999GF108991999999999999999999MA1101591999999REMMET058METAR LSZC 060850Z VRB02KT 7000 SCT013 OVC140 15/12 Q1016;
0143068065999992010090609204+46967+008400FM-15+0450LSZC V0209999V001510420019N0070001N1+01601+01201999999ADDGA1041+003901999GA2081+042001999GF108991999999999999999999MA1101591999999REMMET058METAR LSZC 060920Z VRB03KT 7000 SCT013 OVC140 16/12 Q1016;
0143068065999992010090609504+46967+008400FM-15+0450LSZC V0209999V001510270019N0070001N1+01601+01201999999ADDGA1041+003901999GA2071+027001999GF107991999999999999999999MA1101491999999REMMET058METAR LSZC 060950Z VRB03KT 7000 SCT013 BKN090 16/12 Q1015;
0143068065999992010090611204+46967+008400FM-15+0450LSZC V0209999V000510360019N0070001N1+01701+01201999999ADDGA1021+003901999GA2071+036001999GF107991999999999999999999MA1101491999999REMMET058METAR LSZC 061120Z VRB01KT 7000 FEW013 BKN120 17/12 Q1015;
0143068065999992010090612204+46967+008400FM-15+0450LSZC V0209999V001010360019N0070001N1+01801+01301999999ADDGA1021+003901999GA2071+036001999GF107991999999999999999999MA1101391999999REMMET058METAR LSZC 061220Z VRB02KT 7000 FEW013 BKN120 18/13 Q1014;
0120068065999992010090613204+46967+008400FM-15+0450LSZC V0200701N002610360019N0070001N1+01801+01401999999ADDGA1071+036001999GF107991999999999999999999MA1101291999999REMMET051METAR LSZC 061320Z 07005KT 7000 BKN120 18/14 Q1013;
0151068065999992010090613504+46967+008400FM-15+0450LSZC V0200701N002110360019N0070001N1+01801+01201999999ADDGA1021+018001999GA2081+036001999GF108991999999999999999999MA1101291999999REMMET066METAR LSZC 061350Z 07004KT 030V110 7000 FEW065 OVC120 18/12 Q1013;
0143068065999992010090614204+46967+008400FM-15+0450LSZC V0200701N001510360019N0070001N1+01801+01301999999ADDGA1021+018001999GA2081+036001999GF108991999999999999999999MA1101191999999REMMET058METAR LSZC 061420Z 07003KT 7000 FEW065 OVC120 18/13 Q1012;
0143068065999992010090614504+46967+008400FM-15+0450LSZC V0200901N001510360019N0070001N1+01801+01201999999ADDGA1021+018001999GA2081+036001999GF108991999999999999999999MA1101191999999REMMET058METAR LSZC 061450Z 09003KT 7000 FEW065 OVC120 18/12 Q1012;
0143068065999992010090705504+46967+008400FM-15+0450LSZC V0201701N003110180019N0070001N1+01501+01301999999ADDGA1021+004501999GA2081+018001999GF108991999999999999999999MA1100811999999REMMET058METAR LSZC 070550Z 17006KT 7000 FEW015 OVC060 15/13 Q1008;
0143068065999992010090706204+46967+008400FM-15+0450LSZC V0209999V001510180019N0070001N1+01501+01201999999ADDGA1021+004501999GA2081+018001999GF108991999999999999999999MA1100811999999REMMET058METAR LSZC 070620Z VRB03KT 7000 FEW015 OVC060 15/12 Q1008;
0153068065999992010090706504+46967+008400FM-15+0450LSZC V0209999V001010180019N0060001N1+01501+01301999999ADDGA1021+004501999GA2081+018001999GF108991999999999999999999MA1100811999999MW1611REMMET062METAR LSZC 070650Z VRB02KT 6000 -RA FEW015 OVC060 15/13 Q1008;
0148068065999992010090707204+46967+008400FM-15+0450LSZC V0209999V000510180019N0060001N1+01601+01301999999ADDGA1041+003601999GA2081+018001999GF108991999999999999999999MA1100811999999REMMET063METAR LSZC 070720Z VRB01KT 6000 SCT012 OVC060 16/13 Q1008 RERA;
0151068065999992010090707504+46967+008400FM-15+0450LSZC V0200401N001510180019N0060001N1+01601+01301999999ADDGA1041+003601999GA2081+018001999GF108991999999999999999999MA1100811999999REMMET066METAR LSZC 070750Z 04003KT 330V080 6000 SCT012 OVC060 16/13 Q1008;
0143068065999992010090708204+46967+008400FM-15+0450LSZC V0209999V000510180019N0060001N1+01601+01301999999ADDGA1041+003601999GA2081+018001999GF108991999999999999999999MA1100811999999REMMET058METAR LSZC 070820Z VRB01KT 6000 SCT012 OVC060 16/13 Q1008;
0143068065999992010090708504+46967+008400FM-15+0450LSZC V0209999V001010180019N0060001N1+01601+01301999999ADDGA1041+003601999GA2081+018001999GF108991999999999999999999MA1100811999999REMMET058METAR LSZC 070850Z VRB02KT 6000 SCT012 OVC060 16/13 Q1008;
0166068065999992010090709204+46967+008400FM-15+0450LSZC V0209999V00051008401CN0050001N1+01601+01301999999ADDGA1021+003601999GA2041+008401999GA3081+015001999GF108991999999999999999999MA1100811999999REMMET065METAR LSZC 070920Z VRB01KT 5000 FEW012 SCT028 OVC059 16/13 Q1008;
0166068065999992010090709504+46967+008400FM-15+0450LSZC V0209999V00051008701CN0050001N1+01701+01301999999ADDGA1021+003601999GA2041+008701999GA3081+015001999GF108991999999999999999999MA1100811999999REMMET065METAR LSZC 070950Z VRB01KT 5000 FEW012 SCT029 OVC056 17/13 Q1008;
0143068065999992010090711204+46967+008400FM-15+0450LSZC V0209999V000510180019N0070001N1+01901+01401999999ADDGA1021+003601999GA2071+018001999GF107991999999999999999999MA1100711999999REMMET058METAR LSZC 071120Z VRB01KT 7000 FEW012 BKN060 19/14 Q1007;
0151068065999992010090711504+46967+008400FM-15+0450LSZC V0200801N001510180019N0070001N1+01801+01401999999ADDGA1021+003601999GA2071+018001999GF107991999999999999999999MA1100611999999REMMET066METAR LSZC 071150Z 08003KT 040V100 7000 FEW012 BKN060 18/14 Q1006;
0151068065999992010090712204+46967+008400FM-15+0450LSZC V0200701N001510180019N0070001N1+01801+01501999999ADDGA1021+003601999GA2071+018001999GF107991999999999999999999MA1100611999999REMMET066METAR LSZC 071220Z 07003KT 010V100 7000 FEW012 BKN060 18/15 Q1006;
0151068065999992010090712504+46967+008400FM-15+0450LSZC V0200701N002110210019N0070001N1+01801+01401999999ADDGA1021+015001999GA2071+021001999GF107991999999999999999999MA1100611999999REMMET066METAR LSZC 071250Z 07004KT 020V110 7000 FEW050 BKN070 18/14 Q1006;
0143068065999992010090713204+46967+008400FM-15+0450LSZC V0209999V001010300019N0060001N1+01801+01501999999ADDGA1021+012001999GA2081+030001999GF108991999999999999999999MA1100611999999REMMET058METAR LSZC 071320Z VRB02KT 6000 FEW040 OVC100 18/15 Q1006;
0151068065999992010090713504+46967+008400FM-15+0450LSZC V0201101N001510300019N0060001N1+01801+01401999999ADDGA1021+012001999GA2081+030001999GF108991999999999999999999MA1100511999999REMMET066METAR LSZC 071350Z 11003KT 070V160 6000 FEW040 OVC100 18/14 Q1005;
0143068065999992010090714204+46967+008400FM-15+0450LSZC V0209999V001010300019N0060001N1+01901+01501999999ADDGA1021+012001999GA2081+030001999GF108991999999999999999999MA1100511999999REMMET058METAR LSZC 071420Z VRB02KT 6000 FEW040 OVC100 19/15 Q1005;
0143068065999992010090714504+46967+008400FM-15+0450LSZC V0200901N001010300019N0060001N1+01801+01501999999ADDGA1021+012001999GA2081+030001999GF108991999999999999999999MA1100511999999REMMET058METAR LSZC 071450Z 09002KT 6000 FEW040 OVC100 18/15 Q1005;
0176068065999992010090805504+46967+008400FM-15+0450LSZC V0201501N00101008401CN0035001N1+01601+01401999999ADDGA1021+004201999GA2041+008401999GA3081+014401999GF108991999999999999999999MA1100411999999MW1611REMMET069METAR LSZC 080550Z 15002KT 3500 -RA FEW014 SCT028 OVC048 16/14 Q1004;
0171068065999992010090806204+46967+008400FM-15+0450LSZC V0209999V00051008401CN0040001N1+01601+01501999999ADDGA1041+003601999GA2041+008401999GA3081+014401999GF108991999999999999999999MA1100411999999REMMET070METAR LSZC 080620Z VRB01KT 4000 SCT012 SCT028 OVC048 16/15 Q1004 RERA;
0175068065999992010090806504+46967+008400FM-15+0450LSZC V0209999V00051007201CN0035001N1+01601+01501999999ADDGA1041+001201999GA2041+007201999GA3081+014401999GF108991999999999999999999MA1100511999999MW1631REMMET068METAR LSZC 080650Z VRB01KT 3500 RA SCT004 SCT024 OVC048 16/15 Q1005;
0176068065999992010090807504+46967+008400FM-15+0450LSZC V0209999V00261008701CN0070001N1+01601+01301999999ADDGA1041+003901999GA2041+008701999GA3081+014401999GF108991999999999999999999MA1100511999999MW1611REMMET069METAR LSZC 080750Z VRB05KT 7000 -RA SCT013 SCT029 OVC048 16/13 Q1005;
0182068065999992010090808204+46967+008400FM-15+0450LSZC V0209999V00211006901CN0090001N1+01601+01201999999ADDGA1021+004501999GA2041+006901999GA3081+014401999GF108991999999999999999999MA1100611999999OC100771REMMET073METAR LSZC 080820Z VRB04G15KT 9000 FEW015 SCT023 OVC048 16/12 Q1006 RERA;
0174068065999992010090808504+46967+008400FM-15+0450LSZC V0203301N00411006901CN0090001N1+01601+01201999999ADDGA1021+004501999GA2041+006901999GA3081+014401999GF108991999999999999999999MA1100611999999REMMET073METAR LSZC 080850Z 33008KT 280V030 9000 FEW015 SCT023 OVC048 16/12 Q1006;
0175068065999992010090811204+46967+008400FM-15+0450LSZC V0209999V00051008401CN0045001N1+01501+01301999999ADDGA1021+003601999GA2041+008401999GA3081+012901999GF108991999999999999999999MA1100711999999MW1631REMMET068METAR LSZC 081120Z VRB01KT 4500 RA FEW012 SCT028 OVC043 15/13 Q1007;
0175068065999992010090811504+46967+008400FM-15+0450LSZC V0209999V00101008401CN0050001N1+01501+01301999999ADDGA1021+003601999GA2041+008401999GA3081+012901999GF108991999999999999999999MA1100711999999MW1631REMMET068METAR LSZC 081150Z VRB02KT 5000 RA FEW012 SCT028 OVC043 15/13 Q1007;
0175068065999992010090812204+46967+008400FM-15+0450LSZC V0209999V00151008101CN0050001N1+01501+01301999999ADDGA1021+003301999GA2041+008101999GA3081+012901999GF108991999999999999999999MA1100811999999MW1631REMMET068METAR LSZC 081220Z VRB03KT 5000 RA FEW011 SCT027 OVC043 15/13 Q1008;
0176068065999992010090812504+46967+008400FM-15+0450LSZC V0200401N00211012301CN0070001N1+01501+01301999999ADDGA1021+003601999GA2041+012301999GA3081+014401999GF108991999999999999999999MA1100811999999MW1611REMMET069METAR LSZC 081250Z 04004KT 7000 -RA FEW012 SCT041 OVC048 15/13 Q1008;
0176068065999992010090813204+46967+008400FM-15+0450LSZC V0200501N00261011701CN0090001N1+01501+01301999999ADDGA1021+003601999GA2041+011701999GA3081+014101999GF108991999999999999999999MA1100811999999MW1511REMMET069METAR LSZC 081320Z 05005KT 9000 -DZ FEW012 SCT039 OVC047 15/13 Q1008;
0120068065999992010090906204+46967+008400FM-15+0450LSZC V0202501N001512200019N0112651N1+01001+00801999999ADDGA1041+015001999GF104991999999999999999999MA1101491999999REMMET051METAR LSZC 090620Z 25003KT 9999 SCT050 10/08 Q1015;
0120068065999992010090906504+46967+008400FM-15+0450LSZC V0209999V001512200019N0112651N1+01101+00901999999ADDGA1041+015001999GF104991999999999999999999MA1101591999999REMMET051METAR LSZC 090650Z VRB03KT 9999 SCT050 11/09 Q1016;
0120068065999992010090907204+46967+008400FM-15+0450LSZC V0209999V001012200019N0112651N1+01301+00901999999ADDGA1041+015001999GF104991999999999999999999MA1101591999999REMMET051METAR LSZC 090720Z VRB02KT 9999 SCT050 13/09 Q1016;
0120068065999992010090907504+46967+008400FM-15+0450LSZC V0209999V000512200019N0112651N1+01501+01001999999ADDGA1041+015001999GF104991999999999999999999MA1101591999999REMMET051METAR LSZC 090750Z VRB01KT 9999 SCT050 15/10 Q1016;
0120068065999992010090908204+46967+008400FM-15+0450LSZC V0209999V000512200019N0112651N1+01701+00901999999ADDGA1041+015001999GF104991999999999999999999MA1101691999999REMMET051METAR LSZC 090820Z VRB01KT 9999 SCT050 17/09 Q1017;
0128068065999992010090908504+46967+008400FM-15+0450LSZC V0200601N002112200019N0112651N1+01601+01001999999ADDGA1041+015001999GF104991999999999999999999MA1101691999999REMMET059METAR LSZC 090850Z 06004KT 030V110 9999 SCT050 16/10 Q1017;
0128068065999992010090909204+46967+008400FM-15+0450LSZC V0200701N001512200019N0112651N1+01601+01001999999ADDGA1041+015001999GF104991999999999999999999MA1101691999999REMMET059METAR LSZC 090920Z 07003KT 030V120 9999 SCT050 16/10 Q1017;
0128068065999992010090911204+46967+008400FM-15+0450LSZC V0201101N002612200019N0112651N1+01901+00801999999ADDGA1041+015001999GF104991999999999999999999MA1101691999999REMMET059METAR LSZC 091120Z 11005KT 050V170 9999 SCT050 19/08 Q1017;
0128068065999992010090912204+46967+008400FM-15+0450LSZC V0203201N003110150019N0112651N1+01901+00801999999ADDGA1071+015001999GF107991999999999999999999MA1101691999999REMMET059METAR LSZC 091220Z 32006KT 290V010 9999 BKN055 19/08 Q1017;
0128068065999992010090912504+46967+008400FM-15+0450LSZC V0203101N003110150019N0112651N1+02001+01001999999ADDGA1071+015001999GF107991999999999999999999MA1101691999999REMMET059METAR LSZC 091250Z 31006KT 240V010 9999 BKN055 20/10 Q1017;
0128068065999992010090913204+46967+008400FM-15+0450LSZC V0200801N002610150019N0112651N1+02001+00901999999ADDGA1071+015001999GF107991999999999999999999MA1101691999999REMMET059METAR LSZC 091320Z 08005KT 030V120 9999 BKN055 20/09 Q1017;
0120068065999992010090913504+46967+008400FM-15+0450LSZC V0209999V001010150019N0112651N1+01901+00701999999ADDGA1071+015001999GF107991999999999999999999MA1101691999999REMMET051METAR LSZC 091350Z VRB02KT 9999 BKN055 19/07 Q1017;
0143068065999992010091005504+46967+008400FM-15+0450LSZC V0202701N001010180019N0112651N1+01201+01101999999ADDGA1021+004501999GA2071+018001999GF107991999999999999999999MA1102401999999REMMET058METAR LSZC 100550Z 27002KT 9999 FEW015 BKN060 12/11 Q1024;
0143068065999992010091006204+46967+008400FM-15+0450LSZC V0202601N002110180019N0112651N1+01201+01101999999ADDGA1021+004501999GA2071+018001999GF107991999999999999999999MA1102401999999REMMET058METAR LSZC 100620Z 26004KT 9999 FEW015 BKN060 12/11 Q1024;
0143068065999992010091006504+46967+008400FM-15+0450LSZC V0202601N002110180019N0112651N1+01201+01101999999ADDGA1021+004501999GA2071+018001999GF107991999999999999999999MA1102401999999REMMET058METAR LSZC 100650Z 26004KT 9999 FEW015 BKN060 12/11 Q1024;
0143068065999992010091007204+46967+008400FM-15+0450LSZC V0202701N002110180019N0112651N1+01301+01101999999ADDGA1021+004501999GA2071+018001999GF107991999999999999999999MA1102401999999REMMET058METAR LSZC 100720Z 27004KT 9999 FEW015 BKN060 13/11 Q1024;
0166068065999992010091007504+46967+008400FM-15+0450LSZC V0202601N00101012001CN0112651N1+01401+01101999999ADDGA1021+004501999GA2041+012001999GA3071+018001999GF107991999999999999999999MA1102401999999REMMET065METAR LSZC 100750Z 26002KT 9999 FEW015 SCT040 BKN060 14/11 Q1024;
0151068065999992010091011204+46967+008400FM-15+0450LSZC V0200901N002110180019N0112651N1+01801+01101999999ADDGA1041+012001999GA2071+018001999GF107991999999999999999999MA1102301999999REMMET066METAR LSZC 101120Z 09004KT 030V140 9999 SCT040 BKN060 18/11 Q1023;
0143068065999992010091012204+46967+008400FM-15+0450LSZC V0209999V001010180019N0112651N1+01901+01101999999ADDGA1041+012001999GA2071+018001999GF107991999999999999999999MA1102301999999REMMET058METAR LSZC 101220Z VRB02KT 9999 SCT040 BKN060 19/11 Q1023;
0151068065999992010091012504+46967+008400FM-15+0450LSZC V0201201N002110180019N0112651N1+02001+01001999999ADDGA1041+012001999GA2071+018001999GF107991999999999999999999MA1102301999999REMMET066METAR LSZC 101250Z 12004KT 070V180 9999 SCT040 BKN060 20/10 Q1023;
0143068065999992010091013504+46967+008400FM-15+0450LSZC V0209999V003110180019N0112651N1+02001+01101999999ADDGA1041+012001999GA2071+018001999GF107991999999999999999999MA1102301999999REMMET058METAR LSZC 101350Z VRB06KT 9999 SCT040 BKN060 20/11 Q1023;
0151068065999992010091014204+46967+008400FM-15+0450LSZC V0202901N002110180019N0112651N1+02001+01101999999ADDGA1041+012001999GA2071+018001999GF107991999999999999999999MA1102201999999REMMET066METAR LSZC 101420Z 29004KT 230V330 9999 SCT040 BKN060 20/11 Q1022;
0143068065999992010091014504+46967+008400FM-15+0450LSZC V0209999V001510180019N0112651N1+02101+01201999999ADDGA1041+012001999GA2071+018001999GF107991999999999999999999MA1102201999999REMMET058METAR LSZC 101450Z VRB03KT 9999 SCT040 BKN060 21/12 Q1022;
0154068065999992010091305504+46967+008400FM-15+0450LSZC V0209999V001010180019N0112651N1+01201+01001999999ADDGA1041+010501999GA2071+018001999GF107991999999999999999999MA1102611999999MW1811REMMET063METAR LSZC 130550Z VRB02KT 9999 SHRA SCT035 BKN060 12/10 Q1026;
0154068065999992010091306204+46967+008400FM-15+0450LSZC V0202601N001010180019N0080001N1+01201+01001999999ADDGA1041+009001999GA2071+018001999GF107991999999999999999999MA1102611999999MW1811REMMET063METAR LSZC 130620Z 26002KT 8000 SHRA SCT030 BKN060 12/10 Q1026;
0162068065999992010091306504+46967+008400FM-15+0450LSZC V0202201N003610150019N0080001N1+01201+01001999999ADDGA1041+006001999GA2071+015001999GF107991999999999999999999MA1102611999999MW1811REMMET071METAR LSZC 130650Z 22007KT 180V290 8000 SHRA SCT020 BKN050 12/10 Q1026;
0162068065999992010091307204+46967+008400FM-15+0450LSZC V0202501N003610120019N0060001N1+01201+01001999999ADDGA1041+006001999GA2081+012001999GF108991999999999999999999MA1102611999999MW1811REMMET071METAR LSZC 130720Z 25007KT 210V300 6000 SHRA SCT020 OVC040 12/10 Q1026;
0162068065999992010091307504+46967+008400FM-15+0450LSZC V0202401N004110120019N0060001N1+01201+00901999999ADDGA1041+006001999GA2081+012001999GF108991999999999999999999MA1102711999999MW1811REMMET071METAR LSZC 130750Z 24008KT 190V280 6000 SHRA SCT020 OVC040 12/09 Q1027;
0179068065999992010091308204+46967+008400FM-15+0450LSZC V0202601N00511009601CN0070001N1+01201+00901999999ADDGA1021+004501999GA2041+009601999GA3071+013801999GF107991999999999999999999MA1102711999999REMMET078METAR LSZC 130820Z 26010KT 200V290 7000 FEW015 SCT032 BKN046 12/09 Q1027 RERA;
0168068065999992010091308504+46967+008400FM-15+0450LSZC V0202501N004610114019N0112651N1+01201+00901999999ADDGA1021+004801999GA2071+011401999GF107991999999999999999999MA1102711999999MW1161REMMET077METAR LSZC 130850Z 25009KT 220V290 9999 4500E VCSH FEW016 BKN038 12/09 Q1027;
0152068065999992010091309204+46967+008400FM-15+0450LSZC V0209999V000510144019N0050001N1+01201+00901999999ADDGA1041+009001999GA2081+014401999GF108991999999999999999999MA1102811999999MW1631REMMET061METAR LSZC 130920Z VRB01KT 5000 RA SCT030 OVC048 12/09 Q1028;
0153068065999992010091309504+46967+008400FM-15+0450LSZC V0209999V000510180019N0112651N1+01201+00901999999ADDGA1041+006001999GA2071+018001999GF107991999999999999999999MA1102811999999MW1611REMMET062METAR LSZC 130950Z VRB01KT 9999 -RA SCT020 BKN062 12/09 Q1028;
0153068065999992010091311204+46967+008400FM-15+0450LSZC V0209999V001010180019N0112651N1+01401+01001999999ADDGA1041+006001999GA2071+018001999GF107991999999999999999999MA1102811999999MW1611REMMET062METAR LSZC 131120Z VRB02KT 9999 -RA SCT020 BKN060 14/10 Q1028;
0151068065999992010091311504+46967+008400FM-15+0450LSZC V0200901N002112200019N0112651N1+01401+01001999999ADDGA1021+007501999GA2041+013501999GF104991999999999999999999MA1102711999999REMMET066METAR LSZC 131150Z 09004KT 020V150 9999 FEW025 SCT045 14/10 Q1027;
0128068065999992010091312204+46967+008400FM-15+0450LSZC V0200701N002112200019N0112651N1+01501+01001999999ADDGA1041+013501999GF104991999999999999999999MA1102711999999REMMET059METAR LSZC 131220Z 07004KT 030V140 9999 SCT045 15/10 Q1027;
0128068065999992010091312504+46967+008400FM-15+0450LSZC V0200801N001512200019N0112651N1+01501+01001999999ADDGA1041+013501999GF104991999999999999999999MA1102711999999REMMET059METAR LSZC 131250Z 08003KT 040V120 9999 SCT045 15/10 Q1027;
0128068065999992010091313204+46967+008400FM-15+0450LSZC V0200901N002612200019N0112651N1+01501+01001999999ADDGA1041+013501999GF104991999999999999999999MA1102711999999REMMET059METAR LSZC 131320Z 09005KT 060V130 9999 SCT045 15/10 Q1027;
0151068065999992010091313504+46967+008400FM-15+0450LSZC V0200601N003112200019N0112651N1+01601+01001999999ADDGA1041+013501999GA2041+030001999GF104991999999999999999999MA1102711999999REMMET066METAR LSZC 131350Z 06006KT 020V100 9999 SCT045 SCT100 16/10 Q1027;
0151068065999992010091314204+46967+008400FM-15+0450LSZC V0200801N002112200019N0112651N1+01501+01001999999ADDGA1041+013501999GA2041+030001999GF104991999999999999999999MA1102711999999REMMET066METAR LSZC 131420Z 08004KT 030V120 9999 SCT045 SCT100 15/10 Q1027;
0151068065999992010091314504+46967+008400FM-15+0450LSZC V0200801N002112200019N0112651N1+01601+01001999999ADDGA1041+013501999GA2041+027001999GF104991999999999999999999MA1102711999999REMMET066METAR LSZC 131450Z 08004KT 020V140 9999 SCT045 SCT095 16/10 Q1027;
0143068065999992010091315204+46967+008400FM-15+0450LSZC V0209999V001012200019N0112651N1+01701+01001999999ADDGA1041+013501999GA2041+027001999GF104991999999999999999999MA1102711999999REMMET058METAR LSZC 131520Z VRB02KT 9999 SCT045 SCT095 17/10 Q1027;
0120068065999992010091405204+46967+008400FM-15+0450LSZC V0202401N002112200019N0112651N1+00701+00501999999ADDGA1041+036001999GF104991999999999999999999MA1102711999999REMMET051METAR LSZC 140520Z 24004KT 9999 SCT120 07/05 Q1027;
0072068065999992010091406504+46967+008400FM-15+0450LSZC V0209999V001519999999Y0099001N1+01001+00701999999ADDMA1102811999999REMMET045METAR LSZC 140650Z VRB03KT CAVOK 10/07 Q1028;
0080068065999992010091407204+46967+008400FM-15+0450LSZC V0202601N001519999999Y0099001N1+01101+00801999999ADDMA1102711999999REMMET053METAR LSZC 140720Z 26003KT 230V290 CAVOK 11/08 Q1027;
0072068065999992010091407504+46967+008400FM-15+0450LSZC V0209999V001019999999Y0099001N1+01201+00801999999ADDMA1102811999999REMMET045METAR LSZC 140750Z VRB02KT CAVOK 12/08 Q1028;
0072068065999992010091408504+46967+008400FM-15+0450LSZC V0209999V001019999999Y0099001N1+01401+00901999999ADDMA1102711999999REMMET045METAR LSZC 140850Z VRB02KT CAVOK 14/09 Q1027;
0072068065999992010091411204+46967+008400FM-15+0450LSZC V0200701N002119999999Y0099001N1+01601+00901999999ADDMA1102611999999REMMET045METAR LSZC 141120Z 07004KT CAVOK 16/09 Q1026;
0080068065999992010091411504+46967+008400FM-15+0450LSZC V0200801N002119999999Y0099001N1+01601+01001999999ADDMA1102611999999REMMET053METAR LSZC 141150Z 08004KT 010V160 CAVOK 16/10 Q1026;
0072068065999992010091412504+46967+008400FM-15+0450LSZC V0209999V002119999999Y0099001N1+01701+00801999999ADDMA1102511999999REMMET045METAR LSZC 141250Z VRB04KT CAVOK 17/08 Q1025;
0080068065999992010091413204+46967+008400FM-15+0450LSZC V0200501N002119999999Y0099001N1+01601+00901999999ADDMA1102511999999REMMET053METAR LSZC 141320Z 05004KT 020V100 CAVOK 16/09 Q1025;
0080068065999992010091414204+46967+008400FM-15+0450LSZC V0200601N002119999999Y0099001N1+01801+00901999999ADDMA1102401999999REMMET053METAR LSZC 141420Z 06004KT 020V120 CAVOK 18/09 Q1024;
0072068065999992010091507204+46967+008400FM-15+0450LSZC V0209999C000019999999Y0099001N1+01501+01101999999ADDMA1101901999999REMMET045METAR LSZC 150720Z 00000KT CAVOK 15/11 Q1019;
0072068065999992010091508504+46967+008400FM-15+0450LSZC V0209999V000519999999Y0099001N1+01601+01101999999ADDMA1101901999999REMMET045METAR LSZC 150850Z VRB01KT CAVOK 16/11 Q1019;
0120068065999992010091512204+46967+008400FM-15+0450LSZC V0200101N001010330019N0112651N1+01901+01001999999ADDGA1081+033001999GF108991999999999999999999MA1101691999999REMMET051METAR LSZC 151220Z 01002KT 9999 OVC110 19/10 Q1017;
0072068065999992010091513504+46967+008400FM-15+0450LSZC V0209999V001519999999Y0099001N1+01801+01101999999ADDMA1101591999999REMMET045METAR LSZC 151350Z VRB03KT CAVOK 18/11 Q1016;
0143068065999992010091605504+46967+008400FM-15+0450LSZC V0209999V000510096019N0112651N1+01401+01201999999ADDGA1041+003901999GA2071+009601999GF107991999999999999999999MA1101491999999REMMET058METAR LSZC 160550Z VRB01KT 9999 SCT013 BKN032 14/12 Q1015;
0143068065999992010091606504+46967+008400FM-15+0450LSZC V0209999V001010120019N0112651N1+01401+01301999999ADDGA1041+003901999GA2081+012001999GF108991999999999999999999MA1101491999999REMMET058METAR LSZC 160650Z VRB02KT 9999 SCT013 OVC040 14/13 Q1015;
0166068065999992010091607204+46967+008400FM-15+0450LSZC V0209999V00051006301CN0112651N1+01501+01201999999ADDGA1021+003901999GA2041+006301999GA3071+012001999GF107991999999999999999999MA1101491999999REMMET065METAR LSZC 160720Z VRB01KT 9999 FEW013 SCT021 BKN040 15/12 Q1015;
0151068065999992010091609204+46967+008400FM-15+0450LSZC V0200801N001510120019N0112651N1+01601+01301999999ADDGA1041+006901999GA2071+012001999GF107991999999999999999999MA1101491999999REMMET066METAR LSZC 160920Z 08003KT 050V110 9999 SCT023 BKN040 16/13 Q1015;
0143068065999992010091609504+46967+008400FM-15+0450LSZC V0200601N002610120019N0112651N1+01601+01201999999ADDGA1041+006901999GA2071+012001999GF107991999999999999999999MA1101491999999REMMET058METAR LSZC 160950Z 06005KT 9999 SCT023 BKN040 16/12 Q1015;
0174068065999992010091611204+46967+008400FM-15+0450LSZC V0203301N00311006901CN0112651N1+01601+01101999999ADDGA1021+005401999GA2041+006901999GA3071+012901999GF107991999999999999999999MA1101391999999REMMET073METAR LSZC 161120Z 33006KT 250V040 9999 FEW018 SCT023 BKN043 16/11 Q1014;
0151068065999992010091611504+46967+008400FM-15+0450LSZC V0203201N002110129019N0112651N1+01601+01101999999ADDGA1041+006001999GA2071+012901999GF107991999999999999999999MA1101391999999REMMET066METAR LSZC 161150Z 32004KT 290V010 9999 SCT020 BKN043 16/11 Q1014;
0143068065999992010091612204+46967+008400FM-15+0450LSZC V0209999V001510129019N0112651N1+01601+01101999999ADDGA1041+006001999GA2071+012901999GF107991999999999999999999MA1101391999999REMMET058METAR LSZC 161220Z VRB03KT 9999 SCT020 BKN043 16/11 Q1014;
0143068065999992010091612504+46967+008400FM-15+0450LSZC V0209999V001510135019N0112651N1+01601+01101999999ADDGA1041+006001999GA2071+013501999GF107991999999999999999999MA1101391999999REMMET058METAR LSZC 161250Z VRB03KT 9999 SCT020 BKN045 16/11 Q1014;
0128068065999992010091614204+46967+008400FM-15+0450LSZC V0203101N002110060019N0112651N1+01601+01101999999ADDGA1081+006001999GF108991999999999999999999MA1101391999999REMMET059METAR LSZC 161420Z 31004KT 250V350 9999 OVC020 16/11 Q1014;
0153068065999992010091705504+46967+008400FM-15+0450LSZC V0209999V001510030019N0050001N1+01201+01001999999ADDGA1041+001801999GA2081+003001999GF108991999999999999999999MA1101391999999MW1611REMMET062METAR LSZC 170550Z VRB03KT 5000 -RA SCT006 OVC010 12/10 Q1014;
0160068065999992010091706204+46967+008400FM-15+0450LSZC V0202401N002110030019N0040001N1+01201+01001999999ADDGA1041+001201999GA2081+003001999GF108991999999999999999999MA1101491999999MW1631REMMET069METAR LSZC 170620Z 24004KT 200V300 4000 RA SCT004 OVC010 12/10 Q1015;
0153068065999992010091706504+46967+008400FM-15+0450LSZC V0209999V001010030019N0040001N1+01201+01001999999ADDGA1041+001201999GA2081+003001999GF108991999999999999999999MA1101491999999MW1611REMMET062METAR LSZC 170650Z VRB02KT 4000 -RA SCT004 OVC010 12/10 Q1015;
0152068065999992010091707204+46967+008400FM-15+0450LSZC V0209999V000510036019N0030001N1+01201+00901999999ADDGA1041+001201999GA2081+003601999GF108991999999999999999999MA1101491999999MW1631REMMET061METAR LSZC 170720Z VRB01KT 3000 RA SCT004 OVC012 12/09 Q1015;
0151068065999992010091707504+46967+008400FM-15+0450LSZC V0201101N002110036019N0050001N1+01201+00901999999ADDGA1041+001201999GA2081+003601999GF108991999999999999999999MA1101591999999REMMET066METAR LSZC 170750Z 11004KT 080V160 5000 SCT004 OVC012 12/09 Q1016;
0160068065999992010091708204+46967+008400FM-15+0450LSZC V0201301N001510048019N0050001N1+01201+01001999999ADDGA1041+001501999GA2081+004801999GF108991999999999999999999MA1101591999999MW1631REMMET069METAR LSZC 170820Z 13003KT 100V160 5000 RA SCT005 OVC016 12/10 Q1016;
0153068065999992010091708504+46967+008400FM-15+0450LSZC V0209999V001010048019N0050001N1+01201+00901999999ADDGA1041+001501999GA2081+004801999GF108991999999999999999999MA1101591999999MW1611REMMET062METAR LSZC 170850Z VRB02KT 5000 -RA SCT005 OVC016 12/09 Q1016;
0166068065999992010091709204+46967+008400FM-15+0450LSZC V0209999V00151009001CN0070001N1+01201+00901999999ADDGA1021+003001999GA2041+009001999GA3081+012001999GF108991999999999999999999MA1101591999999REMMET065METAR LSZC 170920Z VRB03KT 7000 FEW010 SCT030 OVC040 12/09 Q1016;
0143068065999992010091713504+46967+008400FM-15+0450LSZC V0209999V000510144019N0112651N1+01401+00901999999ADDGA1021+010501999GA2081+014401999GF108991999999999999999999MA1101491999999REMMET058METAR LSZC 171350Z VRB01KT 9999 FEW035 OVC048 14/09 Q1015;
0143068065999992010091714204+46967+008400FM-15+0450LSZC V0202301N003110144019N0112651N1+01401+00901999999ADDGA1021+010501999GA2081+014401999GF108991999999999999999999MA1101591999999REMMET058METAR LSZC 171420Z 23006KT 9999 FEW035 OVC048 14/09 Q1016;
0143068065999992010091714504+46967+008400FM-15+0450LSZC V0202501N002610144019N0112651N1+01401+01001999999ADDGA1021+010501999GA2081+014401999GF108991999999999999999999MA1101591999999REMMET058METAR LSZC 171450Z 25005KT 9999 FEW035 OVC048 14/10 Q1016;
0120068065999992010092005504+46967+008400FM-15+0450LSZC V0202501N001512200019N0112651N1+00601+00501999999ADDGA1021+004501999GF102991999999999999999999MA1101901999999REMMET051METAR LSZC 200550Z 25003KT 9999 FEW015 06/05 Q1019;
0120068065999992010092006204+46967+008400FM-15+0450LSZC V0202501N001512200019N0112651N1+00801+00701999999ADDGA1021+004501999GF102991999999999999999999MA1102001999999REMMET051METAR LSZC 200620Z 25003KT 9999 FEW015 08/07 Q1020;
0120068065999992010092007204+46967+008400FM-15+0450LSZC V0209999V001512200019N0112651N1+01101+00801999999ADDGA1021+004501999GF102991999999999999999999MA1102001999999REMMET051METAR LSZC 200720Z VRB03KT 9999 FEW015 11/08 Q1020;
0072068065999992010092007504+46967+008400FM-15+0450LSZC V0209999C000019999999Y0099001N1+01301+00901999999ADDMA1102001999999REMMET045METAR LSZC 200750Z 00000KT CAVOK 13/09 Q1020;
0080068065999992010092011204+46967+008400FM-15+0450LSZC V0200801N001519999999Y0099001N1+01701+01001999999ADDMA1101901999999REMMET053METAR LSZC 201120Z 08003KT 030V160 CAVOK 17/10 Q1019;
0080068065999992010092012204+46967+008400FM-15+0450LSZC V0200701N001519999999Y0099001N1+01701+00901999999ADDMA1101801999999REMMET053METAR LSZC 201220Z 07003KT 030V110 CAVOK 17/09 Q1018;
0072068065999992010092012504+46967+008400FM-15+0450LSZC V0209999V001519999999Y0099001N1+01801+01001999999ADDMA1101801999999REMMET045METAR LSZC 201250Z VRB03KT CAVOK 18/10 Q1018;
0072068065999992010092013204+46967+008400FM-15+0450LSZC V0209999V002119999999Y0099001N1+01801+01001999999ADDMA1101801999999REMMET045METAR LSZC 201320Z VRB04KT CAVOK 18/10 Q1018;
0072068065999992010092014204+46967+008400FM-15+0450LSZC V0200701N001519999999Y0099001N1+01901+01101999999ADDMA1101691999999REMMET045METAR LSZC 201420Z 07003KT CAVOK 19/11 Q1017;
0072068065999992010092105504+46967+008400FM-15+0450LSZC V0202301N001519999999Y0099001N1+00901+00801999999ADDMA1102001999999REMMET045METAR LSZC 210550Z 23003KT CAVOK 09/08 Q1020;
0072068065999992010092106204+46967+008400FM-15+0450LSZC V0209999V001019999999Y0099001N1+01001+00901999999ADDMA1102001999999REMMET045METAR LSZC 210620Z VRB02KT CAVOK 10/09 Q1020;
0072068065999992010092106504+46967+008400FM-15+0450LSZC V0202401N001519999999Y0099001N1+01101+00901999999ADDMA1102001999999REMMET045METAR LSZC 210650Z 24003KT CAVOK 11/09 Q1020;
0072068065999992010092107204+46967+008400FM-15+0450LSZC V0209999V001019999999Y0099001N1+01301+01001999999ADDMA1102001999999REMMET045METAR LSZC 210720Z VRB02KT CAVOK 13/10 Q1020;
0072068065999992010092107504+46967+008400FM-15+0450LSZC V0209999V000519999999Y0099001N1+01501+01101999999ADDMA1102001999999REMMET045METAR LSZC 210750Z VRB01KT CAVOK 15/11 Q1020;
0080068065999992010092109204+46967+008400FM-15+0450LSZC V0200701N002119999999Y0099001N1+01601+01101999999ADDMA1102001999999REMMET053METAR LSZC 210920Z 07004KT 010V110 CAVOK 16/11 Q1020;
0080068065999992010092111504+46967+008400FM-15+0450LSZC V0200601N002119999999Y0099001N1+01801+01201999999ADDMA1102001999999REMMET053METAR LSZC 211150Z 06004KT 020V100 CAVOK 18/12 Q1020;
0080068065999992010092112204+46967+008400FM-15+0450LSZC V0200601N001519999999Y0099001N1+01901+01301999999ADDMA1102001999999REMMET053METAR LSZC 211220Z 06003KT 020V090 CAVOK 19/13 Q1020;
0072068065999992010092112504+46967+008400FM-15+0450LSZC V0200601N002119999999Y0099001N1+02001+01301999999ADDMA1102001999999REMMET045METAR LSZC 211250Z 06004KT CAVOK 20/13 Q1020;
0120068065999992010092205504+46967+008400FM-15+0450LSZC V0209999V001012200019N0060001N1+01001+01001999999ADDGA1021+002401999GF102991999999999999999999MA1102201999999REMMET051METAR LSZC 220550Z VRB02KT 6000 FEW008 10/10 Q1022;
0120068065999992010092206204+46967+008400FM-15+0450LSZC V0202501N001512200019N0060001N1+01001+00901999999ADDGA1021+002401999GF102991999999999999999999MA1102201999999REMMET051METAR LSZC 220620Z 25003KT 6000 FEW008 10/09 Q1022;
0120068065999992010092206504+46967+008400FM-15+0450LSZC V0202501N001012200019N0060001N1+01201+01101999999ADDGA1021+002401999GF102991999999999999999999MA1102201999999REMMET051METAR LSZC 220650Z 25002KT 6000 FEW008 12/11 Q1022;
0120068065999992010092207204+46967+008400FM-15+0450LSZC V0209999V000512200019N0060001N1+01301+01101999999ADDGA1021+003001999GF102991999999999999999999MA1102201999999REMMET051METAR LSZC 220720Z VRB01KT 6000 FEW010 13/11 Q1022;
0120068065999992010092207504+46967+008400FM-15+0450LSZC V0209999V000512200019N0070001N1+01501+01201999999ADDGA1021+003001999GF102991999999999999999999MA1102201999999REMMET051METAR LSZC 220750Z VRB01KT 7000 FEW010 15/12 Q1022;
0120068065999992010092208204+46967+008400FM-15+0450LSZC V0209999V000512200019N0070001N1+01501+01201999999ADDGA1021+003001999GF102991999999999999999999MA1102201999999REMMET051METAR LSZC 220820Z VRB01KT 7000 FEW010 15/12 Q1022;
0120068065999992010092208504+46967+008400FM-15+0450LSZC V0209999V001012200019N0090001N1+01601+01301999999ADDGA1021+013501999GF102991999999999999999999MA1102201999999REMMET051METAR LSZC 220850Z VRB02KT 9000 FEW045 16/13 Q1022;
0128068065999992010092209204+46967+008400FM-15+0450LSZC V0201001N001512200019N0090001N1+01701+01301999999ADDGA1021+013501999GF102991999999999999999999MA1102201999999REMMET059METAR LSZC 220920Z 10003KT 050V140 9000 FEW045 17/13 Q1022;
0128068065999992010092211204+46967+008400FM-15+0450LSZC V0200701N002112200019N0112651N1+01801+01401999999ADDGA1021+013501999GF102991999999999999999999MA1102101999999REMMET059METAR LSZC 221120Z 07004KT 030V100 9999 FEW045 18/14 Q1021;
0128068065999992010092211504+46967+008400FM-15+0450LSZC V0200801N001512200019N0112651N1+01901+01401999999ADDGA1021+013501999GF102991999999999999999999MA1102101999999REMMET059METAR LSZC 221150Z 08003KT 040V110 9999 FEW045 19/14 Q1021;
0120068065999992010092212504+46967+008400FM-15+0450LSZC V0200801N002112200019N0112651N1+02001+01301999999ADDGA1021+013501999GF102991999999999999999999MA1102001999999REMMET051METAR LSZC 221250Z 08004KT 9999 FEW045 20/13 Q1020;
0120068065999992010092213204+46967+008400FM-15+0450LSZC V0200801N002112200019N0112651N1+02001+01401999999ADDGA1021+013501999GF102991999999999999999999MA1102001999999REMMET051METAR LSZC 221320Z 08004KT 9999 FEW045 20/14 Q1020;
0120068065999992010092213504+46967+008400FM-15+0450LSZC V0200701N002612200019N0112651N1+02001+01401999999ADDGA1021+013501999GF102991999999999999999999MA1102001999999REMMET051METAR LSZC 221350Z 07005KT 9999 FEW045 20/14 Q1020;
0072068065999992010092305504+46967+008400FM-15+0450LSZC V0202301N001019999999Y0099001N1+01001+00901999999ADDMA1101901999999REMMET045METAR LSZC 230550Z 23002KT CAVOK 10/09 Q1019;
0072068065999992010092306204+46967+008400FM-15+0450LSZC V0202601N001519999999Y0099001N1+01201+01101999999ADDMA1101901999999REMMET045METAR LSZC 230620Z 26003KT CAVOK 12/11 Q1019;
0072068065999992010092306504+46967+008400FM-15+0450LSZC V0209999V001019999999Y0099001N1+01301+01201999999ADDMA1101801999999REMMET045METAR LSZC 230650Z VRB02KT CAVOK 13/12 Q1018;
0072068065999992010092307204+46967+008400FM-15+0450LSZC V0209999V001019999999Y0099001N1+01401+01201999999ADDMA1101801999999REMMET045METAR LSZC 230720Z VRB02KT CAVOK 14/12 Q1018;
0072068065999992010092307504+46967+008400FM-15+0450LSZC V0209999C000019999999Y0099001N1+01601+01201999999ADDMA1101801999999REMMET045METAR LSZC 230750Z 00000KT CAVOK 16/12 Q1018;
0072068065999992010092308204+46967+008400FM-15+0450LSZC V0209999C000019999999Y0099001N1+01801+01201999999ADDMA1101801999999REMMET045METAR LSZC 230820Z 00000KT CAVOK 18/12 Q1018;
0080068065999992010092308504+46967+008400FM-15+0450LSZC V0200801N001519999999Y0099001N1+01701+01301999999ADDMA1101691999999REMMET053METAR LSZC 230850Z 08003KT 050V140 CAVOK 17/13 Q1017;
0080068065999992010092309504+46967+008400FM-15+0450LSZC V0200501N002119999999Y0099001N1+01801+01201999999ADDMA1101691999999REMMET053METAR LSZC 230950Z 05004KT 020V090 CAVOK 18/12 Q1017;
0072068065999992010092311204+46967+008400FM-15+0450LSZC V0200701N002119999999Y0099001N1+01901+01201999999ADDMA1101591999999REMMET045METAR LSZC 231120Z 07004KT CAVOK 19/12 Q1016;
0080068065999992010092311504+46967+008400FM-15+0450LSZC V0200801N002119999999Y0099001N1+02001+01401999999ADDMA1101491999999REMMET053METAR LSZC 231150Z 08004KT 040V120 CAVOK 20/14 Q1015;
0080068065999992010092312204+46967+008400FM-15+0450LSZC V0200701N002119999999Y0099001N1+02001+01301999999ADDMA1101491999999REMMET053METAR LSZC 231220Z 07004KT 010V110 CAVOK 20/13 Q1015;
0128068065999992010092312504+46967+008400FM-15+0450LSZC V0200701N002112200019N0112651N1+02001+01301999999ADDGA1021+015001999GF102991999999999999999999MA1101491999999REMMET059METAR LSZC 231250Z 07004KT 040V140 9999 FEW050 20/13 Q1015;
0120068065999992010092313204+46967+008400FM-15+0450LSZC V0209999V001512200019N0112651N1+02101+01301999999ADDGA1021+015001999GF102991999999999999999999MA1101391999999REMMET051METAR LSZC 231320Z VRB03KT 9999 FEW050 21/13 Q1014;
0128068065999992010092313504+46967+008400FM-15+0450LSZC V0200701N002112200019N0112651N1+02101+01401999999ADDGA1021+015001999GF102991999999999999999999MA1101391999999REMMET059METAR LSZC 231350Z 07004KT 050V110 9999 FEW050 21/14 Q1014;
0120068065999992010092314204+46967+008400FM-15+0450LSZC V0209999V001512200019N0112651N1+02101+01401999999ADDGA1021+015001999GF102991999999999999999999MA1101391999999REMMET051METAR LSZC 231420Z VRB03KT 9999 FEW050 21/14 Q1014;
0120068065999992010092314504+46967+008400FM-15+0450LSZC V0200701N002112200019N0112651N1+02101+01401999999ADDGA1021+015001999GF102991999999999999999999MA1101391999999REMMET051METAR LSZC 231450Z 07004KT 9999 FEW050 21/14 Q1014;
0072068065999992010092405504+46967+008400FM-15+0450LSZC V0209999V000519999999Y0099001N1+01201+01001999999ADDMA1100711999999REMMET045METAR LSZC 240550Z VRB01KT CAVOK 12/10 Q1007;
0072068065999992010092406204+46967+008400FM-15+0450LSZC V0209999C000019999999Y0099001N1+01201+01101999999ADDMA1100611999999REMMET045METAR LSZC 240620Z 00000KT CAVOK 12/11 Q1006;
0072068065999992010092406504+46967+008400FM-15+0450LSZC V0209999V001019999999Y0099001N1+01301+01201999999ADDMA1100611999999REMMET045METAR LSZC 240650Z VRB02KT CAVOK 13/12 Q1006;
0072068065999992010092407204+46967+008400FM-15+0450LSZC V0209999V000519999999Y0099001N1+01401+01201999999ADDMA1100611999999REMMET045METAR LSZC 240720Z VRB01KT CAVOK 14/12 Q1006;
0072068065999992010092408204+46967+008400FM-15+0450LSZC V0209999V001019999999Y0099001N1+01601+01201999999ADDMA1100611999999REMMET045METAR LSZC 240820Z VRB02KT CAVOK 16/12 Q1006;
0072068065999992010092408504+46967+008400FM-15+0450LSZC V0209999V000519999999Y0099001N1+01701+01201999999ADDMA1100511999999REMMET045METAR LSZC 240850Z VRB01KT CAVOK 17/12 Q1005;
0143068065999992010092409204+46967+008400FM-15+0450LSZC V0209999V001010300019N0112651N1+01801+01301999999ADDGA1021+015001999GA2071+030001999GF107991999999999999999999MA1100511999999REMMET058METAR LSZC 240920Z VRB02KT 9999 FEW050 BKN100 18/13 Q1005;
0143068065999992010092409504+46967+008400FM-15+0450LSZC V0209999V001010300019N0112651N1+01801+01301999999ADDGA1021+015001999GA2071+030001999GF107991999999999999999999MA1100411999999REMMET058METAR LSZC 240950Z VRB02KT 9999 FEW050 BKN100 18/13 Q1004;
0143068065999992010092411204+46967+008400FM-15+0450LSZC V0209999V001510390019N0080001N1+01901+01301999999ADDGA1021+012001999GA2081+039001999GF108991999999999999999999MA1100411999999REMMET058METAR LSZC 241120Z VRB03KT 8000 FEW040 OVC130 19/13 Q1004;
0143068065999992010092411504+46967+008400FM-15+0450LSZC V0209999V002110390019N0080001N1+01901+01201999999ADDGA1021+012601999GA2081+039001999GF108991999999999999999999MA1100311999999REMMET058METAR LSZC 241150Z VRB04KT 8000 FEW042 OVC130 19/12 Q1003;
0151068065999992010092412204+46967+008400FM-15+0450LSZC V0203401N003610360019N0090001N1+01801+01101999999ADDGA1041+012601999GA2081+036001999GF108991999999999999999999MA1100311999999REMMET066METAR LSZC 241220Z 34007KT 290V050 9000 SCT042 OVC120 18/11 Q1003;
0162068065999992010092412504+46967+008400FM-15+0450LSZC V0203401N006210360019N0090001N1+01801+01001999999ADDGA1041+012601999GA2081+036001999GF108991999999999999999999MA1100311999999OC101441REMMET069METAR LSZC 241250Z 34012G28KT 300V020 9000 SCT042 OVC120 18/10 Q1003;
0177068065999992010092413204+46967+008400FM-15+0450LSZC V0203401N007710150019N0090001N1+01601+01101999999ADDGA1041+010501999GA2071+015001999GA3081+030001999GF108991999999999999999999MA1100311999999OC101491REMMET068METAR LSZC 241320Z 34015G29KT 9000 SCT035 BKN050 OVC100 16/11 Q1003;
0185068065999992010092413504+46967+008400FM-15+0450LSZC V0203401N005710150019N0090001N1+01601+01101999999ADDGA1041+010501999GA2071+015001999GA3081+030001999GF108991999999999999999999MA1100411999999OC101341REMMET076METAR LSZC 241350Z 34011G26KT 300V020 9000 SCT035 BKN050 OVC100 16/11 Q1004;
0185068065999992010092414204+46967+008400FM-15+0450LSZC V0203401N005110150019N0090001N1+01501+01101999999ADDGA1041+010501999GA2071+015001999GA3081+030001999GF108991999999999999999999MA1100411999999OC101231REMMET076METAR LSZC 241420Z 34010G24KT 310V010 9000 SCT035 BKN050 OVC100 15/11 Q1004;
0186068065999992010092507504+46967+008400FM-15+0450LSZC V0202701N00411006001CN0035001N1+00901+00701999999ADDGA1021+003901999GA2041+006001999GA3081+012001999GF108991999999999999999999MA1100411999999MW1821REMMET079METAR LSZC 250750Z 27008KT 230V310 3500 +SHRA FEW013 SCT020 OVC040 09/07 Q1004;
0186068065999992010092508204+46967+008400FM-15+0450LSZC V0202501N00621006001CN0035001N1+00901+00601999999ADDGA1021+003901999GA2041+006001999GA3081+012001999GF108991999999999999999999MA1100411999999MW1821REMMET079METAR LSZC 250820Z 25012KT 220V280 3500 +SHRA FEW013 SCT020 OVC040 09/06 Q1004;
0163068065999992010092508504+46967+008400FM-15+0450LSZC V0202201N005710123019N0035001N1+00901+00601999999ADDGA1041+003901999GA2081+012301999GF108991999999999999999999MA1100411999999MW1821REMMET072METAR LSZC 250850Z 22011KT 170V250 3500 +SHRA SCT013 OVC041 09/06 Q1004;
0186068065999992010092509204+46967+008400FM-15+0450LSZC V0202301N00571008101CN0030001N1+00801+00501999999ADDGA1021+003601999GA2041+008101999GA3081+012001999GF108991999999999999999999MA1100511999999MW1821REMMET079METAR LSZC 250920Z 23011KT 190V260 3000 +SHRA FEW012 SCT027 OVC040 08/05 Q1005;
0175068065999992010092705504+46967+008400FM-15+0450LSZC V0202701N002610090019N0070001N1+00801+00601999999ADDGA1021+003001999GA2071+009001999GA3081+012001999GF108991999999999999999999MA1101191999999MW1631REMMET068METAR LSZC 270550Z 27005KT 7000 RA FEW010 BKN030 OVC040 08/06 Q1012;
0175068065999992010092706204+46967+008400FM-15+0450LSZC V0202701N002110090019N0070001N1+00801+00601999999ADDGA1021+003001999GA2071+009001999GA3081+012001999GF108991999999999999999999MA1101191999999MW1631REMMET068METAR LSZC 270620Z 27004KT 7000 RA FEW010 BKN030 OVC040 08/06 Q1012;
0175068065999992010092706504+46967+008400FM-15+0450LSZC V0202801N002110090019N0070001N1+00801+00601999999ADDGA1021+003001999GA2071+009001999GA3081+012001999GF108991999999999999999999MA1101191999999MW1631REMMET068METAR LSZC 270650Z 28004KT 7000 RA FEW010 BKN030 OVC040 08/06 Q1012;
0166068065999992010092707204+46967+008400FM-15+0450LSZC V0202801N001010090019N0070001N1+00801+00601999999ADDGA1021+003001999GA2071+009001999GA3081+012001999GF108991999999999999999999MA1101191999999REMMET065METAR LSZC 270720Z 28002KT 7000 FEW010 BKN030 OVC040 08/06 Q1012;
0166068065999992010092708504+46967+008400FM-15+0450LSZC V0209999V00051012601CN0112651N1+00901+00601999999ADDGA1021+008401999GA2041+012601999GA3081+024001999GF108991999999999999999999MA1101191999999REMMET065METAR LSZC 270850Z VRB01KT 9999 FEW028 SCT042 OVC086 09/06 Q1012;
0143068065999992010092709204+46967+008400FM-15+0450LSZC V0209999V001010240019N0112651N1+01001+00601999999ADDGA1041+009001999GA2081+024001999GF108991999999999999999999MA1101191999999REMMET058METAR LSZC 270920Z VRB02KT 9999 SCT030 OVC086 10/06 Q1012;
0166068065999992010092709504+46967+008400FM-15+0450LSZC V0209999V00101013501CN0112651N1+01001+00501999999ADDGA1021+009001999GA2041+013501999GA3081+024001999GF108991999999999999999999MA1101191999999REMMET065METAR LSZC 270950Z VRB02KT 9999 FEW030 SCT045 OVC086 10/05 Q1012;
0174068065999992010092711204+46967+008400FM-15+0450LSZC V0201301N00211015001CN0112651N1+01101+00601999999ADDGA1021+009001999GA2041+015001999GA3081+024001999GF108991999999999999999999MA1101191999999REMMET073METAR LSZC 271120Z 13004KT 090V160 9999 FEW030 SCT050 OVC086 11/06 Q1012;
0174068065999992010092711504+46967+008400FM-15+0450LSZC V0201401N00151015001CN0112651N1+01101+00501999999ADDGA1021+009001999GA2041+015001999GA3081+024001999GF108991999999999999999999MA1101191999999REMMET073METAR LSZC 271150Z 14003KT 110V200 9999 FEW030 SCT050 OVC086 11/05 Q1012;
0166068065999992010092712204+46967+008400FM-15+0450LSZC V0209999V00051015001CN0112651N1+01101+00501999999ADDGA1021+009001999GA2041+015001999GA3081+024001999GF108991999999999999999999MA1101191999999REMMET065METAR LSZC 271220Z VRB01KT 9999 FEW030 SCT050 OVC086 11/05 Q1012;
0166068065999992010092712504+46967+008400FM-15+0450LSZC V0209999V00101015001CN0112651N1+01201+00401999999ADDGA1021+009001999GA2041+015001999GA3081+024001999GF108991999999999999999999MA1101191999999REMMET065METAR LSZC 271250Z VRB02KT 9999 FEW030 SCT050 OVC086 12/04 Q1012;
0143068065999992010092713204+46967+008400FM-15+0450LSZC V0209999V000510150019N0112651N1+01201+00501999999ADDGA1071+015001999GA2081+024001999GF108991999999999999999999MA1101191999999REMMET058METAR LSZC 271320Z VRB01KT 9999 BKN050 OVC086 12/05 Q1012;
0143068065999992010092713504+46967+008400FM-15+0450LSZC V0209999V001010150019N0112651N1+01201+00601999999ADDGA1071+015001999GA2081+024001999GF108991999999999999999999MA1101191999999REMMET058METAR LSZC 271350Z VRB02KT 9999 BKN050 OVC086 12/06 Q1012;
0143068065999992010092714204+46967+008400FM-15+0450LSZC V0209999V001010150019N0112651N1+01201+00601999999ADDGA1021+012001999GA2081+015001999GF108991999999999999999999MA1101191999999REMMET058METAR LSZC 271420Z VRB02KT 9999 FEW040 OVC055 12/06 Q1012;
0151068065999992010092714504+46967+008400FM-15+0450LSZC V0202901N001510150019N0112651N1+01101+00601999999ADDGA1021+012001999GA2081+015001999GF108991999999999999999999MA1101291999999REMMET066METAR LSZC 271450Z 29003KT 230V320 9999 FEW040 OVC055 11/06 Q1013;
0120068065999992010092805504+46967+008400FM-15+0450LSZC V0202701N001510075019N0070001N1+00801+00501999999ADDGA1081+007501999GF108991999999999999999999MA1101591999999REMMET051METAR LSZC 280550Z 27003KT 7000 OVC025 08/05 Q1016;
0120068065999992010092806204+46967+008400FM-15+0450LSZC V0209999V001010075019N0070001N1+00801+00601999999ADDGA1081+007501999GF108991999999999999999999MA1101591999999REMMET051METAR LSZC 280620Z VRB02KT 7000 OVC025 08/06 Q1016;
0120068065999992010092806504+46967+008400FM-15+0450LSZC V0202401N001510075019N0070001N1+00801+00601999999ADDGA1081+007501999GF108991999999999999999999MA1101591999999REMMET051METAR LSZC 280650Z 24003KT 7000 OVC025 08/06 Q1016;
0120068065999992010092807204+46967+008400FM-15+0450LSZC V0203001N001510075019N0070001N1+00901+00601999999ADDGA1071+007501999GF107991999999999999999999MA1101691999999REMMET051METAR LSZC 280720Z 30003KT 7000 BKN025 09/06 Q1017;
0120068065999992010092807504+46967+008400FM-15+0450LSZC V0209999V000510075019N0070001N1+00901+00601999999ADDGA1071+007501999GF107991999999999999999999MA1101691999999REMMET051METAR LSZC 280750Z VRB01KT 7000 BKN025 09/06 Q1017;
0143068065999992010092809204+46967+008400FM-15+0450LSZC V0209999V001010075019N0070001N1+01101+00601999999ADDGA1071+007501999GA2071+015001999GF107991999999999999999999MA1101691999999REMMET058METAR LSZC 280920Z VRB02KT 7000 BKN025 BKN050 11/06 Q1017;
0143068065999992010092809504+46967+008400FM-15+0450LSZC V0209999V001010075019N0070001N1+01101+00701999999ADDGA1071+007501999GA2071+015001999GF107991999999999999999999MA1101691999999REMMET058METAR LSZC 280950Z VRB02KT 7000 BKN025 BKN050 11/07 Q1017;
0143068065999992010092811204+46967+008400FM-15+0450LSZC V0209999V001010075019N0070001N1+01201+00701999999ADDGA1071+007501999GA2071+015001999GF107991999999999999999999MA1101801999999REMMET058METAR LSZC 281120Z VRB02KT 7000 BKN025 BKN050 12/07 Q1018;
0143068065999992010092811504+46967+008400FM-15+0450LSZC V0209999V001510075019N0070001N1+01201+00701999999ADDGA1071+007501999GA2071+015001999GF107991999999999999999999MA1101691999999REMMET058METAR LSZC 281150Z VRB03KT 7000 BKN025 BKN050 12/07 Q1017;
0143068065999992010092812204+46967+008400FM-15+0450LSZC V0209999V001510075019N0070001N1+01201+00701999999ADDGA1071+007501999GA2071+033001999GF107991999999999999999999MA1101691999999REMMET058METAR LSZC 281220Z VRB03KT 7000 BKN025 BKN110 12/07 Q1017;
0143068065999992010092812504+46967+008400FM-15+0450LSZC V0209999V001010075019N0070001N1+01201+00701999999ADDGA1071+007501999GA2071+033001999GF107991999999999999999999MA1101691999999REMMET058METAR LSZC 281250Z VRB02KT 7000 BKN025 BKN110 12/07 Q1017;
0151068065999992010092814204+46967+008400FM-15+0450LSZC V0202701N002110075019N0070001N1+01301+00601999999ADDGA1071+007501999GA2071+033001999GF107991999999999999999999MA1101801999999REMMET066METAR LSZC 281420Z 27004KT 210V340 7000 BKN025 BKN110 13/06 Q1018;
0120068065999992010092905204+46967+008400FM-15+0450LSZC V0209999V001010120019N0060001N1+00801+00701999999ADDGA1071+012001999GF107991999999999999999999MA1101901999999REMMET051METAR LSZC 290520Z VRB02KT 6000 BKN040 08/07 Q1019;
0120068065999992010092905504+46967+008400FM-15+0450LSZC V0202401N001510120019N0060001N1+00801+00701999999ADDGA1071+012001999GF107991999999999999999999MA1101901999999REMMET051METAR LSZC 290550Z 24003KT 6000 BKN040 08/07 Q1019;
0120068065999992010092906204+46967+008400FM-15+0450LSZC V0202401N001510120019N0060001N1+00801+00701999999ADDGA1071+012001999GF107991999999999999999999MA1101901999999REMMET051METAR LSZC 290620Z 24003KT 6000 BKN040 08/07 Q1019;
0120068065999992010092906504+46967+008400FM-15+0450LSZC V0202501N001510120019N0060001N1+00901+00701999999ADDGA1071+012001999GF107991999999999999999999MA1101901999999REMMET051METAR LSZC 290650Z 25003KT 6000 BKN040 09/07 Q1019;
0143068065999992010092907204+46967+008400FM-15+0450LSZC V0202501N001510120019N0060001N1+01001+00801999999ADDGA1021+004501999GA2071+012001999GF107991999999999999999999MA1102001999999REMMET058METAR LSZC 290720Z 25003KT 6000 FEW015 BKN040 10/08 Q1020;
0151068065999992010092907504+46967+008400FM-15+0450LSZC V0202601N001510150019N0060001N1+01101+00801999999ADDGA1021+004501999GA2071+015001999GF107991999999999999999999MA1102001999999REMMET066METAR LSZC 290750Z 26003KT 230V290 6000 FEW015 BKN050 11/08 Q1020;
0151068065999992010092909504+46967+008400FM-15+0450LSZC V0200501N002612200019N0080001N1+01301+00901999999ADDGA1021+004501999GA2041+015001999GF104991999999999999999999MA1101901999999REMMET066METAR LSZC 290950Z 05005KT 010V100 8000 FEW015 SCT050 13/09 Q1019;
0151068065999992010092911204+46967+008400FM-15+0450LSZC V0201101N002612200019N0080001N1+01501+00801999999ADDGA1021+004501999GA2041+015001999GF104991999999999999999999MA1101801999999REMMET066METAR LSZC 291120Z 11005KT 060V150 8000 FEW015 SCT050 15/08 Q1018;
0151068065999992010092912204+46967+008400FM-15+0450LSZC V0201101N002612200019N0080001N1+01501+00901999999ADDGA1021+004501999GA2041+015001999GF104991999999999999999999MA1101801999999REMMET066METAR LSZC 291220Z 11005KT 070V150 8000 FEW015 SCT050 15/09 Q1018;
0143068065999992010092912504+46967+008400FM-15+0450LSZC V0209999V001512200019N0080001N1+01601+01001999999ADDGA1021+009001999GA2041+027001999GF104991999999999999999999MA1101801999999REMMET058METAR LSZC 291250Z VRB03KT 8000 FEW030 SCT095 16/10 Q1018;
0151068065999992010092913204+46967+008400FM-15+0450LSZC V0203001N002612200019N0080001N1+01601+00801999999ADDGA1021+009001999GA2041+027001999GF104991999999999999999999MA1101801999999REMMET066METAR LSZC 291320Z 30005KT 230V340 8000 FEW030 SCT095 16/08 Q1018;
0143068065999992010092914204+46967+008400FM-15+0450LSZC V0209999V001012200019N0080001N1+01601+00901999999ADDGA1021+009001999GA2041+027001999GF104991999999999999999999MA1101801999999REMMET058METAR LSZC 291420Z VRB02KT 8000 FEW030 SCT095 16/09 Q1018;
0143068065999992010093005504+46967+008400FM-15+0450LSZC V0202501N001010270019N0060001N1+01101+00901999999ADDGA1021+003001999GA2071+027001999GF107991999999999999999999MA1101801999999REMMET058METAR LSZC 300550Z 25002KT 6000 FEW010 BKN095 11/09 Q1018;
0143068065999992010093008504+46967+008400FM-15+0450LSZC V0209999V001010270019N0060001N1+01301+01001999999ADDGA1021+003001999GA2081+027001999GF108991999999999999999999MA1101801999999REMMET058METAR LSZC 300850Z VRB02KT 6000 FEW010 OVC090 13/10 Q1018;
0143068065999992010093009204+46967+008400FM-15+0450LSZC V0209999V001010270019N0070001N1+01401+01001999999ADDGA1021+008401999GA2081+027001999GF108991999999999999999999MA1101801999999REMMET058METAR LSZC 300920Z VRB02KT 7000 FEW028 OVC090 14/10 Q1018;
0143068065999992010093009504+46967+008400FM-15+0450LSZC V0200701N002110270019N0070001N1+01401+01001999999ADDGA1021+008401999GA2081+027001999GF108991999999999999999999MA1101691999999REMMET058METAR LSZC 300950Z 07004KT 7000 FEW028 OVC090 14/10 Q1017;
0148068065999992010093013504+46967+008400FM-15+0450LSZC V0209999V001510270019N0060001N1+01401+01001999999ADDGA1021+008401999GA2081+027001999GF108991999999999999999999MA1101591999999REMMET063METAR LSZC 301350Z VRB03KT 6000 FEW028 OVC090 14/10 Q1016 RERA;
0143068065999992010093014204+46967+008400FM-15+0450LSZC V0200701N001010270019N0070001N1+01401+01001999999ADDGA1021+008401999GA2081+027001999GF108991999999999999999999MA1101591999999REMMET058METAR LSZC 301420Z 07002KT 7000 FEW028 OVC090 14/10 Q1016;
0143068065999992010093014504+46967+008400FM-15+0450LSZC V0200701N001510270019N0070001N1+01401+01001999999ADDGA1021+008401999GA2081+027001999GF108991999999999999999999MA1101591999999REMMET058METAR LSZC 301450Z 07003KT 7000 FEW028 OVC090 14/10 Q1016;
0166068065999992010100105504+46967+008400FM-15+0450LSZC V0209999V00051018001CN0112651N1+01101+01001999999ADDGA1021+004201999GA2041+018001999GA3081+030001999GF108991999999999999999999MA1101591999999REMMET065METAR LSZC 010550Z VRB01KT 9999 FEW014 SCT065 OVC100 11/10 Q1016;
0166068065999992010100106204+46967+008400FM-15+0450LSZC V0209999V00101015001CN0112651N1+01101+01001999999ADDGA1021+004201999GA2041+015001999GA3081+030001999GF108991999999999999999999MA1101591999999REMMET065METAR LSZC 010620Z VRB02KT 9999 FEW014 SCT050 OVC100 11/10 Q1016;
0166068065999992010100106504+46967+008400FM-15+0450LSZC V0209999V00051018001CN0112651N1+01101+01001999999ADDGA1021+003601999GA2041+018001999GA3081+030001999GF108991999999999999999999MA1101591999999REMMET065METAR LSZC 010650Z VRB01KT 9999 FEW012 SCT062 OVC100 11/10 Q1016;
0166068065999992010100107204+46967+008400FM-15+0450LSZC V0202701N00101018001CN0112651N1+01201+01001999999ADDGA1021+003601999GA2041+018001999GA3081+030001999GF108991999999999999999999MA1101591999999REMMET065METAR LSZC 010720Z 27002KT 9999 FEW012 SCT062 OVC100 12/10 Q1016;
0143068065999992010100107504+46967+008400FM-15+0450LSZC V0209999V000510180019N0112651N1+01201+01001999999ADDGA1021+012301999GA2081+018001999GF108991999999999999999999MA1101591999999REMMET058METAR LSZC 010750Z VRB01KT 9999 FEW041 OVC060 12/10 Q1016;
0143068065999992010100108204+46967+008400FM-15+0450LSZC V0209999V000510180019N0112651N1+01301+01001999999ADDGA1021+012301999GA2081+018001999GF108991999999999999999999MA1101591999999REMMET058METAR LSZC 010820Z VRB01KT 9999 FEW041 OVC060 13/10 Q1016;
0143068065999992010100108504+46967+008400FM-15+0450LSZC V0209999V001510180019N0112651N1+01301+01001999999ADDGA1021+012301999GA2081+018001999GF108991999999999999999999MA1101591999999REMMET058METAR LSZC 010850Z VRB03KT 9999 FEW041 OVC060 13/10 Q1016;
0151068065999992010100109204+46967+008400FM-15+0450LSZC V0200601N002110180019N0112651N1+01401+01001999999ADDGA1021+012301999GA2081+018001999GF108991999999999999999999MA1101591999999REMMET066METAR LSZC 010920Z 06004KT 030V100 9999 FEW041 OVC060 14/10 Q1016;
0143068065999992010100111204+46967+008400FM-15+0450LSZC V0209999V000510180019N0112651N1+01501+00901999999ADDGA1041+012601999GA2071+018001999GF107991999999999999999999MA1101491999999REMMET058METAR LSZC 011120Z VRB01KT 9999 SCT042 BKN060 15/09 Q1015;
0143068065999992010100111504+46967+008400FM-15+0450LSZC V0209999V001010180019N0112651N1+01501+00801999999ADDGA1041+012601999GA2071+018001999GF107991999999999999999999MA1101491999999REMMET058METAR LSZC 011150Z VRB02KT 9999 SCT042 BKN060 15/08 Q1015;
0143068065999992010100112204+46967+008400FM-15+0450LSZC V0209999V001510180019N0112651N1+01601+01001999999ADDGA1041+012601999GA2071+018001999GF107991999999999999999999MA1101491999999REMMET058METAR LSZC 011220Z VRB03KT 9999 SCT042 BKN060 16/10 Q1015;
0151068065999992010100112504+46967+008400FM-15+0450LSZC V0200901N002110180019N0112651N1+01501+00901999999ADDGA1041+012601999GA2071+018001999GF107991999999999999999999MA1101391999999REMMET066METAR LSZC 011250Z 09004KT 060V140 9999 SCT042 BKN060 15/09 Q1014;
0143068065999992010100113504+46967+008400FM-15+0450LSZC V0209999V001510180019N0112651N1+01501+00901999999ADDGA1041+012601999GA2071+018001999GF107991999999999999999999MA1101491999999REMMET058METAR LSZC 011350Z VRB03KT 9999 SCT042 BKN060 15/09 Q1015;
0143068065999992010100114204+46967+008400FM-15+0450LSZC V0200601N001010180019N0112651N1+01501+01001999999ADDGA1041+012601999GA2071+018001999GF107991999999999999999999MA1101491999999REMMET058METAR LSZC 011420Z 06002KT 9999 SCT042 BKN060 15/10 Q1015;
0080068065999992010100405504+46967+008400FM-15+0450LSZC V0202601N002119999999Y0099001N1+00901+00701999999ADDMA1100411999999REMMET053METAR LSZC 040550Z 26004KT 230V300 CAVOK 09/07 Q1004;
0072068065999992010100406204+46967+008400FM-15+0450LSZC V0202501N003119999999Y0099001N1+01101+00801999999ADDMA1100411999999REMMET045METAR LSZC 040620Z 25006KT CAVOK 11/08 Q1004;
0072068065999992010100407204+46967+008400FM-15+0450LSZC V0202401N002619999999Y0099001N1+01301+01001999999ADDMA1100411999999REMMET045METAR LSZC 040720Z 24005KT CAVOK 13/10 Q1004;
0080068065999992010100407504+46967+008400FM-15+0450LSZC V0202501N002619999999Y0099001N1+01401+01101999999ADDMA1100411999999REMMET053METAR LSZC 040750Z 25005KT 210V280 CAVOK 14/11 Q1004;
0080068065999992010100408204+46967+008400FM-15+0450LSZC V0202401N002619999999Y0099001N1+01601+01101999999ADDMA1100311999999REMMET053METAR LSZC 040820Z 24005KT 200V270 CAVOK 16/11 Q1003;
0072068065999992010100408504+46967+008400FM-15+0450LSZC V0202401N003119999999Y0099001N1+01501+01101999999ADDMA1100311999999REMMET045METAR LSZC 040850Z 24006KT CAVOK 15/11 Q1003;
0080068065999992010100409204+46967+008400FM-15+0450LSZC V0202401N002119999999Y0099001N1+01701+01201999999ADDMA1100311999999REMMET053METAR LSZC 040920Z 24004KT 200V270 CAVOK 17/12 Q1003;
0072068065999992010100409504+46967+008400FM-15+0450LSZC V0202201N001519999999Y0099001N1+01801+01201999999ADDMA1100311999999REMMET045METAR LSZC 040950Z 22003KT CAVOK 18/12 Q1003;
0080068065999992010100411204+46967+008400FM-15+0450LSZC V0202501N001519999999Y0099001N1+02201+01301999999ADDMA1100101999999REMMET053METAR LSZC 041120Z 25003KT 140V310 CAVOK 22/13 Q1001;
0128068065999992010100411504+46967+008400FM-15+0450LSZC V0202601N002112200019N0112651N1+02101+01201999999ADDGA1041+024001999GF104991999999999999999999MA1100101999999REMMET059METAR LSZC 041150Z 26004KT 230V300 9999 SCT080 21/12 Q1001;
0120068065999992010100412204+46967+008400FM-15+0450LSZC V0209999V000512200019N0112651N1+02401+00901999999ADDGA1041+024001999GF104991999999999999999999MA1099901999999REMMET051METAR LSZC 041220Z VRB01KT 9999 SCT080 24/09 Q0999;
0120068065999992010100412504+46967+008400FM-15+0450LSZC V0209999V001512200019N0112651N1+02401+00801999999ADDGA1041+024001999GF104991999999999999999999MA1099901999999REMMET051METAR LSZC 041250Z VRB03KT 9999 SCT080 24/08 Q0999;
0120068065999992010100413204+46967+008400FM-15+0450LSZC V0209999V003612200019N0112651N1+02301+00901999999ADDGA1041+024001999GF104991999999999999999999MA1099901999999REMMET051METAR LSZC 041320Z VRB07KT 9999 SCT080 23/09 Q0999;
0128068065999992010100413504+46967+008400FM-15+0450LSZC V0200701N002112200019N0112651N1+02301+01001999999ADDGA1041+024001999GF104991999999999999999999MA1099901999999REMMET059METAR LSZC 041350Z 07004KT 010V110 9999 SCT080 23/10 Q0999;
0128068065999992010100414204+46967+008400FM-15+0450LSZC V0200701N002112200019N0112651N1+02301+00901999999ADDGA1041+024001999GF104991999999999999999999MA1099901999999REMMET059METAR LSZC 041420Z 07004KT 010V170 9999 SCT080 23/09 Q0999;
0128068065999992010100414504+46967+008400FM-15+0450LSZC V0200501N001512200019N0112651N1+02201+00901999999ADDGA1041+024001999GF104991999999999999999999MA1099901999999REMMET059METAR LSZC 041450Z 05003KT 330V140 9999 SCT080 22/09 Q0999;
0153068065999992010100505504+46967+008400FM-15+0450LSZC V0209999V001010057019N0030001N1+01401+01301999999ADDGA1021+000901999GA2081+005701999GF108991999999999999999999MA1100811999999MW1611REMMET062METAR LSZC 050550Z VRB02KT 3000 -RA FEW003 OVC019 14/13 Q1008;
0152068065999992010100506204+46967+008400FM-15+0450LSZC V0200801N001510057019N0020001N1+01401+01301999999ADDGA1021+000901999GA2081+005701999GF108991999999999999999999MA1100911999999MW1631REMMET061METAR LSZC 050620Z 08003KT 2000 RA FEW003 OVC019 14/13 Q1009;
0153068065999992010100506504+46967+008400FM-15+0450LSZC V0200701N002610048019N0030001N1+01401+01401999999ADDGA1021+000601999GA2081+004801999GF108991999999999999999999MA1100911999999MW1611REMMET062METAR LSZC 050650Z 07005KT 3000 -RA FEW002 OVC016 14/14 Q1009;
0152068065999992010100507204+46967+008400FM-15+0450LSZC V0200701N002110054019N0024001N1+01401+01401999999ADDGA1021+000601999GA2081+005401999GF108991999999999999999999MA1100911999999MW1631REMMET061METAR LSZC 050720Z 07004KT 2400 RA FEW002 OVC018 14/14 Q1009;
0152068065999992010100507504+46967+008400FM-15+0450LSZC V0200801N002110054019N0025001N1+01401+01401999999ADDGA1021+000601999GA2081+005401999GF108991999999999999999999MA1101021999999MW1631REMMET061METAR LSZC 050750Z 08004KT 2500 RA FEW002 OVC018 14/14 Q1010;
0152068065999992010100508204+46967+008400FM-15+0450LSZC V0200801N002110054019N0025001N1+01401+01401999999ADDGA1021+000601999GA2081+005401999GF108991999999999999999999MA1101021999999MW1631REMMET061METAR LSZC 050820Z 08004KT 2500 RA FEW002 OVC018 14/14 Q1010;
0152068065999992010100509204+46967+008400FM-15+0450LSZC V0200801N002110054019N0025001N1+01401+01301999999ADDGA1021+000601999GA2081+005401999GF108991999999999999999999MA1101021999999MW1631REMMET061METAR LSZC 050920Z 08004KT 2500 RA FEW002 OVC018 14/13 Q1010;
0179068065999992010100511204+46967+008400FM-15+0450LSZC V0200701N00211007501CN0112651N1+01501+01401999999ADDGA1021+001201999GA2041+007501999GA3081+027001999GF108991999999999999999999MA1101021999999REMMET078METAR LSZC 051120Z 07004KT 030V100 9999 FEW004 SCT025 OVC090 15/14 Q1010 RERA;
0166068065999992010100512204+46967+008400FM-15+0450LSZC V0200701N00211012001CN0112651N1+01501+01401999999ADDGA1021+003601999GA2041+012001999GA3071+021001999GF107991999999999999999999MA1101021999999REMMET065METAR LSZC 051220Z 07004KT 9999 FEW012 SCT040 BKN070 15/14 Q1010;
0166068065999992010100512504+46967+008400FM-15+0450LSZC V0209999V00101012601CN0112651N1+01601+01301999999ADDGA1021+003001999GA2041+012601999GA3081+024001999GF108991999999999999999999MA1101081999999REMMET065METAR LSZC 051250Z VRB02KT 9999 FEW010 SCT042 OVC084 16/13 Q1011;
0166068065999992010100513204+46967+008400FM-15+0450LSZC V0209999V00101012601CN0112651N1+01601+01301999999ADDGA1021+003001999GA2041+012601999GA3081+024001999GF108991999999999999999999MA1101081999999REMMET065METAR LSZC 051320Z VRB02KT 9999 FEW010 SCT042 OVC084 16/13 Q1011;
0129068065999992010100605504+46967+008400FM-15+0450LSZC V0202801N001510006019N0003001N1+01001+00901999999ADDGA1081+000601999GF108991999999999999999999MA1101291999999MW1441REMMET054METAR LSZC 060550Z 28003KT 0300 FG OVC002 10/09 Q1013;
0137068065999992010100606204+46967+008400FM-15+0450LSZC V0209999V001012200019N0112651N1+01001+00901999999ADDGA1041+001501999GF104991999999999999999999MA1101291999999MW1411REMMET062METAR LSZC 060620Z VRB02KT 9999 1500E PRFG SCT005 10/09 Q1013;
0137068065999992010100606504+46967+008400FM-15+0450LSZC V0202501N001512200019N0112651N1+01001+00901999999ADDGA1041+001501999GF104991999999999999999999MA1101391999999MW1411REMMET062METAR LSZC 060650Z 25003KT 9999 4000E PRFG SCT005 10/09 Q1014;
0139068065999992010100607204+46967+008400FM-15+0450LSZC V0202501N002112200019N0040001N1+01001+01001999999ADDGA1041+001501999GF104991999999999999999999MA1101391999999MW1411REMMET064METAR LSZC 060720Z 25004KT 210V280 4000 PRFG SCT005 10/10 Q1014;
0120068065999992010100607504+46967+008400FM-15+0450LSZC V0209999V001010021019N0050001N1+01101+01001999999ADDGA1081+002101999GF108991999999999999999999MA1101391999999REMMET051METAR LSZC 060750Z VRB02KT 5000 OVC007 11/10 Q1014;
0120068065999992010100608204+46967+008400FM-15+0450LSZC V0209999C000010021019N0050001N1+01201+01101999999ADDGA1081+002101999GF108991999999999999999999MA1101391999999REMMET051METAR LSZC 060820Z 00000KT 5000 OVC007 12/11 Q1014;
0120068065999992010100608504+46967+008400FM-15+0450LSZC V0209999V000510021019N0070001N1+01201+01201999999ADDGA1081+002101999GF108991999999999999999999MA1101391999999REMMET051METAR LSZC 060850Z VRB01KT 7000 OVC007 12/12 Q1014;
0120068065999992010100609204+46967+008400FM-15+0450LSZC V0209999V000512200019N0112651N1+01401+01201999999ADDGA1041+002701999GF104991999999999999999999MA1101391999999REMMET051METAR LSZC 060920Z VRB01KT 9999 SCT009 14/12 Q1014;
0120068065999992010100609504+46967+008400FM-15+0450LSZC V0209999V000512200019N0112651N1+01501+01201999999ADDGA1041+003301999GF104991999999999999999999MA1101391999999REMMET051METAR LSZC 060950Z VRB01KT 9999 SCT011 15/12 Q1014;
0080068065999992010100611204+46967+008400FM-15+0450LSZC V0200901N002619999999Y0099001N1+01501+01301999999ADDMA1101391999999REMMET053METAR LSZC 061120Z 09005KT 050V120 CAVOK 15/13 Q1014;
0080068065999992010100612204+46967+008400FM-15+0450LSZC V0200601N002119999999Y0099001N1+01601+01301999999ADDMA1101391999999REMMET053METAR LSZC 061220Z 06004KT 020V090 CAVOK 16/13 Q1014;
0072068065999992010100612504+46967+008400FM-15+0450LSZC V0209999V001519999999Y0099001N1+01601+01301999999ADDMA1101391999999REMMET045METAR LSZC 061250Z VRB03KT CAVOK 16/13 Q1014;
0080068065999992010100613204+46967+008400FM-15+0450LSZC V0200701N002119999999Y0099001N1+01701+01301999999ADDMA1101391999999REMMET053METAR LSZC 061320Z 07004KT 020V100 CAVOK 17/13 Q1014;
0072068065999992010100614204+46967+008400FM-15+0450LSZC V0200601N002119999999Y0099001N1+01701+01301999999ADDMA1101391999999REMMET045METAR LSZC 061420Z 06004KT CAVOK 17/13 Q1014;
0072068065999992010100614504+46967+008400FM-15+0450LSZC V0200701N001519999999Y0099001N1+01701+01301999999ADDMA1101491999999REMMET045METAR LSZC 061450Z 07003KT CAVOK 17/13 Q1015;
0136068065999992010100705504+46967+008400FM-15+0450LSZC V0202601N001510009019N0020001N1+01001+00901999999ADDGA1091+000901999GF109991999999000251999999MA1101901999999MW1411REMMET061METAR LSZC 070550Z 26003KT 2000 1000E PRFG VV003 10/09 Q1019;
0128068065999992010100706204+46967+008400FM-15+0450LSZC V0202501N001510006019N0002001N1+00901+00901999999ADDGA1091+000601999GF109991999999000251999999MA1102001999999MW1451REMMET053METAR LSZC 070620Z 25003KT 0200 FG VV002 09/09 Q1020;
0128068065999992010100706504+46967+008400FM-15+0450LSZC V0202501N002110006019N0002001N1+01001+00901999999ADDGA1091+000601999GF109991999999000251999999MA1102001999999MW1451REMMET053METAR LSZC 070650Z 25004KT 0200 FG VV002 10/09 Q1020;
0112068065999992010100707204+46967+008400FM-15+0450LSZC V0202701N001512200019N0025001N1+01001+01001999999ADDGF100991999999999999999999MA1102001999999MW1411REMMET053METAR LSZC 070720Z 27003KT 2500 PRFG NSC 10/10 Q1020;
0118068065999992010100707504+46967+008400FM-15+0450LSZC V0209999V001012200019N0050001N1+01101+01101999999ADDGF100991999999999999999999MA1102001999999MW1411REMMET059METAR LSZC 070750Z VRB02KT 5000 1000E PRFG NSC 11/11 Q1020;
0131068065999992010100708504+46967+008400FM-15+0450LSZC V0209999V001010009019N0050001N1+01301+01201999999ADDGA1071+000901999GF107991999999999999999999MA1102001999999MW1411REMMET056METAR LSZC 070850Z VRB02KT 5000 PRFG BKN003 13/12 Q1020;
0128068065999992010100711504+46967+008400FM-15+0450LSZC V0201101N002110033019N0060001N1+01401+01201999999ADDGA1081+003301999GF108991999999999999999999MA1102001999999REMMET059METAR LSZC 071150Z 11004KT 080V160 6000 OVC011 14/12 Q1020;
0128068065999992010100712204+46967+008400FM-15+0450LSZC V0200901N002610033019N0060001N1+01401+01101999999ADDGA1081+003301999GF108991999999999999999999MA1101901999999REMMET059METAR LSZC 071220Z 09005KT 050V120 6000 OVC011 14/11 Q1019;
0120068065999992010100712504+46967+008400FM-15+0450LSZC V0209999V001010033019N0060001N1+01401+01201999999ADDGA1081+003301999GF108991999999999999999999MA1101901999999REMMET051METAR LSZC 071250Z VRB02KT 6000 OVC011 14/12 Q1019;
0120068065999992010100713504+46967+008400FM-15+0450LSZC V0209999V001010039019N0060001N1+01401+01201999999ADDGA1081+003901999GF108991999999999999999999MA1101901999999REMMET051METAR LSZC 071350Z VRB02KT 6000 OVC013 14/12 Q1019;
0120068065999992010100714204+46967+008400FM-15+0450LSZC V0209999V001010039019N0060001N1+01501+01201999999ADDGA1081+003901999GF108991999999999999999999MA1101901999999REMMET051METAR LSZC 071420Z VRB02KT 6000 OVC013 15/12 Q1019;
0129068065999992010100805504+46967+008400FM-15+0450LSZC V0202301N001510009019N0050001N1+01201+01001999999ADDGA1081+000901999GF108991999999999999999999MA1101901999999MW1441REMMET054METAR LSZC 080550Z 23003KT 5000 FG OVC003 12/10 Q1019;
0129068065999992010100806204+46967+008400FM-15+0450LSZC V0202501N001510009019N0050001N1+01201+01101999999ADDGA1081+000901999GF108991999999999999999999MA1101901999999MW1441REMMET054METAR LSZC 080620Z 25003KT 5000 FG OVC003 12/11 Q1019;
0129068065999992010100806504+46967+008400FM-15+0450LSZC V0202701N002610009019N0050001N1+01201+01001999999ADDGA1081+000901999GF108991999999999999999999MA1101901999999MW1441REMMET054METAR LSZC 080650Z 27005KT 5000 FG OVC003 12/10 Q1019;
0129068065999992010100807204+46967+008400FM-15+0450LSZC V0202601N002110009019N0040001N1+01201+01001999999ADDGA1081+000901999GF108991999999999999999999MA1101901999999MW1441REMMET054METAR LSZC 080720Z 26004KT 4000 FG OVC003 12/10 Q1019;
0129068065999992010100807504+46967+008400FM-15+0450LSZC V0202601N001510009019N0040001N1+01201+01101999999ADDGA1081+000901999GF108991999999999999999999MA1101901999999MW1101REMMET054METAR LSZC 080750Z 26003KT 4000 BR OVC003 12/11 Q1019;
0129068065999992010100808204+46967+008400FM-15+0450LSZC V0209999V001010009019N0040001N1+01301+01001999999ADDGA1081+000901999GF108991999999999999999999MA1102001999999MW1101REMMET054METAR LSZC 080820Z VRB02KT 4000 BR OVC003 13/10 Q1020;
0129068065999992010100808504+46967+008400FM-15+0450LSZC V0209999C000010009019N0040001N1+01301+01101999999ADDGA1081+000901999GF108991999999999999999999MA1102001999999MW1101REMMET054METAR LSZC 080850Z 00000KT 4000 BR OVC003 13/11 Q1020;
0129068065999992010100809204+46967+008400FM-15+0450LSZC V0209999V001010027019N0050001N1+01301+01101999999ADDGA1081+002701999GF108991999999999999999999MA1101901999999MW1101REMMET054METAR LSZC 080920Z VRB02KT 5000 BR OVC009 13/11 Q1019;
0129068065999992010100809504+46967+008400FM-15+0450LSZC V0209999V001010030019N0045001N1+01301+01101999999ADDGA1081+003001999GF108991999999999999999999MA1101901999999MW1101REMMET054METAR LSZC 080950Z VRB02KT 4500 BR OVC010 13/11 Q1019;
0129068065999992010100811504+46967+008400FM-15+0450LSZC V0209999V001010030019N0045001N1+01401+01101999999ADDGA1081+003001999GF108991999999999999999999MA1101901999999MW1101REMMET054METAR LSZC 081150Z VRB02KT 4500 BR OVC010 14/11 Q1019;
0129068065999992010100812204+46967+008400FM-15+0450LSZC V0209999V000510030019N0045001N1+01501+01201999999ADDGA1081+003001999GF108991999999999999999999MA1101901999999MW1101REMMET054METAR LSZC 081220Z VRB01KT 4500 BR OVC010 15/12 Q1019;
0137068065999992010100812504+46967+008400FM-15+0450LSZC V0200601N001510030019N0045001N1+01401+01201999999ADDGA1081+003001999GF108991999999999999999999MA1101801999999MW1101REMMET062METAR LSZC 081250Z 06003KT 030V090 4500 BR OVC010 14/12 Q1018;
0129068065999992010100813204+46967+008400FM-15+0450LSZC V0209999V001510030019N0045001N1+01401+01101999999ADDGA1081+003001999GF108991999999999999999999MA1101801999999MW1101REMMET054METAR LSZC 081320Z VRB03KT 4500 BR OVC010 14/11 Q1018;
0129068065999992010100813504+46967+008400FM-15+0450LSZC V0200801N002110042019N0045001N1+01401+01201999999ADDGA1081+004201999GF108991999999999999999999MA1101801999999MW1101REMMET054METAR LSZC 081350Z 08004KT 4500 BR OVC014 14/12 Q1018;
0129068065999992010100814204+46967+008400FM-15+0450LSZC V0200801N002110045019N0050001N1+01401+01201999999ADDGA1081+004501999GF108991999999999999999999MA1101801999999MW1101REMMET054METAR LSZC 081420Z 08004KT 5000 BR OVC015 14/12 Q1018;
0129068065999992010100814504+46967+008400FM-15+0450LSZC V0200701N002110045019N0050001N1+01401+01201999999ADDGA1081+004501999GF108991999999999999999999MA1101801999999MW1101REMMET054METAR LSZC 081450Z 07004KT 5000 BR OVC015 14/12 Q1018;
0129068065999992010101105504+46967+008400FM-15+0450LSZC V0209999V000510054019N0050001N1+00901+00601999999ADDGA1081+005401999GF108991999999999999999999MA1100711999999MW1101REMMET054METAR LSZC 110550Z VRB01KT 5000 BR OVC018 09/06 Q1007;
0129068065999992010101106204+46967+008400FM-15+0450LSZC V0209999V001010054019N0050001N1+00901+00601999999ADDGA1081+005401999GF108991999999999999999999MA1100711999999MW1101REMMET054METAR LSZC 110620Z VRB02KT 5000 BR OVC018 09/06 Q1007;
0129068065999992010101106504+46967+008400FM-15+0450LSZC V0209999V000510054019N0050001N1+00901+00601999999ADDGA1081+005401999GF108991999999999999999999MA1100711999999MW1101REMMET054METAR LSZC 110650Z VRB01KT 5000 BR OVC018 09/06 Q1007;
0129068065999992010101107204+46967+008400FM-15+0450LSZC V0202201N001510054019N0050001N1+00901+00601999999ADDGA1081+005401999GF108991999999999999999999MA1100711999999MW1101REMMET054METAR LSZC 110720Z 22003KT 5000 BR OVC018 09/06 Q1007;
0129068065999992010101107504+46967+008400FM-15+0450LSZC V0209999V001510054019N0050001N1+00901+00601999999ADDGA1081+005401999GF108991999999999999999999MA1100711999999MW1101REMMET054METAR LSZC 110750Z VRB03KT 5000 BR OVC018 09/06 Q1007;
0137068065999992010101108204+46967+008400FM-15+0450LSZC V0202001N001510051019N0050001N1+00901+00601999999ADDGA1081+005101999GF108991999999999999999999MA1100711999999MW1101REMMET062METAR LSZC 110820Z 20003KT 160V250 5000 BR OVC017 09/06 Q1007;
0129068065999992010101108504+46967+008400FM-15+0450LSZC V0209999V000510051019N0050001N1+01001+00601999999ADDGA1081+005101999GF108991999999999999999999MA1100811999999MW1101REMMET054METAR LSZC 110850Z VRB01KT 5000 BR OVC017 10/06 Q1008;
0137068065999992010101109204+46967+008400FM-15+0450LSZC V0203201N003110051019N0050001N1+00901+00601999999ADDGA1081+005101999GF108991999999999999999999MA1100811999999MW1101REMMET062METAR LSZC 110920Z 32006KT 280V350 5000 BR OVC017 09/06 Q1008;
0129068065999992010101109504+46967+008400FM-15+0450LSZC V0203201N003610051019N0050001N1+00901+00601999999ADDGA1081+005101999GF108991999999999999999999MA1100811999999MW1101REMMET054METAR LSZC 110950Z 32007KT 5000 BR OVC017 09/06 Q1008;
0137068065999992010101111504+46967+008400FM-15+0450LSZC V0203101N002610051019N0050001N1+01001+00601999999ADDGA1081+005101999GF108991999999999999999999MA1100911999999MW1101REMMET062METAR LSZC 111150Z 31005KT 260V340 5000 BR OVC017 10/06 Q1009;
0137068065999992010101112504+46967+008400FM-15+0450LSZC V0203201N001510051019N0050001N1+01001+00601999999ADDGA1081+005101999GF108991999999999999999999MA1100911999999MW1101REMMET062METAR LSZC 111250Z 32003KT 280V010 5000 BR OVC017 10/06 Q1009;
0129068065999992010101113504+46967+008400FM-15+0450LSZC V0209999V000510054019N0050001N1+01001+00601999999ADDGA1081+005401999GF108991999999999999999999MA1100911999999MW1101REMMET054METAR LSZC 111350Z VRB01KT 5000 BR OVC018 10/06 Q1009;
0129068065999992010101114504+46967+008400FM-15+0450LSZC V0209999V000510054019N0050001N1+01001+00601999999ADDGA1081+005401999GF108991999999999999999999MA1100911999999MW1101REMMET054METAR LSZC 111450Z VRB01KT 5000 BR OVC018 10/06 Q1009;
0129068065999992010101205504+46967+008400FM-15+0450LSZC V0202401N002110036019N0045001N1+00801+00601999999ADDGA1081+003601999GF108991999999999999999999MA1101291999999MW1101REMMET054METAR LSZC 120550Z 24004KT 4500 BR OVC012 08/06 Q1013;
0129068065999992010101206204+46967+008400FM-15+0450LSZC V0202401N001510039019N0045001N1+00801+00601999999ADDGA1081+003901999GF108991999999999999999999MA1101291999999MW1101REMMET054METAR LSZC 120620Z 24003KT 4500 BR OVC013 08/06 Q1013;
0129068065999992010101206504+46967+008400FM-15+0450LSZC V0209999V001010042019N0040001N1+00801+00701999999ADDGA1081+004201999GF108991999999999999999999MA1101291999999MW1101REMMET054METAR LSZC 120650Z VRB02KT 4000 BR OVC014 08/07 Q1013;
0129068065999992010101207204+46967+008400FM-15+0450LSZC V0202201N001010039019N0040001N1+00801+00701999999ADDGA1081+003901999GF108991999999999999999999MA1101291999999MW1101REMMET054METAR LSZC 120720Z 22002KT 4000 BR OVC013 08/07 Q1013;
0129068065999992010101207504+46967+008400FM-15+0450LSZC V0202601N001510039019N0040001N1+00901+00701999999ADDGA1081+003901999GF108991999999999999999999MA1101291999999MW1101REMMET054METAR LSZC 120750Z 26003KT 4000 BR OVC013 09/07 Q1013;
0129068065999992010101208204+46967+008400FM-15+0450LSZC V0202301N002610039019N0040001N1+00901+00701999999ADDGA1081+003901999GF108991999999999999999999MA1101291999999MW1101REMMET054METAR LSZC 120820Z 23005KT 4000 BR OVC013 09/07 Q1013;
0129068065999992010101208504+46967+008400FM-15+0450LSZC V0202501N002110039019N0040001N1+00901+00701999999ADDGA1081+003901999GF108991999999999999999999MA1101291999999MW1101REMMET054METAR LSZC 120850Z 25004KT 4000 BR OVC013 09/07 Q1013;
0137068065999992010101209204+46967+008400FM-15+0450LSZC V0202401N002110039019N0040001N1+00901+00701999999ADDGA1081+003901999GF108991999999999999999999MA1101291999999MW1101REMMET062METAR LSZC 120920Z 24004KT 210V270 4000 BR OVC013 09/07 Q1013;
0137068065999992010101209504+46967+008400FM-15+0450LSZC V0202501N002110039019N0040001N1+01001+00701999999ADDGA1081+003901999GF108991999999999999999999MA1101291999999MW1101REMMET062METAR LSZC 120950Z 25004KT 210V310 4000 BR OVC013 10/07 Q1013;
0129068065999992010101211204+46967+008400FM-15+0450LSZC V0209999V001510057019N0050001N1+01001+00601999999ADDGA1081+005701999GF108991999999999999999999MA1101191999999MW1101REMMET054METAR LSZC 121120Z VRB03KT 5000 BR OVC019 10/06 Q1012;
0129068065999992010101211504+46967+008400FM-15+0450LSZC V0209999V001510054019N0050001N1+01001+00701999999ADDGA1081+005401999GF108991999999999999999999MA1101191999999MW1101REMMET054METAR LSZC 121150Z VRB03KT 5000 BR OVC018 10/07 Q1012;
0129068065999992010101212204+46967+008400FM-15+0450LSZC V0209999V000510054019N0050001N1+01101+00701999999ADDGA1081+005401999GF108991999999999999999999MA1101191999999MW1101REMMET054METAR LSZC 121220Z VRB01KT 5000 BR OVC018 11/07 Q1012;
0129068065999992010101212504+46967+008400FM-15+0450LSZC V0209999V000510054019N0050001N1+01101+00601999999ADDGA1081+005401999GF108991999999999999999999MA1101191999999MW1101REMMET054METAR LSZC 121250Z VRB01KT 5000 BR OVC018 11/06 Q1012;
0129068065999992010101213204+46967+008400FM-15+0450LSZC V0209999V001010054019N0050001N1+01101+00701999999ADDGA1081+005401999GF108991999999999999999999MA1101081999999MW1101REMMET054METAR LSZC 121320Z VRB02KT 5000 BR OVC018 11/07 Q1011;
0129068065999992010101213504+46967+008400FM-15+0450LSZC V0209999V000510054019N0050001N1+01101+00601999999ADDGA1081+005401999GF108991999999999999999999MA1101081999999MW1101REMMET054METAR LSZC 121350Z VRB01KT 5000 BR OVC018 11/06 Q1011;
0129068065999992010101214204+46967+008400FM-15+0450LSZC V0209999V000510054019N0050001N1+01101+00701999999ADDGA1081+005401999GF108991999999999999999999MA1101081999999MW1101REMMET054METAR LSZC 121420Z VRB01KT 5000 BR OVC018 11/07 Q1011;
0129068065999992010101305504+46967+008400FM-15+0450LSZC V0202401N001510054019N0050001N1+00901+00701999999ADDGA1081+005401999GF108991999999999999999999MA1101081999999MW1101REMMET054METAR LSZC 130550Z 24003KT 5000 BR OVC018 09/07 Q1011;
0129068065999992010101306204+46967+008400FM-15+0450LSZC V0202201N002110054019N0050001N1+00901+00601999999ADDGA1081+005401999GF108991999999999999999999MA1101081999999MW1101REMMET054METAR LSZC 130620Z 22004KT 5000 BR OVC018 09/06 Q1011;
0129068065999992010101306504+46967+008400FM-15+0450LSZC V0209999V001510054019N0050001N1+00901+00601999999ADDGA1081+005401999GF108991999999999999999999MA1101081999999MW1101REMMET054METAR LSZC 130650Z VRB03KT 5000 BR OVC018 09/06 Q1011;
0129068065999992010101307204+46967+008400FM-15+0450LSZC V0209999V001010060019N0050001N1+00901+00601999999ADDGA1081+006001999GF108991999999999999999999MA1101081999999MW1101REMMET054METAR LSZC 130720Z VRB02KT 5000 BR OVC020 09/06 Q1011;
0129068065999992010101307504+46967+008400FM-15+0450LSZC V0209999V000510060019N0050001N1+01001+00701999999ADDGA1081+006001999GF108991999999999999999999MA1101081999999MW1101REMMET054METAR LSZC 130750Z VRB01KT 5000 BR OVC020 10/07 Q1011;
0129068065999992010101308204+46967+008400FM-15+0450LSZC V0209999V000510063019N0045001N1+01001+00701999999ADDGA1081+006301999GF108991999999999999999999MA1101081999999MW1101REMMET054METAR LSZC 130820Z VRB01KT 4500 BR OVC021 10/07 Q1011;
0129068065999992010101308504+46967+008400FM-15+0450LSZC V0209999V000510063019N0045001N1+01001+00701999999ADDGA1081+006301999GF108991999999999999999999MA1101081999999MW1101REMMET054METAR LSZC 130850Z VRB01KT 4500 BR OVC021 10/07 Q1011;
0129068065999992010101309204+46967+008400FM-15+0450LSZC V0209999V000510063019N0045001N1+01001+00701999999ADDGA1081+006301999GF108991999999999999999999MA1101081999999MW1101REMMET054METAR LSZC 130920Z VRB01KT 4500 BR OVC021 10/07 Q1011;
0129068065999992010101309504+46967+008400FM-15+0450LSZC V0209999V001010063019N0045001N1+01001+00701999999ADDGA1081+006301999GF108991999999999999999999MA1101191999999MW1101REMMET054METAR LSZC 130950Z VRB02KT 4500 BR OVC021 10/07 Q1012;
0129068065999992010101311204+46967+008400FM-15+0450LSZC V0209999V000510063019N0045001N1+01001+00701999999ADDGA1081+006301999GF108991999999999999999999MA1101081999999MW1101REMMET054METAR LSZC 131120Z VRB01KT 4500 BR OVC021 10/07 Q1011;
0129068065999992010101312204+46967+008400FM-15+0450LSZC V0209999V000510063019N0045001N1+01001+00701999999ADDGA1081+006301999GF108991999999999999999999MA1101081999999MW1101REMMET054METAR LSZC 131220Z VRB01KT 4500 BR OVC021 10/07 Q1011;
0129068065999992010101313204+46967+008400FM-15+0450LSZC V0203201N003610063019N0035001N1+01001+00701999999ADDGA1081+006301999GF108991999999999999999999MA1101081999999MW1101REMMET054METAR LSZC 131320Z 32007KT 3500 BR OVC021 10/07 Q1011;
0160068065999992010101313504+46967+008400FM-15+0450LSZC V0203001N002610069019N0035001N1+01001+00601999999ADDGA1041+004801999GA2081+006901999GF108991999999999999999999MA1101081999999MW1101REMMET069METAR LSZC 131350Z 30005KT 260V330 3500 BR SCT016 OVC023 10/06 Q1011;
0160068065999992010101314204+46967+008400FM-15+0450LSZC V0203201N002610069019N0035001N1+01001+00701999999ADDGA1041+004801999GA2081+006901999GF108991999999999999999999MA1101081999999MW1101REMMET069METAR LSZC 131420Z 32005KT 280V350 3500 BR SCT016 OVC023 10/07 Q1011;
0152068065999992010101314504+46967+008400FM-15+0450LSZC V0209999V001510060019N0030001N1+01001+00701999999ADDGA1041+004201999GA2081+006001999GF108991999999999999999999MA1101081999999MW1101REMMET061METAR LSZC 131450Z VRB03KT 3000 BR SCT014 OVC020 10/07 Q1011;
0152068065999992010101405504+46967+008400FM-15+0450LSZC V0209999V001010075019N0030001N1+00901+00701999999ADDGA1041+003901999GA2081+007501999GF108991999999999999999999MA1101291999999MW1101REMMET061METAR LSZC 140550Z VRB02KT 3000 BR SCT013 OVC025 09/07 Q1013;
0152068065999992010101406204+46967+008400FM-15+0450LSZC V0202101N001010075019N0030001N1+00901+00701999999ADDGA1041+004201999GA2081+007501999GF108991999999999999999999MA1101291999999MW1101REMMET061METAR LSZC 140620Z 21002KT 3000 BR SCT014 OVC025 09/07 Q1013;
0138068065999992010101406504+46967+008400FM-15+0450LSZC V0209999C000010048019N0030001N1+00901+00701999999ADDGA1081+004801999GF108991999999999999999999MA1101291999999MW1101MW2531REMMET057METAR LSZC 140650Z 00000KT 3000 BR DZ OVC016 09/07 Q1013;
0152068065999992010101407204+46967+008400FM-15+0450LSZC V0209999V000510063019N0025001N1+00901+00701999999ADDGA1041+005101999GA2081+006301999GF108991999999999999999999MA1101291999999MW1101REMMET061METAR LSZC 140720Z VRB01KT 2500 BR SCT017 OVC021 09/07 Q1013;
0162068065999992010101407504+46967+008400FM-15+0450LSZC V0209999V000510075019N0025001N1+00901+00701999999ADDGA1041+004801999GA2081+007501999GF108991999999999999999999MA1101291999999MW1101MW2511REMMET065METAR LSZC 140750Z VRB01KT 2500 BR -DZ SCT016 OVC025 09/07 Q1013;
0162068065999992010101408204+46967+008400FM-15+0450LSZC V0209999V000510075019N0025001N1+00901+00701999999ADDGA1041+004801999GA2081+007501999GF108991999999999999999999MA1101291999999MW1101MW2511REMMET065METAR LSZC 140820Z VRB01KT 2500 BR -DZ SCT016 OVC025 09/07 Q1013;
0162068065999992010101408504+46967+008400FM-15+0450LSZC V0209999V000510075019N0025001N1+00901+00701999999ADDGA1041+004801999GA2081+007501999GF108991999999999999999999MA1101291999999MW1101MW2511REMMET065METAR LSZC 140850Z VRB01KT 2500 BR -DZ SCT016 OVC025 09/07 Q1013;
0162068065999992010101409204+46967+008400FM-15+0450LSZC V0209999V001010075019N0025001N1+00901+00701999999ADDGA1041+004801999GA2081+007501999GF108991999999999999999999MA1101291999999MW1101MW2511REMMET065METAR LSZC 140920Z VRB02KT 2500 BR -DZ SCT016 OVC025 09/07 Q1013;
0152068065999992010101411204+46967+008400FM-15+0450LSZC V0209999V000510087019N0025001N1+01001+00701999999ADDGA1041+004501999GA2081+008701999GF108991999999999999999999MA1101391999999MW1101REMMET061METAR LSZC 141120Z VRB01KT 2500 BR SCT015 OVC029 10/07 Q1014;
0152068065999992010101411504+46967+008400FM-15+0450LSZC V0209999V000510087019N0030001N1+01001+00601999999ADDGA1041+004501999GA2081+008701999GF108991999999999999999999MA1101391999999MW1101REMMET061METAR LSZC 141150Z VRB01KT 3000 BR SCT015 OVC029 10/06 Q1014;
0152068065999992010101412204+46967+008400FM-15+0450LSZC V0209999V000510087019N0035001N1+01001+00601999999ADDGA1041+004501999GA2081+008701999GF108991999999999999999999MA1101291999999MW1101REMMET061METAR LSZC 141220Z VRB01KT 3500 BR SCT015 OVC029 10/06 Q1013;
0152068065999992010101413204+46967+008400FM-15+0450LSZC V0209999V000510093019N0035001N1+01001+00701999999ADDGA1041+004501999GA2081+009301999GF108991999999999999999999MA1101291999999MW1101REMMET061METAR LSZC 141320Z VRB01KT 3500 BR SCT015 OVC031 10/07 Q1013;
0152068065999992010101414204+46967+008400FM-15+0450LSZC V0209999V000510093019N0035001N1+01001+00701999999ADDGA1041+004501999GA2081+009301999GF108991999999999999999999MA1101391999999MW1101REMMET061METAR LSZC 141420Z VRB01KT 3500 BR SCT015 OVC031 10/07 Q1014;
0129068065999992010101505504+46967+008400FM-15+0450LSZC V0209999V000510057019N0040001N1+00801+00501999999ADDGA1081+005701999GF108991999999999999999999MA1101191999999MW1101REMMET054METAR LSZC 150550Z VRB01KT 4000 BR OVC019 08/05 Q1012;
0129068065999992010101506204+46967+008400FM-15+0450LSZC V0209999V000510057019N0040001N1+00801+00501999999ADDGA1081+005701999GF108991999999999999999999MA1101291999999MW1101REMMET054METAR LSZC 150620Z VRB01KT 4000 BR OVC019 08/05 Q1013;
0129068065999992010101506504+46967+008400FM-15+0450LSZC V0209999V002110057019N0040001N1+00801+00501999999ADDGA1081+005701999GF108991999999999999999999MA1101291999999MW1101REMMET054METAR LSZC 150650Z VRB04KT 4000 BR OVC019 08/05 Q1013;
0129068065999992010101507204+46967+008400FM-15+0450LSZC V0203201N004110057019N0040001N1+00801+00501999999ADDGA1081+005701999GF108991999999999999999999MA1101291999999MW1101REMMET054METAR LSZC 150720Z 32008KT 4000 BR OVC019 08/05 Q1013;
0137068065999992010101507504+46967+008400FM-15+0450LSZC V0203001N001510057019N0040001N1+00801+00501999999ADDGA1081+005701999GF108991999999999999999999MA1101291999999MW1101REMMET062METAR LSZC 150750Z 30003KT 230V030 4000 BR OVC019 08/05 Q1013;
0160068065999992010101508204+46967+008400FM-15+0450LSZC V0203201N002110063019N0040001N1+00801+00501999999ADDGA1021+005101999GA2081+006301999GF108991999999999999999999MA1101291999999MW1101REMMET069METAR LSZC 150820Z 32004KT 260V360 4000 BR FEW017 OVC021 08/05 Q1013;
0152068065999992010101508504+46967+008400FM-15+0450LSZC V0209999V000510063019N0040001N1+00801+00501999999ADDGA1021+005101999GA2081+006301999GF108991999999999999999999MA1101291999999MW1101REMMET061METAR LSZC 150850Z VRB01KT 4000 BR FEW017 OVC021 08/05 Q1013;
0183068065999992010101509204+46967+008400FM-15+0450LSZC V0203201N002110078019N0040001N1+00901+00501999999ADDGA1021+005101999GA2071+007801999GA3081+011101999GF108991999999999999999999MA1101291999999MW1101REMMET076METAR LSZC 150920Z 32004KT 280V350 4000 BR FEW017 BKN026 OVC037 09/05 Q1013;
0183068065999992010101509504+46967+008400FM-15+0450LSZC V0203201N003110063019N0040001N1+00801+00401999999ADDGA1021+005101999GA2071+006301999GA3081+011101999GF108991999999999999999999MA1101291999999MW1101REMMET076METAR LSZC 150950Z 32006KT 300V360 4000 BR FEW017 BKN021 OVC037 08/04 Q1013;
0175068065999992010101511204+46967+008400FM-15+0450LSZC V0209999V000510063019N0040001N1+00901+00501999999ADDGA1021+005101999GA2071+006301999GA3081+011101999GF108991999999999999999999MA1101291999999MW1101REMMET068METAR LSZC 151120Z VRB01KT 4000 BR FEW017 BKN021 OVC037 09/05 Q1013;
0175068065999992010101511504+46967+008400FM-15+0450LSZC V0209999C000010063019N0040001N1+01001+00501999999ADDGA1021+005101999GA2071+006301999GA3081+011101999GF108991999999999999999999MA1101191999999MW1101REMMET068METAR LSZC 151150Z 00000KT 4000 BR FEW017 BKN021 OVC037 10/05 Q1012;
0175068065999992010101512504+46967+008400FM-15+0450LSZC V0209999V000510063019N0040001N1+01001+00501999999ADDGA1021+005101999GA2071+006301999GA3081+011101999GF108991999999999999999999MA1101191999999MW1101REMMET068METAR LSZC 151250Z VRB01KT 4000 BR FEW017 BKN021 OVC037 10/05 Q1012;
0152068065999992010101513204+46967+008400FM-15+0450LSZC V0209999V001010066019N0045001N1+01001+00401999999ADDGA1071+006601999GA2081+012301999GF108991999999999999999999MA1101191999999MW1101REMMET061METAR LSZC 151320Z VRB02KT 4500 BR BKN022 OVC041 10/04 Q1012;
0152068065999992010101513504+46967+008400FM-15+0450LSZC V0209999V002110066019N0045001N1+01001+00401999999ADDGA1071+006601999GA2081+012301999GF108991999999999999999999MA1101191999999MW1101REMMET061METAR LSZC 151350Z VRB04KT 4500 BR BKN022 OVC041 10/04 Q1012;
0152068065999992010101514204+46967+008400FM-15+0450LSZC V0209999V002110066019N0045001N1+01001+00401999999ADDGA1071+006601999GA2081+012301999GF108991999999999999999999MA1101191999999MW1101REMMET061METAR LSZC 151420Z VRB04KT 4500 BR BKN022 OVC041 10/04 Q1012;
0160068065999992010101514504+46967+008400FM-15+0450LSZC V0203401N002110129019N0050001N1+01001+00301999999ADDGA1041+006601999GA2081+012901999GF108991999999999999999999MA1101191999999MW1101REMMET069METAR LSZC 151450Z 34004KT 280V030 5000 BR SCT022 OVC043 10/03 Q1012;
0175068065999992010101806204+46967+008400FM-15+0450LSZC V0203301N003610084019N0040001N1+00701+00401999999ADDGA1041+004501999GA2071+008401999GA3081+012901999GF108991999999999999999999MA1101801999999MW1101REMMET068METAR LSZC 180620Z 33007KT 4000 BR SCT015 BKN028 OVC043 07/04 Q1018;
0183068065999992010101806504+46967+008400FM-15+0450LSZC V0203401N002610084019N0040001N1+00701+00401999999ADDGA1041+004501999GA2071+008401999GA3081+012901999GF108991999999999999999999MA1101801999999MW1101REMMET076METAR LSZC 180650Z 34005KT 280V030 4000 BR SCT015 BKN028 OVC043 07/04 Q1018;
0183068065999992010101807204+46967+008400FM-15+0450LSZC V0200101N001510063019N0040001N1+00701+00401999999ADDGA1041+004501999GA2071+006301999GA3081+012001999GF108991999999999999999999MA1101801999999MW1101REMMET076METAR LSZC 180720Z 01003KT 310V100 4000 BR SCT015 BKN021 OVC040 07/04 Q1018;
0175068065999992010101807504+46967+008400FM-15+0450LSZC V0209999V000510063019N0040001N1+00701+00401999999ADDGA1041+004201999GA2071+006301999GA3081+012001999GF108991999999999999999999MA1101901999999MW1101REMMET068METAR LSZC 180750Z VRB01KT 4000 BR SCT014 BKN021 OVC040 07/04 Q1019;
0183068065999992010101811204+46967+008400FM-15+0450LSZC V0202101N001510054019N0040001N1+00601+00501999999ADDGA1021+003301999GA2071+005401999GA3081+012001999GF108991999999999999999999MA1101901999999MW1101REMMET076METAR LSZC 181120Z 21003KT 170V260 4000 BR FEW011 BKN018 OVC040 06/05 Q1019;
0183068065999992010101811504+46967+008400FM-15+0450LSZC V0202101N002110054019N0040001N1+00701+00501999999ADDGA1021+004201999GA2071+005401999GA3081+012001999GF108991999999999999999999MA1101901999999MW1101REMMET076METAR LSZC 181150Z 21004KT 170V240 4000 BR FEW014 BKN018 OVC040 07/05 Q1019;
0175068065999992010101812204+46967+008400FM-15+0450LSZC V0202101N002110054019N0040001N1+00701+00501999999ADDGA1021+004201999GA2071+005401999GA3081+012001999GF108991999999999999999999MA1101901999999MW1101REMMET068METAR LSZC 181220Z 21004KT 4000 BR FEW014 BKN018 OVC040 07/05 Q1019;
0175068065999992010101812504+46967+008400FM-15+0450LSZC V0209999V001010072019N0040001N1+00701+00501999999ADDGA1021+004501999GA2071+007201999GA3081+012001999GF108991999999999999999999MA1101901999999MW1101REMMET068METAR LSZC 181250Z VRB02KT 4000 BR FEW015 BKN024 OVC040 07/05 Q1019;
0160068065999992010101905504+46967+008400FM-15+0450LSZC V0202601N002610120019N0040001N1+00501+00201999999ADDGA1021+002401999GA2081+012001999GF108991999999999999999999MA1101691999999MW1101REMMET069METAR LSZC 190550Z 26005KT 230V300 4000 BR FEW008 OVC040 05/02 Q1017;
0152068065999992010101906204+46967+008400FM-15+0450LSZC V0202601N002610120019N0040001N1+00401+00201999999ADDGA1021+002401999GA2071+012001999GF107991999999999999999999MA1101691999999MW1101REMMET061METAR LSZC 190620Z 26005KT 4000 BR FEW008 BKN040 04/02 Q1017;
0152068065999992010101906504+46967+008400FM-15+0450LSZC V0202701N002610120019N0040001N1+00401+00201999999ADDGA1021+002401999GA2071+012001999GF107991999999999999999999MA1101691999999MW1101REMMET061METAR LSZC 190650Z 27005KT 4000 BR FEW008 BKN040 04/02 Q1017;
0160068065999992010101907204+46967+008400FM-15+0450LSZC V0202701N002110120019N0040001N1+00401+00201999999ADDGA1021+002401999GA2071+012001999GF107991999999999999999999MA1101691999999MW1101REMMET069METAR LSZC 190720Z 27004KT 240V310 4000 BR FEW008 BKN040 04/02 Q1017;
0152068065999992010101907504+46967+008400FM-15+0450LSZC V0202501N002612200019N0040001N1+00401+00201999999ADDGA1021+002401999GA2041+012001999GF104991999999999999999999MA1101691999999MW1101REMMET061METAR LSZC 190750Z 25005KT 4000 BR FEW008 SCT040 04/02 Q1017;
0152068065999992010101908504+46967+008400FM-15+0450LSZC V0209999V000512200019N0080001N1+00701+00201999999ADDGA1021+002401999GA2041+012001999GF104991999999999999999999MA1101591999999MW1101REMMET061METAR LSZC 190850Z VRB01KT 8000 BR FEW008 SCT040 07/02 Q1016;
0129068065999992010101909504+46967+008400FM-15+0450LSZC V0209999V000512200019N0080001N1+00901+00301999999ADDGA1021+036001999GF102991999999999999999999MA1101491999999MW1101REMMET054METAR LSZC 190950Z VRB01KT 8000 BR FEW120 09/03 Q1015;
0128068065999992010101912204+46967+008400FM-15+0450LSZC V0200801N002612200019N0112651N1+01101+00301999999ADDGA1041+018001999GF104991999999999999999999MA1101291999999REMMET059METAR LSZC 191220Z 08005KT 040V110 9999 SCT060 11/03 Q1013;
0120068065999992010101913204+46967+008400FM-15+0450LSZC V0209999V003112200019N0112651N1+01101+00401999999ADDGA1041+018001999GF104991999999999999999999MA1101191999999REMMET051METAR LSZC 191320Z VRB06KT 9999 SCT060 11/04 Q1012;
0128068065999992010101914204+46967+008400FM-15+0450LSZC V0200901N001512200019N0112651N1+01101+00401999999ADDGA1041+018001999GF104991999999999999999999MA1101191999999REMMET059METAR LSZC 191420Z 09003KT 030V140 9999 SCT060 11/04 Q1012;
0120068065999992010101914504+46967+008400FM-15+0450LSZC V0200601N002112200019N0112651N1+01101+00501999999ADDGA1041+018001999GF104991999999999999999999MA1101081999999REMMET051METAR LSZC 191450Z 06004KT 9999 SCT060 11/05 Q1011;
0151068065999992010102005204+46967+008400FM-15+0450LSZC V0203301N002110150019N0112651N1+00701+00401999999ADDGA1041+012001999GA2081+015001999GF108991999999999999999999MA1101021999999REMMET066METAR LSZC 200520Z 33004KT 290V040 9999 SCT040 OVC055 07/04 Q1010;
0120068065999992010102005504+46967+008400FM-15+0450LSZC V0209999V001010150019N0112651N1+00701+00401999999ADDGA1081+015001999GF108991999999999999999999MA1101021999999REMMET051METAR LSZC 200550Z VRB02KT 9999 OVC050 07/04 Q1010;
0143068065999992010102006504+46967+008400FM-15+0450LSZC V0209999V001510120019N0080001N1+00701+00401999999ADDGA1041+009001999GA2081+012001999GF108991999999999999999999MA1101081999999REMMET058METAR LSZC 200650Z VRB03KT 8000 SCT030 OVC040 07/04 Q1011;
0151068065999992010102007204+46967+008400FM-15+0450LSZC V0202701N004110120019N0080001N1+00701+00301999999ADDGA1041+006001999GA2081+012001999GF108991999999999999999999MA1101191999999REMMET066METAR LSZC 200720Z 27008KT 230V290 8000 SCT020 OVC040 07/03 Q1012;
0143068065999992010102007504+46967+008400FM-15+0450LSZC V0209999V001010120019N0080001N1+00601+00401999999ADDGA1041+006001999GA2081+012001999GF108991999999999999999999MA1101191999999REMMET058METAR LSZC 200750Z VRB02KT 8000 SCT020 OVC040 06/04 Q1012;
0151068065999992010102008504+46967+008400FM-15+0450LSZC V0202601N001510120019N0112651N1+00601+00401999999ADDGA1021+006001999GA2071+012001999GF107991999999999999999999MA1101291999999REMMET066METAR LSZC 200850Z 26003KT 240V300 9999 FEW020 BKN040 06/04 Q1013;
0160068065999992010102009504+46967+008400FM-15+0450LSZC V0202701N003110105019N0060001N1+00601+00401999999ADDGA1021+006001999GA2071+010501999GF107991999999999999999999MA1101291999999MW1631REMMET069METAR LSZC 200950Z 27006KT 240V300 6000 RA FEW020 BKN035 06/04 Q1013;
0152068065999992010102011204+46967+008400FM-15+0450LSZC V0209999V000510105019N0060001N1+00701+00401999999ADDGA1021+006001999GA2071+010501999GF107991999999999999999999MA1101391999999MW1631REMMET061METAR LSZC 201120Z VRB01KT 6000 RA FEW020 BKN035 07/04 Q1014;
0152068065999992010102012204+46967+008400FM-15+0450LSZC V0209999V001010105019N0060001N1+00601+00301999999ADDGA1021+006001999GA2071+010501999GF107991999999999999999999MA1101391999999MW1631REMMET061METAR LSZC 201220Z VRB02KT 6000 RA FEW020 BKN035 06/03 Q1014;
0152068065999992010102012504+46967+008400FM-15+0450LSZC V0209999V001010135019N0112651N1+00701+00401999999ADDGA1021+006001999GA2071+013501999GF107991999999999999999999MA1101391999999MW1631REMMET061METAR LSZC 201250Z VRB02KT 9999 RA FEW020 BKN045 07/04 Q1014;
0166068065999992010102105504+46967+008400FM-15+0450LSZC V0202401N001510105019N0112651N1+00201+00101999999ADDGA1021+001501999GA2071+010501999GA3081+030001999GF108991999999999999999999MA1102511999999REMMET065METAR LSZC 210550Z 24003KT 9999 FEW005 BKN035 OVC100 02/01 Q1025;
0143068065999992010102106204+46967+008400FM-15+0450LSZC V0202401N002110300019N0112651N1+00201+00201999999ADDGA1041+010501999GA2071+030001999GF107991999999999999999999MA1102511999999REMMET058METAR LSZC 210620Z 24004KT 9999 SCT035 BKN100 02/02 Q1025;
0120068065999992010102107204+46967+008400FM-15+0450LSZC V0202601N001510105019N0112651N1+00401+00201999999ADDGA1071+010501999GF107991999999999999999999MA1102511999999REMMET051METAR LSZC 210720Z 26003KT 9999 BKN035 04/02 Q1025;
0120068065999992010102107504+46967+008400FM-15+0450LSZC V0202501N001510105019N0112651N1+00401+00201999999ADDGA1071+010501999GF107991999999999999999999MA1102511999999REMMET051METAR LSZC 210750Z 25003KT 9999 BKN035 04/02 Q1025;
0151068065999992010102108204+46967+008400FM-15+0450LSZC V0202401N002112200019N0112651N1+00401+00201999999ADDGA1021+005401999GA2041+012001999GF104991999999999999999999MA1102611999999REMMET066METAR LSZC 210820Z 24004KT 210V300 9999 FEW018 SCT040 04/02 Q1026;
0143068065999992010102108504+46967+008400FM-15+0450LSZC V0209999V001512200019N0112651N1+00601+00201999999ADDGA1021+005401999GA2041+012001999GF104991999999999999999999MA1102611999999REMMET058METAR LSZC 210850Z VRB03KT 9999 FEW018 SCT040 06/02 Q1026;
0143068065999992010102109504+46967+008400FM-15+0450LSZC V0209999V001512200019N0112651N1+00701+00201999999ADDGA1041+006001999GA2041+012001999GF104991999999999999999999MA1102611999999REMMET058METAR LSZC 210950Z VRB03KT 9999 SCT020 SCT040 07/02 Q1026;
0128068065999992010102111204+46967+008400FM-15+0450LSZC V0200901N001512200019N0112651N1+00801+00201999999ADDGA1041+009001999GF104991999999999999999999MA1102511999999REMMET059METAR LSZC 211120Z 09003KT 050V160 9999 SCT030 08/02 Q1025;
0120068065999992010102111504+46967+008400FM-15+0450LSZC V0209999V001012200019N0112651N1+00901+00201999999ADDGA1041+009001999GF104991999999999999999999MA1102511999999REMMET051METAR LSZC 211150Z VRB02KT 9999 SCT030 09/02 Q1025;
0120068065999992010102112204+46967+008400FM-15+0450LSZC V0209999V001512200019N0112651N1+00901+00101999999ADDGA1021+009001999GF102991999999999999999999MA1102511999999REMMET051METAR LSZC 211220Z VRB03KT 9999 FEW030 09/01 Q1025;
0120068065999992010102112504+46967+008400FM-15+0450LSZC V0209999V001012200019N0112651N1+00901+00101999999ADDGA1021+010501999GF102991999999999999999999MA1102511999999REMMET051METAR LSZC 211250Z VRB02KT 9999 FEW035 09/01 Q1025;
0128068065999992010102113204+46967+008400FM-15+0450LSZC V0201101N002112200019N0112651N1+00901+00101999999ADDGA1021+010501999GF102991999999999999999999MA1102401999999REMMET059METAR LSZC 211320Z 11004KT 030V140 9999 FEW035 09/01 Q1024;
0120068065999992010102113504+46967+008400FM-15+0450LSZC V0209999V001512200019N0112651N1+00901+00101999999ADDGA1021+012001999GF102991999999999999999999MA1102401999999REMMET051METAR LSZC 211350Z VRB03KT 9999 FEW040 09/01 Q1024;
0120068065999992010102114204+46967+008400FM-15+0450LSZC V0209999V001012200019N0112651N1+00901+00001999999ADDGA1021+012001999GF102991999999999999999999MA1102401999999REMMET051METAR LSZC 211420Z VRB02KT 9999 FEW040 09/00 Q1024;
0074068065999992010102205504+46967+008400FM-15+0450LSZC V0202501N001519999999Y0099001N1-00201-00301999999ADDMA1102301999999REMMET047METAR LSZC 220550Z 25003KT CAVOK M02/M03 Q1023;
0083068065999992010102206204+46967+008400FM-15+0450LSZC V0202501N001512200019N0112651N1-00201-00301999999ADDMA1102301999999REMMET056METAR LSZC 220620Z 25003KT 9999 ///////// M02/M03 Q1023;
0074068065999992010102206504+46967+008400FM-15+0450LSZC V0202501N002119999999Y0099001N1-00201-00301999999ADDMA1102301999999REMMET047METAR LSZC 220650Z 25004KT CAVOK M02/M03 Q1023;
0073068065999992010102207204+46967+008400FM-15+0450LSZC V0202601N002119999999Y0099001N1+00001-00101999999ADDMA1102301999999REMMET046METAR LSZC 220720Z 26004KT CAVOK 00/M01 Q1023;
0073068065999992010102207504+46967+008400FM-15+0450LSZC V0202501N001519999999Y0099001N1+00001-00201999999ADDMA1102301999999REMMET046METAR LSZC 220750Z 25003KT CAVOK 00/M02 Q1023;
0072068065999992010102209204+46967+008400FM-15+0450LSZC V0209999V000519999999Y0099001N1+00701+00101999999ADDMA1102201999999REMMET045METAR LSZC 220920Z VRB01KT CAVOK 07/01 Q1022;
0120068065999992010102211204+46967+008400FM-15+0450LSZC V0209999V000512200019N0112651N1+01001+00301999999ADDGA1041+042001999GF104991999999999999999999MA1102101999999REMMET051METAR LSZC 221120Z VRB01KT 9999 SCT140 10/03 Q1021;
0128068065999992010102211504+46967+008400FM-15+0450LSZC V0200901N001512200019N0112651N1+00901+00301999999ADDGA1041+042001999GF104991999999999999999999MA1102101999999REMMET059METAR LSZC 221150Z 09003KT 050V140 9999 SCT140 09/03 Q1021;
0128068065999992010102212204+46967+008400FM-15+0450LSZC V0201001N002112200019N0112651N1+00901+00301999999ADDGA1041+042001999GF104991999999999999999999MA1102101999999REMMET059METAR LSZC 221220Z 10004KT 060V130 9999 SCT140 09/03 Q1021;
0120068065999992010102213204+46967+008400FM-15+0450LSZC V0209999V000510420019N0112651N1+01001+00201999999ADDGA1081+042001999GF108991999999999999999999MA1102101999999REMMET051METAR LSZC 221320Z VRB01KT 9999 OVC140 10/02 Q1021;
0120068065999992010102213504+46967+008400FM-15+0450LSZC V0209999V000510420019N0112651N1+01001+00101999999ADDGA1081+042001999GF108991999999999999999999MA1102101999999REMMET051METAR LSZC 221350Z VRB01KT 9999 OVC140 10/01 Q1021;
0120068065999992010102214204+46967+008400FM-15+0450LSZC V0201101N001010420019N0112651N1+01001+00201999999ADDGA1081+042001999GF108991999999999999999999MA1102101999999REMMET051METAR LSZC 221420Z 11002KT 9999 OVC140 10/02 Q1021;
0120068065999992010102214504+46967+008400FM-15+0450LSZC V0209999C000010420019N0112651N1+01001+00301999999ADDGA1081+042001999GF108991999999999999999999MA1102101999999REMMET051METAR LSZC 221450Z 00000KT 9999 OVC140 10/03 Q1021;
0129068065999992010102505504+46967+008400FM-15+0450LSZC V0209999V001510420019N0030001N1+00401+00201999999ADDGA1081+042001999GF108991999999999999999999MA1101291999999MW1631REMMET054METAR LSZC 250550Z VRB03KT 3000 RA OVC140 04/02 Q1013;
0137068065999992010102507204+46967+008400FM-15+0450LSZC V0200301N002110066019N0050001N1+00501+00201999999ADDGA1081+006601999GF108991999999999999999999MA1101491999999MW1631REMMET062METAR LSZC 250720Z 03004KT 340V070 5000 RA OVC022 05/02 Q1015;
0137068065999992010102508204+46967+008400FM-15+0450LSZC V0200501N003110066019N0050001N1+00501+00201999999ADDGA1081+006601999GF108991999999999999999999MA1101591999999MW1631REMMET062METAR LSZC 250820Z 05006KT 350V080 5000 RA OVC022 05/02 Q1016;
0137068065999992010102508504+46967+008400FM-15+0450LSZC V0200901N003110066019N0050001N1+00501+00201999999ADDGA1081+006601999GF108991999999999999999999MA1101591999999MW1631REMMET062METAR LSZC 250850Z 09006KT 040V180 5000 RA OVC022 05/02 Q1016;
0138068065999992010102509204+46967+008400FM-15+0450LSZC V0200401N002610066019N0050001N1+00601+00201999999ADDGA1081+006601999GF108991999999999999999999MA1101591999999MW1611REMMET063METAR LSZC 250920Z 04005KT 350V080 5000 -RA OVC022 06/02 Q1016;
0130068065999992010102509504+46967+008400FM-15+0450LSZC V0209999V001510066019N0050001N1+00601+00201999999ADDGA1081+006601999GF108991999999999999999999MA1101591999999MW1611REMMET055METAR LSZC 250950Z VRB03KT 5000 -RA OVC022 06/02 Q1016;
0138068065999992010102513204+46967+008400FM-15+0450LSZC V0200301N002610066019N0050001N1+00601+00201999999ADDGA1081+006601999GF108991999999999999999999MA1101801999999MW1611REMMET063METAR LSZC 251320Z 03005KT 330V060 5000 -RA OVC022 06/02 Q1018;
0138068065999992010102513504+46967+008400FM-15+0450LSZC V0200201N004110066019N0050001N1+00501+00201999999ADDGA1081+006601999GF108991999999999999999999MA1101801999999MW1611REMMET063METAR LSZC 251350Z 02008KT 350V050 5000 -RA OVC022 05/02 Q1018;
0128068065999992010102605504+46967+008400FM-15+0450LSZC V0202701N002112200019N0112651N1+00201+00001999999ADDGA1041+007501999GF104991999999999999999999MA1102401999999REMMET059METAR LSZC 260550Z 27004KT 240V320 9999 SCT025 02/00 Q1024;
0120068065999992010102606204+46967+008400FM-15+0450LSZC V0209999V001012200019N0112651N1+00201+00001999999ADDGA1041+007501999GF104991999999999999999999MA1102511999999REMMET051METAR LSZC 260620Z VRB02KT 9999 SCT025 02/00 Q1025;
0121068065999992010102606504+46967+008400FM-15+0450LSZC V0209999V001012200019N0112651N1+00201-00101999999ADDGA1041+007501999GF104991999999999999999999MA1102511999999REMMET052METAR LSZC 260650Z VRB02KT 9999 SCT025 02/M01 Q1025;
0120068065999992010102607204+46967+008400FM-15+0450LSZC V0209999V001012200019N0112651N1+00201+00001999999ADDGA1041+007501999GF104991999999999999999999MA1102511999999REMMET051METAR LSZC 260720Z VRB02KT 9999 SCT025 02/00 Q1025;
0120068065999992010102607504+46967+008400FM-15+0450LSZC V0202601N001512200019N0112651N1+00201+00001999999ADDGA1041+007501999GF104991999999999999999999MA1102611999999REMMET051METAR LSZC 260750Z 26003KT 9999 SCT025 02/00 Q1026;
0120068065999992010102609204+46967+008400FM-15+0450LSZC V0209999V001012200019N0112651N1+00701+00001999999ADDGA1041+007501999GF104991999999999999999999MA1102611999999REMMET051METAR LSZC 260920Z VRB02KT 9999 SCT025 07/00 Q1026;
0128068065999992010102611504+46967+008400FM-15+0450LSZC V0201001N001512200019N0112651N1+00801+00001999999ADDGA1021+010501999GF102991999999999999999999MA1102711999999REMMET059METAR LSZC 261150Z 10003KT 060V160 9999 FEW035 08/00 Q1027;
0121068065999992010102612504+46967+008400FM-15+0450LSZC V0209999V001012200019N0112651N1+00801-00101999999ADDGA1021+012001999GF102991999999999999999999MA1102611999999REMMET052METAR LSZC 261250Z VRB02KT 9999 FEW040 08/M01 Q1026;
0122068065999992010102705504+46967+008400FM-15+0450LSZC V0202501N002112200019N0112651N1-00101-00201999999ADDGA1021+006001999GF102991999999999999999999MA1102711999999REMMET053METAR LSZC 270550Z 25004KT 9999 FEW020 M01/M02 Q1027;
0122068065999992010102706204+46967+008400FM-15+0450LSZC V0202701N001512200019N0112651N1-00101-00301999999ADDGA1021+006001999GF102991999999999999999999MA1102711999999REMMET053METAR LSZC 270620Z 27003KT 9999 FEW020 M01/M03 Q1027;
0153068065999992010102706504+46967+008400FM-15+0450LSZC V0202601N001512200019N0112651N1-00101-00201999999ADDGA1021+004501999GA2041+054001999GF104991999999999999999999MA1102711999999REMMET068METAR LSZC 270650Z 26003KT 210V280 9999 FEW015 SCT180 M01/M02 Q1027;
0144068065999992010102707204+46967+008400FM-15+0450LSZC V0202501N002112200019N0112651N1+00101-00101999999ADDGA1021+004501999GA2041+054001999GF104991999999999999999999MA1102711999999REMMET059METAR LSZC 270720Z 25004KT 9999 FEW015 SCT180 01/M01 Q1027;
0121068065999992010102707504+46967+008400FM-15+0450LSZC V0202401N002112200019N0112651N1+00101-00101999999ADDGA1021+005401999GF102991999999999999999999MA1102711999999REMMET052METAR LSZC 270750Z 24004KT 9999 FEW018 01/M01 Q1027;
0080068065999992010102711504+46967+008400FM-15+0450LSZC V0200801N002119999999Y0099001N1+00801+00201999999ADDMA1102611999999REMMET053METAR LSZC 271150Z 08004KT 050V110 CAVOK 08/02 Q1026;
0080068065999992010102712204+46967+008400FM-15+0450LSZC V0200701N001519999999Y0099001N1+00801+00001999999ADDMA1102511999999REMMET053METAR LSZC 271220Z 07003KT 010V110 CAVOK 08/00 Q1025;
0072068065999992010102712504+46967+008400FM-15+0450LSZC V0209999V001519999999Y0099001N1+00801+00201999999ADDMA1102511999999REMMET045METAR LSZC 271250Z VRB03KT CAVOK 08/02 Q1025;
0080068065999992010102713204+46967+008400FM-15+0450LSZC V0200801N002119999999Y0099001N1+00801+00201999999ADDMA1102511999999REMMET053METAR LSZC 271320Z 08004KT 040V110 CAVOK 08/02 Q1025;
0072068065999992010102805204+46967+008400FM-15+0450LSZC V0201701N001019999999Y0099001N1+00701+00101999999ADDMA1102511999999REMMET045METAR LSZC 280520Z 17002KT CAVOK 07/01 Q1025;
0120068065999992010102805504+46967+008400FM-15+0450LSZC V0202601N001512200019N0112651N1+00301+00101999999ADDGA1041+033001999GF104991999999999999999999MA1102401999999REMMET051METAR LSZC 280550Z 26003KT 9999 SCT110 03/01 Q1024;
0120068065999992010102807204+46967+008400FM-15+0450LSZC V0209999C000012200019N0112651N1+00401+00101999999ADDGA1041+030001999GF104991999999999999999999MA1102401999999REMMET051METAR LSZC 280720Z 00000KT 9999 SCT100 04/01 Q1024;
0120068065999992010102807504+46967+008400FM-15+0450LSZC V0209999V000512200019N0112651N1+00401+00201999999ADDGA1041+030001999GF104991999999999999999999MA1102401999999REMMET051METAR LSZC 280750Z VRB01KT 9999 SCT100 04/02 Q1024;
0072068065999992010102808204+46967+008400FM-15+0450LSZC V0209999V001519999999Y0099001N1+00501+00301999999ADDMA1102511999999REMMET045METAR LSZC 280820Z VRB03KT CAVOK 05/03 Q1025;
0072068065999992010102809504+46967+008400FM-15+0450LSZC V0209999V000519999999Y0099001N1+01001+00401999999ADDMA1102511999999REMMET045METAR LSZC 280950Z VRB01KT CAVOK 10/04 Q1025;
0128068065999992010102811504+46967+008400FM-15+0450LSZC V0200901N002112200019N0112651N1+01101+00401999999ADDGA1041+027001999GF104991999999999999999999MA1102401999999REMMET059METAR LSZC 281150Z 09004KT 060V130 9999 SCT090 11/04 Q1024;
0120068065999992010102812204+46967+008400FM-15+0450LSZC V0209999V001512200019N0112651N1+01101+00501999999ADDGA1041+024001999GF104991999999999999999999MA1102301999999REMMET051METAR LSZC 281220Z VRB03KT 9999 SCT080 11/05 Q1023;
0120068065999992010102812504+46967+008400FM-15+0450LSZC V0209999V001510240019N0112651N1+01101+00401999999ADDGA1071+024001999GF107991999999999999999999MA1102301999999REMMET051METAR LSZC 281250Z VRB03KT 9999 BKN080 11/04 Q1023;
0072068065999992010102813504+46967+008400FM-15+0450LSZC V0200601N001519999999Y0099001N1+01101+00401999999ADDMA1102301999999REMMET045METAR LSZC 281350Z 06003KT CAVOK 11/04 Q1023;
0081068065999992010102814204+46967+008400FM-15+0450LSZC V0209999V001012200019N0112651N1+01201+00401999999ADDMA1102301999999REMMET054METAR LSZC 281420Z VRB02KT 9999 ///////// 12/04 Q1023;
0072068065999992010102814504+46967+008400FM-15+0450LSZC V0209999V000519999999Y0099001N1+01201+00401999999ADDMA1102301999999REMMET045METAR LSZC 281450Z VRB01KT CAVOK 12/04 Q1023;
0120068065999992010102905504+46967+008400FM-15+0450LSZC V0202501N002112200019N0112651N1+00101+00001999999ADDGA1021+000901999GF102991999999999999999999MA1101801999999REMMET051METAR LSZC 290550Z 25004KT 9999 FEW003 01/00 Q1018;
0120068065999992010102906204+46967+008400FM-15+0450LSZC V0209999V001012200019N0112651N1+00101+00101999999ADDGA1021+000901999GF102991999999999999999999MA1101801999999REMMET051METAR LSZC 290620Z VRB02KT 9999 FEW003 01/01 Q1018;
0137068065999992010102906504+46967+008400FM-15+0450LSZC V0209999V001012200019N0112651N1+00201+00101999999ADDGA1041+000901999GF104991999999999999999999MA1101801999999MW1401REMMET062METAR LSZC 290650Z VRB02KT 9999 4000E VCFG SCT003 02/01 Q1018;
0149068065999992010102907204+46967+008400FM-15+0450LSZC V0202601N001510006019N0112651N1+00201+00101999999ADDGA1021+000301999GA2071+000601999GF107991999999999999999999MA1101801999999REMMET064METAR LSZC 290720Z 26003KT 9999 4500E FEW001 BKN002 02/01 Q1018;
0137068065999992010102907504+46967+008400FM-15+0450LSZC V0202501N001010003019N0040001N1+00201+00201999999ADDGA1071+000301999GF107991999999999999999999MA1101691999999MW1411REMMET062METAR LSZC 290750Z 25002KT 4000 1000W PRFG BKN001 02/02 Q1017;
0159068065999992010102908204+46967+008400FM-15+0450LSZC V0209999V000510003019N0001001N1+00501+00401999999ADDED199U13009GA1091+000301999GF109991999999000251999999MA1101691999999MW1451REMMET073METAR LSZC 290820Z VRB01KT 0100 R07/1300N R25/0125N FG VV001 05/04 Q1017;
0159068065999992010102908504+46967+008400FM-15+0450LSZC V0209999C000010003019N0001501N1+00501+00501999999ADDED199U06009GA1091+000301999GF109991999999000251999999MA1101691999999MW1451REMMET073METAR LSZC 290850Z 00000KT 0150 R07/0600N R25/0200N FG VV001 05/05 Q1017;
0159068065999992010102909204+46967+008400FM-15+0450LSZC V0209999V000510003019N0002501N1+00601+00601999999ADDED199U07509GA1091+000301999GF109991999999000251999999MA1101691999999MW1451REMMET073METAR LSZC 290920Z VRB01KT 0250 R07/0750N R25/0500N FG VV001 06/06 Q1017;
0118068065999992010102910204+46967+008400FM-15+0450LSZC V0209999V001512200019N0080001N1+00701+00601999999ADDGF100991999999999999999999MA1101591999999MW1411REMMET059METAR LSZC 291020Z VRB03KT 8000 2000E PRFG NSC 07/06 Q1016;
0080068065999992010102911204+46967+008400FM-15+0450LSZC V0200701N002119999999Y0099001N1+00901+00801999999ADDMA1101491999999REMMET053METAR LSZC 291120Z 07004KT 040V110 CAVOK 09/08 Q1015;
0072068065999992010102911504+46967+008400FM-15+0450LSZC V0209999V001519999999Y0099001N1+01001+00801999999ADDMA1101491999999REMMET045METAR LSZC 291150Z VRB03KT CAVOK 10/08 Q1015;
0080068065999992010102912204+46967+008400FM-15+0450LSZC V0200601N001519999999Y0099001N1+01001+00801999999ADDMA1101391999999REMMET053METAR LSZC 291220Z 06003KT 020V100 CAVOK 10/08 Q1014;
0072068065999992010102912504+46967+008400FM-15+0450LSZC V0200701N002119999999Y0099001N1+01101+00701999999ADDMA1101291999999REMMET045METAR LSZC 291250Z 07004KT CAVOK 11/07 Q1013;
0080068065999992010102913504+46967+008400FM-15+0450LSZC V0200701N001519999999Y0099001N1+01201+00801999999ADDMA1101191999999REMMET053METAR LSZC 291350Z 07003KT 040V100 CAVOK 12/08 Q1012;
0072068065999992010102914504+46967+008400FM-15+0450LSZC V0209999V001519999999Y0099001N1+01201+00701999999ADDMA1101081999999REMMET045METAR LSZC 291450Z VRB03KT CAVOK 12/07 Q1011;
0120068065999992010110206204+46967+008400FM-15+0450LSZC V0202301N000510060019N0040001N1+00901+00701999999ADDGA1081+006001999GF108991999999999999999999MA1101591999999REMMET051METAR LSZC 020620Z 23001KT 4000 OVC020 09/07 Q1016;
0120068065999992010110207204+46967+008400FM-15+0450LSZC V0202201N000510060019N0030001N1+00901+00801999999ADDGA1081+006001999GF108991999999999999999999MA1101591999999REMMET051METAR LSZC 020720Z 22001KT 3000 OVC020 09/08 Q1016;
0120068065999992010110207504+46967+008400FM-15+0450LSZC V0202301N001010060019N0030001N1+00901+00801999999ADDGA1081+006001999GF108991999999999999999999MA1101691999999REMMET051METAR LSZC 020750Z 23002KT 3000 OVC020 09/08 Q1017;
0120068065999992010110208204+46967+008400FM-15+0450LSZC V0209999C000010060019N0020001N1+00901+00801999999ADDGA1081+006001999GF108991999999999999999999MA1101691999999REMMET051METAR LSZC 020820Z 00000KT 2000 OVC020 09/08 Q1017;
0143068065999992010110208504+46967+008400FM-15+0450LSZC V0209999V000510030019N0020001N1+00901+00801999999ADDGA1041+001501999GA2081+003001999GF108991999999999999999999MA1101691999999REMMET058METAR LSZC 020850Z VRB01KT 2000 SCT005 OVC010 09/08 Q1017;
0143068065999992010110209204+46967+008400FM-15+0450LSZC V0209999V000510030019N0020001N1+00901+00801999999ADDGA1041+001501999GA2081+003001999GF108991999999999999999999MA1101691999999REMMET058METAR LSZC 020920Z VRB01KT 2000 SCT005 OVC010 09/08 Q1017;
0143068065999992010110210204+46967+008400FM-15+0450LSZC V0209999V000510021019N0020001N1+01001+00901999999ADDGA1041+001501999GA2081+002101999GF108991999999999999999999MA1101691999999REMMET058METAR LSZC 021020Z VRB01KT 2000 SCT005 OVC007 10/09 Q1017;
0152068065999992010110210504+46967+008400FM-15+0450LSZC V0209999C000010030019N0020001N1+01001+00901999999ADDGA1041+001501999GA2081+003001999GF108991999999999999999999MA1101691999999MW1101REMMET061METAR LSZC 021050Z 00000KT 2000 BR SCT005 OVC010 10/09 Q1017;
0152068065999992010110212204+46967+008400FM-15+0450LSZC V0209999V001010045019N0020001N1+01001+00801999999ADDGA1041+003001999GA2081+004501999GF108991999999999999999999MA1101691999999MW1101REMMET061METAR LSZC 021220Z VRB02KT 2000 BR SCT010 OVC015 10/08 Q1017;
0152068065999992010110212504+46967+008400FM-15+0450LSZC V0209999C000010045019N0020001N1+01001+00801999999ADDGA1041+003001999GA2081+004501999GF108991999999999999999999MA1101801999999MW1101REMMET061METAR LSZC 021250Z 00000KT 2000 BR SCT010 OVC015 10/08 Q1018;
0152068065999992010110213204+46967+008400FM-15+0450LSZC V0209999V000510045019N0020001N1+01001+00801999999ADDGA1041+003001999GA2081+004501999GF108991999999999999999999MA1101801999999MW1101REMMET061METAR LSZC 021320Z VRB01KT 2000 BR SCT010 OVC015 10/08 Q1018;
0152068065999992010110213504+46967+008400FM-15+0450LSZC V0209999V001010060019N0020001N1+01001+00801999999ADDGA1041+003001999GA2081+006001999GF108991999999999999999999MA1101801999999MW1101REMMET061METAR LSZC 021350Z VRB02KT 2000 BR SCT010 OVC020 10/08 Q1018;
0152068065999992010110214204+46967+008400FM-15+0450LSZC V0200801N000510090019N0020001N1+01001+00901999999ADDGA1041+003001999GA2081+009001999GF108991999999999999999999MA1101801999999MW1101REMMET061METAR LSZC 021420Z 08001KT 2000 BR SCT010 OVC030 10/09 Q1018;
0152068065999992010110214504+46967+008400FM-15+0450LSZC V0209999C000010090019N0020001N1+01001+00801999999ADDGA1041+003001999GA2081+009001999GF108991999999999999999999MA1101801999999MW1101REMMET061METAR LSZC 021450Z 00000KT 2000 BR SCT010 OVC030 10/08 Q1018;
0152068065999992010110215204+46967+008400FM-15+0450LSZC V0200601N001510090019N0020001N1+01001+00801999999ADDGA1041+003001999GA2071+009001999GF107991999999999999999999MA1101801999999MW1101REMMET061METAR LSZC 021520Z 06003KT 2000 BR SCT010 BKN030 10/08 Q1018;
0152068065999992010110215504+46967+008400FM-15+0450LSZC V0200801N002110081019N0020001N1+01001+00801999999ADDGA1041+003001999GA2081+008101999GF108991999999999999999999MA1101801999999MW1101REMMET061METAR LSZC 021550Z 08004KT 2000 BR SCT010 OVC027 10/08 Q1018;
0120068065999992010110306504+46967+008400FM-15+0450LSZC V0202601N002612200019N0070001N1+00501+00401999999ADDGA1021+004501999GF102991999999999999999999MA1102101999999REMMET051METAR LSZC 030650Z 26005KT 7000 FEW015 05/04 Q1021;
0120068065999992010110307204+46967+008400FM-15+0450LSZC V0209999V001012200019N0070001N1+00401+00301999999ADDGA1021+004501999GF102991999999999999999999MA1102101999999REMMET051METAR LSZC 030720Z VRB02KT 7000 FEW015 04/03 Q1021;
0101068065999992010110307504+46967+008400FM-15+0450LSZC V0209999V001012200019N0080001N1+00501+00401999999ADDGF100991999999999999999999MA1102101999999REMMET048METAR LSZC 030750Z VRB02KT 8000 NSC 05/04 Q1021;
0101068065999992010110308204+46967+008400FM-15+0450LSZC V0209999V000512200019N0090001N1+00701+00601999999ADDGF100991999999999999999999MA1102101999999REMMET048METAR LSZC 030820Z VRB01KT 9000 NSC 07/06 Q1021;
0120068065999992010110308504+46967+008400FM-15+0450LSZC V0209999V001012200019N0112651N1+00901+00701999999ADDGA1041+039001999GF104991999999999999999999MA1102201999999REMMET051METAR LSZC 030850Z VRB02KT 9999 SCT130 09/07 Q1022;
0120068065999992010110309204+46967+008400FM-15+0450LSZC V0209999V000510390019N0112651N1+01001+00701999999ADDGA1071+039001999GF107991999999999999999999MA1102201999999REMMET051METAR LSZC 030920Z VRB01KT 9999 BKN130 10/07 Q1022;
0120068065999992010110309504+46967+008400FM-15+0450LSZC V0209999V000510360019N0112651N1+01001+00701999999ADDGA1071+036001999GF107991999999999999999999MA1102201999999REMMET051METAR LSZC 030950Z VRB01KT 9999 BKN120 10/07 Q1022;
0120068065999992010110310204+46967+008400FM-15+0450LSZC V0209999V000510330019N0112651N1+01101+00701999999ADDGA1071+033001999GF107991999999999999999999MA1102201999999REMMET051METAR LSZC 031020Z VRB01KT 9999 BKN110 11/07 Q1022;
0120068065999992010110310504+46967+008400FM-15+0450LSZC V0209999V000510390019N0112651N1+01201+00701999999ADDGA1071+039001999GF107991999999999999999999MA1102101999999REMMET051METAR LSZC 031050Z VRB01KT 9999 BKN130 12/07 Q1021;
0120068065999992010110312204+46967+008400FM-15+0450LSZC V0201201N001010300019N0112651N1+01201+00701999999ADDGA1071+030001999GF107991999999999999999999MA1102201999999REMMET051METAR LSZC 031220Z 12002KT 9999 BKN100 12/07 Q1022;
0120068065999992010110313204+46967+008400FM-15+0450LSZC V0209999V001012200019N0112651N1+01301+00701999999ADDGA1021+030001999GF102991999999999999999999MA1102101999999REMMET051METAR LSZC 031320Z VRB02KT 9999 FEW100 13/07 Q1021;
0120068065999992010110313504+46967+008400FM-15+0450LSZC V0200901N002112200019N0112651N1+01201+00801999999ADDGA1021+030001999GF102991999999999999999999MA1102101999999REMMET051METAR LSZC 031350Z 09004KT 9999 FEW100 12/08 Q1021;
0120068065999992010110314204+46967+008400FM-15+0450LSZC V0200601N002112200019N0112651N1+01201+00801999999ADDGA1041+024001999GF104991999999999999999999MA1102201999999REMMET051METAR LSZC 031420Z 06004KT 9999 SCT086 12/08 Q1022;
0120068065999992010110315504+46967+008400FM-15+0450LSZC V0209999V000512200019N0112651N1+01201+00801999999ADDGA1041+027001999GF104991999999999999999999MA1102301999999REMMET051METAR LSZC 031550Z VRB01KT 9999 SCT097 12/08 Q1023;
0072068065999992010110407504+46967+008400FM-15+0450LSZC V0209999V000519999999Y0099001N1+00601+00401999999ADDMA1103011999999REMMET045METAR LSZC 040750Z VRB01KT CAVOK 06/04 Q1030;
0072068065999992010110408204+46967+008400FM-15+0450LSZC V0209999V000519999999Y0099001N1+00601+00501999999ADDMA1103011999999REMMET045METAR LSZC 040820Z VRB01KT CAVOK 06/05 Q1030;
0072068065999992010110409204+46967+008400FM-15+0450LSZC V0209999V000519999999Y0099001N1+01301+00701999999ADDMA1103011999999REMMET045METAR LSZC 040920Z VRB01KT CAVOK 13/07 Q1030;
0072068065999992010110409504+46967+008400FM-15+0450LSZC V0209999V001019999999Y0099001N1+01401+00701999999ADDMA1103011999999REMMET045METAR LSZC 040950Z VRB02KT CAVOK 14/07 Q1030;
0072068065999992010110410204+46967+008400FM-15+0450LSZC V0209999V001019999999Y0099001N1+01501+00701999999ADDMA1103011999999REMMET045METAR LSZC 041020Z VRB02KT CAVOK 15/07 Q1030;
0080068065999992010110410504+46967+008400FM-15+0450LSZC V0200901N001519999999Y0099001N1+01401+00701999999ADDMA1103011999999REMMET053METAR LSZC 041050Z 09003KT 040V110 CAVOK 14/07 Q1030;
0080068065999992010110412204+46967+008400FM-15+0450LSZC V0200701N002119999999Y0099001N1+01501+00701999999ADDMA1102911999999REMMET053METAR LSZC 041220Z 07004KT 030V110 CAVOK 15/07 Q1029;
0072068065999992010110413204+46967+008400FM-15+0450LSZC V0209999V001019999999Y0099001N1+01501+00701999999ADDMA1102911999999REMMET045METAR LSZC 041320Z VRB02KT CAVOK 15/07 Q1029;
0072068065999992010110413504+46967+008400FM-15+0450LSZC V0209999C000019999999Y0099001N1+01601+00801999999ADDMA1102911999999REMMET045METAR LSZC 041350Z 00000KT CAVOK 16/08 Q1029;
0072068065999992010110414204+46967+008400FM-15+0450LSZC V0209999V001519999999Y0099001N1+01601+00801999999ADDMA1102911999999REMMET045METAR LSZC 041420Z VRB03KT CAVOK 16/08 Q1029;
0072068065999992010110414504+46967+008400FM-15+0450LSZC V0200801N001519999999Y0099001N1+01501+00801999999ADDMA1102911999999REMMET045METAR LSZC 041450Z 08003KT CAVOK 15/08 Q1029;
0072068065999992010110415204+46967+008400FM-15+0450LSZC V0200601N001019999999Y0099001N1+01401+00801999999ADDMA1102911999999REMMET045METAR LSZC 041520Z 06002KT CAVOK 14/08 Q1029;
0072068065999992010110415504+46967+008400FM-15+0450LSZC V0209999C000019999999Y0099001N1+01301+00801999999ADDMA1102911999999REMMET045METAR LSZC 041550Z 00000KT CAVOK 13/08 Q1029;
0072068065999992010110506504+46967+008400FM-15+0450LSZC V0209999V001019999999Y0099001N1+00401+00301999999ADDMA1103011999999REMMET045METAR LSZC 050650Z VRB02KT CAVOK 04/03 Q1030;
0072068065999992010110507204+46967+008400FM-15+0450LSZC V0202201N001019999999Y0099001N1+00501+00401999999ADDMA1103011999999REMMET045METAR LSZC 050720Z 22002KT CAVOK 05/04 Q1030;
0072068065999992010110507504+46967+008400FM-15+0450LSZC V0201701N001019999999Y0099001N1+00501+00401999999ADDMA1103011999999REMMET045METAR LSZC 050750Z 17002KT CAVOK 05/04 Q1030;
0072068065999992010110508204+46967+008400FM-15+0450LSZC V0209999V001019999999Y0099001N1+00501+00401999999ADDMA1103011999999REMMET045METAR LSZC 050820Z VRB02KT CAVOK 05/04 Q1030;
0072068065999992010110508504+46967+008400FM-15+0450LSZC V0209999V000519999999Y0099001N1+00801+00801999999ADDMA1103011999999REMMET045METAR LSZC 050850Z VRB01KT CAVOK 08/08 Q1030;
0072068065999992010110509204+46967+008400FM-15+0450LSZC V0209999V000519999999Y0099001N1+01101+00801999999ADDMA1103011999999REMMET045METAR LSZC 050920Z VRB01KT CAVOK 11/08 Q1030;
0072068065999992010110509504+46967+008400FM-15+0450LSZC V0209999V000519999999Y0099001N1+01301+00801999999ADDMA1103011999999REMMET045METAR LSZC 050950Z VRB01KT CAVOK 13/08 Q1030;
0072068065999992010110510504+46967+008400FM-15+0450LSZC V0209999V001019999999Y0099001N1+01401+00901999999ADDMA1102911999999REMMET045METAR LSZC 051050Z VRB02KT CAVOK 14/09 Q1029;
0072068065999992010110512504+46967+008400FM-15+0450LSZC V0209999V001519999999Y0099001N1+01401+00901999999ADDMA1102811999999REMMET045METAR LSZC 051250Z VRB03KT CAVOK 14/09 Q1028;
0072068065999992010110513204+46967+008400FM-15+0450LSZC V0209999V001019999999Y0099001N1+01501+00801999999ADDMA1102811999999REMMET045METAR LSZC 051320Z VRB02KT CAVOK 15/08 Q1028;
0072068065999992010110513504+46967+008400FM-15+0450LSZC V0209999V001019999999Y0099001N1+01501+00901999999ADDMA1102711999999REMMET045METAR LSZC 051350Z VRB02KT CAVOK 15/09 Q1027;
0072068065999992010110514204+46967+008400FM-15+0450LSZC V0200501N001019999999Y0099001N1+01401+00901999999ADDMA1102711999999REMMET045METAR LSZC 051420Z 05002KT CAVOK 14/09 Q1027;
0072068065999992010110514504+46967+008400FM-15+0450LSZC V0200501N001019999999Y0099001N1+01401+00901999999ADDMA1102711999999REMMET045METAR LSZC 051450Z 05002KT CAVOK 14/09 Q1027;
0072068065999992010110515504+46967+008400FM-15+0450LSZC V0209999V000519999999Y0099001N1+01201+00801999999ADDMA1102711999999REMMET045METAR LSZC 051550Z VRB01KT CAVOK 12/08 Q1027;
0152068065999992010110806504+46967+008400FM-15+0450LSZC V0200901N001010072019N0035001N1+00401+00201999999ADDGA1041+003601999GA2081+007201999GF108991999999999999999999MA1099091999999MW1631REMMET061METAR LSZC 080650Z 09002KT 3500 RA SCT012 OVC024 04/02 Q0991;
0184068065999992010110807204+46967+008400FM-15+0450LSZC V0201101N00211006301CN0050001N1+00501+00201999999ADDGA1041+003601999GA2041+006301999GA3081+012001999GF108991999999999999999999MA1099091999999MW1611REMMET077METAR LSZC 080720Z 11004KT 070V140 5000 -RA SCT012 SCT021 OVC040 05/02 Q0991;
0176068065999992010110807504+46967+008400FM-15+0450LSZC V0209999V00101006601CN0070001N1+00501+00201999999ADDGA1021+004501999GA2041+006601999GA3081+012001999GF108991999999999999999999MA1098981999999MW1611REMMET069METAR LSZC 080750Z VRB02KT 7000 -RA FEW015 SCT022 OVC040 05/02 Q0990;
0176068065999992010110808204+46967+008400FM-15+0450LSZC V0209999V00151006601CN0070001N1+00501+00201999999ADDGA1021+004501999GA2041+006601999GA3081+012001999GF108991999999999999999999MA1098981999999MW1611REMMET069METAR LSZC 080820Z VRB03KT 7000 -RA FEW015 SCT022 OVC040 05/02 Q0990;
0176068065999992010110808504+46967+008400FM-15+0450LSZC V0200901N002610063019N0070001N1+00501+00101999999ADDGA1021+004501999GA2071+006301999GA3081+012001999GF108991999999999999999999MA1098921999999MW1611REMMET069METAR LSZC 080850Z 09005KT 7000 -RA FEW015 BKN021 OVC040 05/01 Q0989;
0169068065999992010110809204+46967+008400FM-15+0450LSZC V0201001N002110051019N0040001N1+00501+00201999999ADDGA1021+003001999GA2081+005101999GF108991999999999999999999MA1098921999999MW1101MW2631REMMET072METAR LSZC 080920Z 10004KT 060V130 4000 RA BR FEW010 OVC017 05/02 Q0989;
0169068065999992010110809504+46967+008400FM-15+0450LSZC V0201001N002110051019N0040001N1+00401+00201999999ADDGA1021+003001999GA2081+005101999GF108991999999999999999999MA1098821999999MW1101MW2631REMMET072METAR LSZC 080950Z 10004KT 060V130 4000 RA BR FEW010 OVC017 04/02 Q0988;
0153068065999992010110810204+46967+008400FM-15+0450LSZC V0209999V001010060019N0060001N1+00501+00201999999ADDGA1021+003001999GA2081+006001999GF108991999999999999999999MA1098821999999MW1611REMMET062METAR LSZC 081020Z VRB02KT 6000 -RA FEW010 OVC020 05/02 Q0988;
0166068065999992010110812204+46967+008400FM-15+0450LSZC V0209999V000510087019N0112651N1+00601+00201999999ADDGA1021+004801999GA2071+008701999GA3071+033001999GF107991999999999999999999MA1098511999999REMMET065METAR LSZC 081220Z VRB01KT 9999 FEW016 BKN029 BKN110 06/02 Q0985;
0166068065999992010110812504+46967+008400FM-15+0450LSZC V0209999V00151008701CN0112651N1+00601+00201999999ADDGA1021+004801999GA2041+008701999GA3071+033001999GF107991999999999999999999MA1098311999999REMMET065METAR LSZC 081250Z VRB03KT 9999 FEW016 SCT029 BKN110 06/02 Q0983;
0143068065999992010110813204+46967+008400FM-15+0450LSZC V0209999V001510330019N0112651N1+00601+00101999999ADDGA1041+008701999GA2071+033001999GF107991999999999999999999MA1098311999999REMMET058METAR LSZC 081320Z VRB03KT 9999 SCT029 BKN110 06/01 Q0983;
0143068065999992010110813504+46967+008400FM-15+0450LSZC V0209999C000010330019N0112651N1+00601+00101999999ADDGA1041+008701999GA2071+033001999GF107991999999999999999999MA1098211999999REMMET058METAR LSZC 081350Z 00000KT 9999 SCT029 BKN110 06/01 Q0982;
0143068065999992010110814504+46967+008400FM-15+0450LSZC V0201401N000512200019N0112651N1+00601+00201999999ADDGA1021+007501999GA2041+060001999GF104991999999999999999999MA1098101999999REMMET058METAR LSZC 081450Z 14001KT 9999 FEW025 SCT200 06/02 Q0981;
0143068065999992010110815204+46967+008400FM-15+0450LSZC V0209999V000512200019N0112651N1+00701+00101999999ADDGA1021+007501999GA2041+060001999GF104991999999999999999999MA1098001999999REMMET058METAR LSZC 081520Z VRB01KT 9999 FEW025 SCT200 07/01 Q0980;
0143068065999992010110815504+46967+008400FM-15+0450LSZC V0202301N000512200019N0112651N1+00501+00101999999ADDGA1021+007501999GA2041+060001999GF104991999999999999999999MA1098001999999REMMET058METAR LSZC 081550Z 23001KT 9999 FEW025 SCT200 05/01 Q0980;
0166068065999992010110907204+46967+008400FM-15+0450LSZC V0202401N00261013501CN0112651N1+00101+00001999999ADDGA1021+007501999GA2041+013501999GA3071+060001999GF107991999999999999999999MA1098101999999REMMET065METAR LSZC 090720Z 24005KT 9999 FEW025 SCT045 BKN200 01/00 Q0981;
0143068065999992010110907504+46967+008400FM-15+0450LSZC V0209999V001012200019N0112651N1+00201+00101999999ADDGA1021+006001999GA2041+060001999GF104991999999999999999999MA1098101999999REMMET058METAR LSZC 090750Z VRB02KT 9999 FEW020 SCT200 02/01 Q0981;
0143068065999992010110908204+46967+008400FM-15+0450LSZC V0209999V001010600019N0112651N1+00301+00101999999ADDGA1021+006001999GA2071+060001999GF107991999999999999999999MA1098101999999REMMET058METAR LSZC 090820Z VRB02KT 9999 FEW020 BKN200 03/01 Q0981;
0143068065999992010110908504+46967+008400FM-15+0450LSZC V0202301N001512200019N0112651N1+00401+00201999999ADDGA1021+006001999GA2041+060001999GF104991999999999999999999MA1098101999999REMMET058METAR LSZC 090850Z 23003KT 9999 FEW020 SCT200 04/02 Q0981;
0143068065999992010110909204+46967+008400FM-15+0450LSZC V0201901N001012200019N0112651N1+00501+00201999999ADDGA1021+007501999GA2041+060001999GF104991999999999999999999MA1098101999999REMMET058METAR LSZC 090920Z 19002KT 9999 FEW025 SCT200 05/02 Q0981;
0143068065999992010110909504+46967+008400FM-15+0450LSZC V0209999V001012200019N0112651N1+00601+00101999999ADDGA1021+007501999GA2041+060001999GF104991999999999999999999MA1098101999999REMMET058METAR LSZC 090950Z VRB02KT 9999 FEW025 SCT200 06/01 Q0981;
0143068065999992010110910204+46967+008400FM-15+0450LSZC V0209999V000512200019N0112651N1+00601+00201999999ADDGA1021+007501999GA2041+060001999GF104991999999999999999999MA1098101999999REMMET058METAR LSZC 091020Z VRB01KT 9999 FEW025 SCT200 06/02 Q0981;
0143068065999992010110910504+46967+008400FM-15+0450LSZC V0209999V000512200019N0112651N1+00801+00201999999ADDGA1021+012001999GA2041+060001999GF104991999999999999999999MA1098001999999REMMET058METAR LSZC 091050Z VRB01KT 9999 FEW040 SCT200 08/02 Q0980;
0151068065999992010110912504+46967+008400FM-15+0450LSZC V0200701N001512200019N0112651N1+00901+00301999999ADDGA1021+010501999GA2041+090001999GF104991999999999999999999MA1098001999999REMMET066METAR LSZC 091250Z 07003KT 010V120 9999 FEW035 SCT300 09/03 Q0980;
0143068065999992010110913204+46967+008400FM-15+0450LSZC V0209999V000512200019N0112651N1+01001+00201999999ADDGA1021+010501999GA2041+090001999GF104991999999999999999999MA1098001999999REMMET058METAR LSZC 091320Z VRB01KT 9999 FEW035 SCT300 10/02 Q0980;
0143068065999992010110914204+46967+008400FM-15+0450LSZC V0209999V001012200019N0112651N1+00901+00301999999ADDGA1021+010501999GA2041+090001999GF104991999999999999999999MA1098101999999REMMET058METAR LSZC 091420Z VRB02KT 9999 FEW035 SCT300 09/03 Q0981;
0143068065999992010110914504+46967+008400FM-15+0450LSZC V0209999C000012200019N0112651N1+01001+00301999999ADDGA1021+010501999GA2041+090001999GF104991999999999999999999MA1098101999999REMMET058METAR LSZC 091450Z 00000KT 9999 FEW035 SCT300 10/03 Q0981;
0143068065999992010110915204+46967+008400FM-15+0450LSZC V0201601N001012200019N0112651N1+00801+00301999999ADDGA1021+010501999GA2041+060001999GF104991999999999999999999MA1098101999999REMMET058METAR LSZC 091520Z 16002KT 9999 FEW035 SCT200 08/03 Q0981;
0143068065999992010110915504+46967+008400FM-15+0450LSZC V0209999V000512200019N0112651N1+00701+00301999999ADDGA1021+010501999GA2041+060001999GF104991999999999999999999MA1098101999999REMMET058METAR LSZC 091550Z VRB01KT 9999 FEW035 SCT200 07/03 Q0981;
0120068065999992010111006504+46967+008400FM-15+0450LSZC V0202601N003112200019N0112651N1+00401+00101999999ADDGA1041+036001999GF104991999999999999999999MA1098921999999REMMET051METAR LSZC 100650Z 26006KT 9999 SCT120 04/01 Q0989;
0128068065999992010111007204+46967+008400FM-15+0450LSZC V0203101N001512200019N0112651N1+00301+00101999999ADDGA1041+036001999GF104991999999999999999999MA1098981999999REMMET059METAR LSZC 100720Z 31003KT 260V340 9999 SCT120 03/01 Q0990;
0120068065999992010111007504+46967+008400FM-15+0450LSZC V0202201N001512200019N0112651N1+00401+00201999999ADDGA1041+036001999GF104991999999999999999999MA1098981999999REMMET051METAR LSZC 100750Z 22003KT 9999 SCT120 04/02 Q0990;
0120068065999992010111008204+46967+008400FM-15+0450LSZC V0209999V000512200019N0112651N1+00501+00201999999ADDGA1041+036001999GF104991999999999999999999MA1098981999999REMMET051METAR LSZC 100820Z VRB01KT 9999 SCT120 05/02 Q0990;
0120068065999992010111008504+46967+008400FM-15+0450LSZC V0209999V001010360019N0112651N1+00701+00301999999ADDGA1071+036001999GF107991999999999999999999MA1098981999999REMMET051METAR LSZC 100850Z VRB02KT 9999 BKN120 07/03 Q0990;
0120068065999992010111009504+46967+008400FM-15+0450LSZC V0209999C000010360019N0112651N1+00901+00301999999ADDGA1071+036001999GF107991999999999999999999MA1099091999999REMMET051METAR LSZC 100950Z 00000KT 9999 BKN120 09/03 Q0991;
0120068065999992010111010204+46967+008400FM-15+0450LSZC V0209999V001010360019N0112651N1+00901+00201999999ADDGA1071+036001999GF107991999999999999999999MA1099091999999REMMET051METAR LSZC 101020Z VRB02KT 9999 BKN120 09/02 Q0991;
0120068065999992010111010504+46967+008400FM-15+0450LSZC V0209999V000512200019N0112651N1+01001+00401999999ADDGA1041+036001999GF104991999999999999999999MA1099091999999REMMET051METAR LSZC 101050Z VRB01KT 9999 SCT120 10/04 Q0991;
0128068065999992010111012204+46967+008400FM-15+0450LSZC V0200701N001512200019N0112651N1+01101+00401999999ADDGA1041+036001999GF104991999999999999999999MA1099191999999REMMET059METAR LSZC 101220Z 07003KT 030V110 9999 SCT120 11/04 Q0992;
0120068065999992010111012504+46967+008400FM-15+0450LSZC V0200601N002112200019N0112651N1+01101+00401999999ADDGA1041+036001999GF104991999999999999999999MA1099191999999REMMET051METAR LSZC 101250Z 06004KT 9999 SCT120 11/04 Q0992;
0143068065999992010111013504+46967+008400FM-15+0450LSZC V0209999V001510360019N0112651N1+01101+00401999999ADDGA1041+009601999GA2071+036001999GF107991999999999999999999MA1099291999999REMMET058METAR LSZC 101350Z VRB03KT 9999 SCT032 BKN120 11/04 Q0993;
0151068065999992010111014204+46967+008400FM-15+0450LSZC V0203501N002110105019N0112651N1+01101+00401999999ADDGA1041+008401999GA2071+010501999GF107991999999999999999999MA1099391999999REMMET066METAR LSZC 101420Z 35004KT 280V070 9999 SCT028 BKN035 11/04 Q0994;
0160068065999992010111014504+46967+008400FM-15+0450LSZC V0203001N002610105019N0060001N1+01001+00501999999ADDGA1041+008401999GA2071+010501999GF107991999999999999999999MA1099491999999MW1631REMMET069METAR LSZC 101450Z 30005KT 210V020 6000 RA SCT028 BKN035 10/05 Q0995;
0153068065999992010111015204+46967+008400FM-15+0450LSZC V0201301N001510105019N0060001N1+00901+00501999999ADDGA1041+008401999GA2071+010501999GF107991999999999999999999MA1099591999999MW1611REMMET062METAR LSZC 101520Z 13003KT 6000 -RA SCT028 BKN035 09/05 Q0996;
0162068065999992010111015504+46967+008400FM-15+0450LSZC V0200701N002110105019N0080001N1+00901+00501999999ADDGA1041+008401999GA2071+010501999GF107991999999999999999999MA1099591999999MW1161REMMET071METAR LSZC 101550Z 07004KT 040V100 8000 VCSH SCT028 BKN035 09/05 Q0996;
0166068065999992010111106204+46967+008400FM-15+0450LSZC V0202401N00101012001CN0112651N1+00401+00301999999ADDGA1021+009001999GA2041+012001999GA3071+015001999GF107991999999999999999999MA1101291999999REMMET065METAR LSZC 110620Z 24002KT 9999 FEW030 SCT040 BKN051 04/03 Q1013;
0166068065999992010111106504+46967+008400FM-15+0450LSZC V0209999V00051012001CN0112651N1+00401+00301999999ADDGA1021+009001999GA2041+012001999GA3071+015001999GF107991999999999999999999MA1101291999999REMMET065METAR LSZC 110650Z VRB01KT 9999 FEW030 SCT040 BKN051 04/03 Q1013;
0166068065999992010111107204+46967+008400FM-15+0450LSZC V0209999V00051012001CN0112651N1+00401+00301999999ADDGA1021+009001999GA2041+012001999GA3071+015001999GF107991999999999999999999MA1101291999999REMMET065METAR LSZC 110720Z VRB01KT 9999 FEW030 SCT040 BKN051 04/03 Q1013;
0166068065999992010111107504+46967+008400FM-15+0450LSZC V0209999V00151012001CN0112651N1+00401+00301999999ADDGA1021+009001999GA2041+012001999GA3071+015001999GF107991999999999999999999MA1101291999999REMMET065METAR LSZC 110750Z VRB03KT 9999 FEW030 SCT040 BKN051 04/03 Q1013;
0143068065999992010111108504+46967+008400FM-15+0450LSZC V0202401N001512200019N0112651N1+00401+00301999999ADDGA1021+009001999GA2041+013501999GF104991999999999999999999MA1101391999999REMMET058METAR LSZC 110850Z 24003KT 9999 FEW030 SCT045 04/03 Q1014;
0143068065999992010111110204+46967+008400FM-15+0450LSZC V0209999V001012200019N0112651N1+00801+00401999999ADDGA1021+009001999GA2041+013501999GF104991999999999999999999MA1101291999999REMMET058METAR LSZC 111020Z VRB02KT 9999 FEW030 SCT045 08/04 Q1013;
0151068065999992010111113204+46967+008400FM-15+0450LSZC V0200901N001512200019N0112651N1+00901+00201999999ADDGA1021+013501999GA2041+075001999GF104991999999999999999999MA1101081999999REMMET066METAR LSZC 111320Z 09003KT 060V140 9999 FEW045 SCT250 09/02 Q1011;
0072068065999992010111114204+46967+008400FM-15+0450LSZC V0209999V000519999999Y0099001N1+00901+00201999999ADDMA1101021999999REMMET045METAR LSZC 111420Z VRB01KT CAVOK 09/02 Q1010;
0072068065999992010111114504+46967+008400FM-15+0450LSZC V0201301N000519999999Y0099001N1+00901+00101999999ADDMA1101021999999REMMET045METAR LSZC 111450Z 13001KT CAVOK 09/01 Q1010;
0072068065999992010111115204+46967+008400FM-15+0450LSZC V0201701N001019999999Y0099001N1+00701+00201999999ADDMA1101021999999REMMET045METAR LSZC 111520Z 17002KT CAVOK 07/02 Q1010;
0120068065999992010111115504+46967+008400FM-15+0450LSZC V0209999V000510360019N0112651N1+00701+00201999999ADDGA1071+036001999GF107991999999999999999999MA1101021999999REMMET051METAR LSZC 111550Z VRB01KT 9999 BKN120 07/02 Q1010;
0164068065999992010111206504+46967+008400FM-15+0450LSZC V0202701N006710240019N0070001N1+01401+00801999999ADDGA1041+015001999GA2081+024001999GF108991999999999999999999MA1100511999999MW1611OC101231REMMET065METAR LSZC 120650Z 27013G24KT 7000 -RA SCT052 OVC083 14/08 Q1005;
0153068065999992010111207204+46967+008400FM-15+0450LSZC V0202501N004610150019N0070001N1+01301+00801999999ADDGA1071+015001999GA2081+024001999GF108991999999999999999999MA1100511999999MW1611REMMET062METAR LSZC 120720Z 25009KT 7000 -RA BKN057 OVC083 13/08 Q1005;
0152068065999992010111207504+46967+008400FM-15+0450LSZC V0202601N006210150019N0070001N1+01301+00901999999ADDGA1071+015001999GA2081+024001999GF108991999999999999999999MA1100611999999MW1631REMMET061METAR LSZC 120750Z 26012KT 7000 RA BKN050 OVC080 13/09 Q1006;
0161068065999992010111208204+46967+008400FM-15+0450LSZC V0202601N004610150019N0080001N1+01301+00801999999ADDGA1071+015001999GA2081+024001999GF108991999999999999999999MA1100811999999MW1611REMMET070METAR LSZC 120820Z 26009KT 230V290 8000 -RA BKN053 OVC080 13/08 Q1008;
0153068065999992010111208504+46967+008400FM-15+0450LSZC V0209999V001010150019N0080001N1+01201+00901999999ADDGA1071+015001999GA2081+024001999GF108991999999999999999999MA1100711999999MW1611REMMET062METAR LSZC 120850Z VRB02KT 8000 -RA BKN051 OVC080 12/09 Q1007;
0192068065999992010111209504+46967+008400FM-15+0450LSZC V0200501N00311012901CN0045001N1+01101+00901999999ADDGA1021+004501999GA2041+012901999GA3081+015001999GF108991999999999999999999MA1100811999999MW1101MW2631REMMET079METAR LSZC 120950Z 05006KT 010V070 4500 RA BR FEW015 SCT043 OVC051 11/09 Q1008;
0192068065999992010111210204+46967+008400FM-15+0450LSZC V0200301N00311012901CN0040001N1+01101+00901999999ADDGA1041+003001999GA2041+012901999GA3081+015001999GF108991999999999999999999MA1100911999999MW1101MW2631REMMET079METAR LSZC 121020Z 03006KT 360V060 4000 RA BR SCT010 SCT043 OVC050 11/09 Q1009;
0184068065999992010111210504+46967+008400FM-15+0450LSZC V0200201N00311005401CN0035001N1+01101+00901999999ADDGA1041+002101999GA2041+005401999GA3081+015001999GF108991999999999999999999MA1100911999999MW1101MW2631REMMET071METAR LSZC 121050Z 02006KT 3500 RA BR SCT007 SCT018 OVC050 11/09 Q1009;
0175068065999992010111212204+46967+008400FM-15+0450LSZC V0200201N00211010501CN0080001N1+01101+01001999999ADDGA1021+002101999GA2041+010501999GA3071+015001999GF107991999999999999999999MA1100911999999MW1631REMMET068METAR LSZC 121220Z 02004KT 8000 RA FEW007 SCT035 BKN050 11/10 Q1009;
0183068065999992010111212504+46967+008400FM-15+0450LSZC V0200601N00261009601CN0050001N1+01101+00901999999ADDGA1021+002101999GA2041+009601999GA3071+015001999GF107991999999999999999999MA1100911999999MW1631REMMET076METAR LSZC 121250Z 06005KT 010V100 5000 RA FEW007 SCT032 BKN056 11/09 Q1009;
0176068065999992010111213204+46967+008400FM-15+0450LSZC V0200601N00151009601CN0060001N1+01101+00901999999ADDGA1021+002101999GA2041+009601999GA3081+015001999GF108991999999999999999999MA1100911999999MW1611REMMET069METAR LSZC 121320Z 06003KT 6000 -RA FEW007 SCT032 OVC056 11/09 Q1009;
0176068065999992010111213504+46967+008400FM-15+0450LSZC V0200501N00211009601CN0060001N1+01101+00901999999ADDGA1021+002101999GA2041+009601999GA3081+015001999GF108991999999999999999999MA1100911999999MW1611REMMET069METAR LSZC 121350Z 05004KT 6000 -RA FEW007 SCT032 OVC056 11/09 Q1009;
0184068065999992010111214204+46967+008400FM-15+0450LSZC V0200401N00261009601CN0060001N1+01101+00901999999ADDGA1021+002101999GA2041+009601999GA3081+015001999GF108991999999999999999999MA1100911999999MW1611REMMET077METAR LSZC 121420Z 04005KT 010V070 6000 -RA FEW007 SCT032 OVC056 11/09 Q1009;
0174068065999992010111214504+46967+008400FM-15+0450LSZC V0200301N00311007501CN0112651N1+01101+00901999999ADDGA1021+004501999GA2041+007501999GA3071+024001999GF107991999999999999999999MA1100911999999REMMET073METAR LSZC 121450Z 03006KT 350V060 9999 FEW015 SCT025 BKN080 11/09 Q1009;
0151068065999992010111215204+46967+008400FM-15+0450LSZC V0200101N003110240019N0112651N1+01101+00901999999ADDGA1021+004501999GA2071+024001999GF107991999999999999999999MA1100911999999REMMET066METAR LSZC 121520Z 01006KT 340V050 9999 FEW015 BKN080 11/09 Q1009;
0174068065999992010111215504+46967+008400FM-15+0450LSZC V0200401N00311013501CN0112651N1+01201+00901999999ADDGA1021+004501999GA2041+013501999GA3071+024001999GF107991999999999999999999MA1100911999999REMMET073METAR LSZC 121550Z 04006KT 350V060 9999 FEW015 SCT045 BKN080 12/09 Q1009;
0120068065999992010111506504+46967+008400FM-15+0450LSZC V0202901N001010240019N0112651N1+00701+00501999999ADDGA1071+024001999GF107991999999999999999999MA1100911999999REMMET051METAR LSZC 150650Z 29002KT 9999 BKN080 07/05 Q1009;
0120068065999992010111507204+46967+008400FM-15+0450LSZC V0209999V001010240019N0112651N1+00701+00601999999ADDGA1071+024001999GF107991999999999999999999MA1100911999999REMMET051METAR LSZC 150720Z VRB02KT 9999 BKN080 07/06 Q1009;
0143068065999992010111508204+46967+008400FM-15+0450LSZC V0209999V000510300019N0112651N1+00901+00701999999ADDGA1021+015001999GA2071+030001999GF107991999999999999999999MA1100811999999REMMET058METAR LSZC 150820Z VRB01KT 9999 FEW050 BKN100 09/07 Q1008;
0143068065999992010111508504+46967+008400FM-15+0450LSZC V0201901N001010300019N0112651N1+00901+00701999999ADDGA1021+010501999GA2071+030001999GF107991999999999999999999MA1100811999999REMMET058METAR LSZC 150850Z 19002KT 9999 FEW035 BKN100 09/07 Q1008;
0143068065999992010111509204+46967+008400FM-15+0450LSZC V0209999V001010300019N0112651N1+01101+00801999999ADDGA1021+010501999GA2071+030001999GF107991999999999999999999MA1100811999999REMMET058METAR LSZC 150920Z VRB02KT 9999 FEW035 BKN100 11/08 Q1008;
0166068065999992010111509504+46967+008400FM-15+0450LSZC V0209999V00051012001CN0112651N1+01301+00801999999ADDGA1041+005401999GA2041+012001999GA3071+030001999GF107991999999999999999999MA1100811999999REMMET065METAR LSZC 150950Z VRB01KT 9999 SCT018 SCT040 BKN100 13/08 Q1008;
0174068065999992010111510204+46967+008400FM-15+0450LSZC V0203301N00461012001CN0112651N1+01201+00901999999ADDGA1041+005101999GA2041+012001999GA3071+024001999GF107991999999999999999999MA1100811999999REMMET073METAR LSZC 151020Z 33009KT 290V010 9999 SCT017 SCT040 BKN080 12/09 Q1008;
0151068065999992010111510504+46967+008400FM-15+0450LSZC V0203201N002110054019N0112651N1+01301+00901999999ADDGA1071+005401999GA2071+024001999GF107991999999999999999999MA1100811999999REMMET066METAR LSZC 151050Z 32004KT 290V010 9999 BKN018 BKN080 13/09 Q1008;
0128068065999992010111512204+46967+008400FM-15+0450LSZC V0203301N003610048019N0070001N1+01201+00801999999ADDGA1081+004801999GF108991999999999999999999MA1100911999999REMMET059METAR LSZC 151220Z 33007KT 240V030 7000 OVC016 12/08 Q1009;
0128068065999992010111513204+46967+008400FM-15+0450LSZC V0203301N004610048019N0070001N1+01101+00801999999ADDGA1081+004801999GF108991999999999999999999MA1100911999999REMMET059METAR LSZC 151320Z 33009KT 290V360 7000 OVC016 11/08 Q1009;
0139068065999992010111514204+46967+008400FM-15+0450LSZC V0203201N006710048019N0050001N1+01001+00701999999ADDGA1081+004801999GF108991999999999999999999MA1100911999999OC101341REMMET062METAR LSZC 151420Z 32013G26KT 280V350 5000 OVC016 10/07 Q1009;
0149068065999992010111514504+46967+008400FM-15+0450LSZC V0203201N008210048019N0035001N1+00901+00701999999ADDGA1081+004801999GF108991999999999999999999MA1101021999999MW1511OC101441REMMET066METAR LSZC 151450Z 32016G28KT 280V350 3500 -DZ OVC016 09/07 Q1010;
0137068065999992010111515204+46967+008400FM-15+0450LSZC V0203201N006710048019N0020001N1+00901+00701999999ADDGA1081+004801999GF108991999999999999999999MA1101021999999MW1531REMMET062METAR LSZC 151520Z 32013KT 280V350 2000 DZ OVC016 09/07 Q1010;
0140068065999992010111515504+46967+008400FM-15+0450LSZC V0203201N007710048019N0017001N1+00801+00601999999ADDGA1081+004801999GF108991999999999999999999MA1101081999999MW1631OC101341REMMET057METAR LSZC 151550Z 32015G26KT 1700 RA OVC016 08/06 Q1011;
0169068065999992010111606504+46967+008400FM-15+0450LSZC V0202601N001010087019N0025001N1+00101+00001999999ADDGA1021+000601999GA2081+008701999GF108991999999999999999999MA1101691999999MW1101MW2631MW3731REMMET066METAR LSZC 160650Z 26002KT 2500 RASN BR FEW002 OVC029 01/00 Q1017;
0169068065999992010111607204+46967+008400FM-15+0450LSZC V0202801N001010069019N0025001N1+00101+00001999999ADDGA1021+000601999GA2081+006901999GF108991999999999999999999MA1101691999999MW1101MW2631MW3731REMMET066METAR LSZC 160720Z 28002KT 2500 RASN BR FEW002 OVC023 01/00 Q1017;
0169068065999992010111607504+46967+008400FM-15+0450LSZC V0209999C000010057019N0020001N1+00101+00001999999ADDGA1021+000601999GA2081+005701999GF108991999999999999999999MA1101801999999MW1101MW2631MW3731REMMET066METAR LSZC 160750Z 00000KT 2000 RASN BR FEW002 OVC019 01/00 Q1018;
0169068065999992010111608204+46967+008400FM-15+0450LSZC V0209999C000010057019N0025001N1+00101+00001999999ADDGA1021+000901999GA2081+005701999GF108991999999999999999999MA1101801999999MW1101MW2631MW3731REMMET066METAR LSZC 160820Z 00000KT 2500 RASN BR FEW003 OVC019 01/00 Q1018;
0169068065999992010111608504+46967+008400FM-15+0450LSZC V0209999V000510057019N0025001N1+00101+00101999999ADDGA1021+000901999GA2081+005701999GF108991999999999999999999MA1101801999999MW1101MW2631MW3731REMMET066METAR LSZC 160850Z VRB01KT 2500 RASN BR FEW003 OVC019 01/01 Q1018;
0169068065999992010111609204+46967+008400FM-15+0450LSZC V0209999C000010057019N0025001N1+00201+00101999999ADDGA1021+000901999GA2081+005701999GF108991999999999999999999MA1101801999999MW1101MW2631MW3731REMMET066METAR LSZC 160920Z 00000KT 2500 RASN BR FEW003 OVC019 02/01 Q1018;
0169068065999992010111610204+46967+008400FM-15+0450LSZC V0209999V000510057019N0025001N1+00201+00101999999ADDGA1021+000901999GA2081+005701999GF108991999999999999999999MA1101801999999MW1101MW2631MW3731REMMET066METAR LSZC 161020Z VRB01KT 2500 RASN BR FEW003 OVC019 02/01 Q1018;
0143068065999992010111612204+46967+008400FM-15+0450LSZC V0209999V000510057019N0050001N1+00301+00101999999ADDGA1021+002701999GA2081+005701999GF108991999999999999999999MA1101801999999REMMET058METAR LSZC 161220Z VRB01KT 5000 FEW009 OVC019 03/01 Q1018;
0153068065999992010111612504+46967+008400FM-15+0450LSZC V0209999V000510057019N0045001N1+00301+00201999999ADDGA1041+002701999GA2081+005701999GF108991999999999999999999MA1101801999999MW1611REMMET062METAR LSZC 161250Z VRB01KT 4500 -RA SCT009 OVC019 03/02 Q1018;
0153068065999992010111613204+46967+008400FM-15+0450LSZC V0209999V000510057019N0045001N1+00301+00201999999ADDGA1041+002701999GA2081+005701999GF108991999999999999999999MA1101691999999MW1511REMMET062METAR LSZC 161320Z VRB01KT 4500 -DZ SCT009 OVC019 03/02 Q1017;
0130068065999992010111613504+46967+008400FM-15+0450LSZC V0202601N001010036019N0050001N1+00301+00201999999ADDGA1081+003601999GF108991999999999999999999MA1101801999999MW1611REMMET055METAR LSZC 161350Z 26002KT 5000 -RA OVC012 03/02 Q1018;
0175068065999992010111706504+46967+008400FM-15+0450LSZC V0202801N001510060019N0045001N1+00401+00201999999ADDGA1021+004801999GA2071+006001999GA3081+011401999GF108991999999999999999999MA1101021999999MW1101REMMET068METAR LSZC 170650Z 28003KT 4500 BR FEW016 BKN020 OVC038 04/02 Q1010;
0175068065999992010111707204+46967+008400FM-15+0450LSZC V0209999V00151005701CN0045001N1+00401+00201999999ADDGA1021+004801999GA2041+005701999GA3071+011401999GF107991999999999999999999MA1101021999999MW1101REMMET068METAR LSZC 170720Z VRB03KT 4500 BR FEW016 SCT019 BKN038 04/02 Q1010;
0175068065999992010111707504+46967+008400FM-15+0450LSZC V0209999V00151007501CN0045001N1+00401+00201999999ADDGA1021+005101999GA2041+007501999GA3081+011101999GF108991999999999999999999MA1101021999999MW1101REMMET068METAR LSZC 170750Z VRB03KT 4500 BR FEW017 SCT025 OVC037 04/02 Q1010;
0175068065999992010111708204+46967+008400FM-15+0450LSZC V0202401N001510060019N0045001N1+00401+00201999999ADDGA1021+004501999GA2071+006001999GA3081+010501999GF108991999999999999999999MA1101021999999MW1101REMMET068METAR LSZC 170820Z 24003KT 4500 BR FEW015 BKN020 OVC035 04/02 Q1010;
0175068065999992010111708504+46967+008400FM-15+0450LSZC V0209999V001010078019N0045001N1+00401+00201999999ADDGA1021+003901999GA2071+007801999GA3081+010501999GF108991999999999999999999MA1101021999999MW1101REMMET068METAR LSZC 170850Z VRB02KT 4500 BR FEW013 BKN026 OVC035 04/02 Q1010;
0175068065999992010111709504+46967+008400FM-15+0450LSZC V0209999V001010078019N0045001N1+00501+00201999999ADDGA1021+003901999GA2071+007801999GA3081+010501999GF108991999999999999999999MA1101021999999MW1101REMMET068METAR LSZC 170950Z VRB02KT 4500 BR FEW013 BKN026 OVC035 05/02 Q1010;
0143068065999992010111712204+46967+008400FM-15+0450LSZC V0209999V001010078019N0050001N1+00501+00201999999ADDGA1021+004201999GA2081+007801999GF108991999999999999999999MA1100811999999REMMET058METAR LSZC 171220Z VRB02KT 5000 FEW014 OVC026 05/02 Q1008;
0143068065999992010111712504+46967+008400FM-15+0450LSZC V0209999V001010066019N0060001N1+00501+00201999999ADDGA1021+004801999GA2081+006601999GF108991999999999999999999MA1100711999999REMMET058METAR LSZC 171250Z VRB02KT 6000 FEW016 OVC022 05/02 Q1007;
0143068065999992010111713204+46967+008400FM-15+0450LSZC V0209999V000510069019N0060001N1+00601+00101999999ADDGA1021+005101999GA2081+006901999GF108991999999999999999999MA1100811999999REMMET058METAR LSZC 171320Z VRB01KT 6000 FEW017 OVC023 06/01 Q1008;
0143068065999992010111714204+46967+008400FM-15+0450LSZC V0209999V000510066019N0060001N1+00601+00101999999ADDGA1021+005101999GA2081+006601999GF108991999999999999999999MA1100711999999REMMET058METAR LSZC 171420Z VRB01KT 6000 FEW017 OVC022 06/01 Q1007;
0175068065999992010111806504+46967+008400FM-15+0450LSZC V0202501N001510030019N0040001N1+00101+00101999999ADDGA1021+000601999GA2071+003001999GA3081+013501999GF108991999999999999999999MA1100811999999MW1101REMMET068METAR LSZC 180650Z 25003KT 4000 BR FEW002 BKN010 OVC045 01/01 Q1008;
0175068065999992010111807204+46967+008400FM-15+0450LSZC V0202601N002610030019N0045001N1+00201+00101999999ADDGA1021+000601999GA2071+003001999GA3081+015001999GF108991999999999999999999MA1100911999999MW1101REMMET068METAR LSZC 180720Z 26005KT 4500 BR FEW002 BKN010 OVC050 02/01 Q1009;
0151068065999992010111808504+46967+008400FM-15+0450LSZC V0202301N001510135019N0112651N1+00301+00201999999ADDGA1021+003001999GA2081+013501999GF108991999999999999999999MA1100911999999REMMET066METAR LSZC 180850Z 23003KT 200V260 9999 FEW010 OVC045 03/02 Q1009;
0166068065999992010111809204+46967+008400FM-15+0450LSZC V0209999C00001009301CN0080001N1+00401+00201999999ADDGA1021+003001999GA2041+009301999GA3081+015001999GF108991999999999999999999MA1100911999999REMMET065METAR LSZC 180920Z 00000KT 8000 FEW010 SCT031 OVC057 04/02 Q1009;
0166068065999992010111809504+46967+008400FM-15+0450LSZC V0209999V00051009301CN0070001N1+00501+00201999999ADDGA1021+003301999GA2041+009301999GA3081+030001999GF108991999999999999999999MA1100911999999REMMET065METAR LSZC 180950Z VRB01KT 7000 FEW011 SCT031 OVC100 05/02 Q1009;
0166068065999992010111810204+46967+008400FM-15+0450LSZC V0209999V00051010201CN0060001N1+00501+00301999999ADDGA1041+003301999GA2041+010201999GA3071+030001999GF107991999999999999999999MA1101021999999REMMET065METAR LSZC 181020Z VRB01KT 6000 SCT011 SCT034 BKN100 05/03 Q1010;
0166068065999992010111810504+46967+008400FM-15+0450LSZC V0209999V00101009601CN0050001N1+00601+00301999999ADDGA1041+003301999GA2041+009601999GA3081+030001999GF108991999999999999999999MA1101021999999REMMET065METAR LSZC 181050Z VRB02KT 5000 SCT011 SCT032 OVC100 06/03 Q1010;
0151068065999992010111812204+46967+008400FM-15+0450LSZC V0200801N001510072019N0050001N1+00601+00301999999ADDGA1041+004201999GA2081+007201999GF108991999999999999999999MA1101021999999REMMET066METAR LSZC 181220Z 08003KT 030V110 5000 SCT014 OVC024 06/03 Q1010;
0143068065999992010111813504+46967+008400FM-15+0450LSZC V0209999V001010072019N0050001N1+00601+00301999999ADDGA1021+004201999GA2081+007201999GF108991999999999999999999MA1101021999999REMMET058METAR LSZC 181350Z VRB02KT 5000 FEW014 OVC024 06/03 Q1010;
0162068065999992010111814204+46967+008400FM-15+0450LSZC V0202601N001510069019N0030001N1+00601+00401999999ADDGA1021+004201999GA2081+006901999GF108991999999999999999999MA1101081999999MW1101MW2611REMMET065METAR LSZC 181420Z 26003KT 3000 -RA BR FEW014 OVC023 06/04 Q1011;
0161068065999992010111814504+46967+008400FM-15+0450LSZC V0202301N000510072019N0025001N1+00601+00401999999ADDGA1021+004201999GA2081+007201999GF108991999999999999999999MA1101081999999MW1101MW2631REMMET064METAR LSZC 181450Z 23001KT 2500 RA BR FEW014 OVC024 06/04 Q1011;
0162068065999992010111815204+46967+008400FM-15+0450LSZC V0202601N000510081019N0025001N1+00501+00401999999ADDGA1021+004201999GA2081+008101999GF108991999999999999999999MA1101081999999MW1101MW2611REMMET065METAR LSZC 181520Z 26001KT 2500 -RA BR FEW014 OVC027 05/04 Q1011;
0157068065999992010111815504+46967+008400FM-15+0450LSZC V0209999C000010120019N0035001N1+00501+00401999999ADDGA1021+006001999GA2081+012001999GF108991999999999999999999MA1101081999999MW1101REMMET066METAR LSZC 181550Z 00000KT 3500 BR FEW020 OVC040 05/04 Q1011 RERA;
0143068065999992010111907204+46967+008400FM-15+0450LSZC V0209999V000510210019N0112651N1+00401+00301999999ADDGA1021+006001999GA2071+021001999GF107991999999999999999999MA1101591999999REMMET058METAR LSZC 190720Z VRB01KT 9999 FEW020 BKN070 04/03 Q1016;
0143068065999992010111907504+46967+008400FM-15+0450LSZC V0209999V001012200019N0112651N1+00401+00301999999ADDGA1021+006001999GA2041+021001999GF104991999999999999999999MA1101591999999REMMET058METAR LSZC 190750Z VRB02KT 9999 FEW020 SCT070 04/03 Q1016;
0143068065999992010111908204+46967+008400FM-15+0450LSZC V0202701N001010210019N0112651N1+00401+00301999999ADDGA1021+006001999GA2071+021001999GF107991999999999999999999MA1101591999999REMMET058METAR LSZC 190820Z 27002KT 9999 FEW020 BKN070 04/03 Q1016;
0143068065999992010111908504+46967+008400FM-15+0450LSZC V0202401N001010210019N0112651N1+00501+00401999999ADDGA1021+006001999GA2071+021001999GF107991999999999999999999MA1101691999999REMMET058METAR LSZC 190850Z 24002KT 9999 FEW020 BKN070 05/04 Q1017;
0143068065999992010111909504+46967+008400FM-15+0450LSZC V0209999V000510210019N0112651N1+00701+00501999999ADDGA1021+006001999GA2071+021001999GF107991999999999999999999MA1101691999999REMMET058METAR LSZC 190950Z VRB01KT 9999 FEW020 BKN070 07/05 Q1017;
0151068065999992010111910504+46967+008400FM-15+0450LSZC V0200901N001510240019N0112651N1+00801+00401999999ADDGA1021+006001999GA2071+024001999GF107991999999999999999999MA1101691999999REMMET066METAR LSZC 191050Z 09003KT 040V140 9999 FEW020 BKN083 08/04 Q1017;
0143068065999992010111913504+46967+008400FM-15+0450LSZC V0209999C000010240019N0112651N1+00901+00301999999ADDGA1021+006001999GA2071+024001999GF107991999999999999999999MA1101591999999REMMET058METAR LSZC 191350Z 00000KT 9999 FEW020 BKN083 09/03 Q1016;
0143068065999992010111914504+46967+008400FM-15+0450LSZC V0209999C000010240019N0112651N1+00901+00301999999ADDGA1021+006001999GA2071+024001999GF107991999999999999999999MA1101591999999REMMET058METAR LSZC 191450Z 00000KT 9999 FEW020 BKN083 09/03 Q1016;
0143068065999992010111915204+46967+008400FM-15+0450LSZC V0201601N001512200019N0112651N1+00801+00301999999ADDGA1021+009001999GA2041+027001999GF104991999999999999999999MA1101591999999REMMET058METAR LSZC 191520Z 16003KT 9999 FEW030 SCT090 08/03 Q1016;
0143068065999992010111915504+46967+008400FM-15+0450LSZC V0209999V001012200019N0112651N1+00601+00301999999ADDGA1021+009001999GA2041+027001999GF104991999999999999999999MA1101591999999REMMET058METAR LSZC 191550Z VRB02KT 9999 FEW030 SCT090 06/03 Q1016;
0129068065999992010112206504+46967+008400FM-15+0450LSZC V0202401N000510042019N0025001N1+00401+00201999999ADDGA1081+004201999GF108991999999999999999999MA1099901999999MW1631REMMET054METAR LSZC 220650Z 24001KT 2500 RA OVC014 04/02 Q0999;
0129068065999992010112208204+46967+008400FM-15+0450LSZC V0209999C000010042019N0025001N1+00401+00201999999ADDGA1081+004201999GF108991999999999999999999MA1100001999999MW1631REMMET054METAR LSZC 220820Z 00000KT 2500 RA OVC014 04/02 Q1000;
0129068065999992010112208504+46967+008400FM-15+0450LSZC V0209999C000010030019N0025001N1+00401+00201999999ADDGA1081+003001999GF108991999999999999999999MA1100001999999MW1631REMMET054METAR LSZC 220850Z 00000KT 2500 RA OVC010 04/02 Q1000;
0129068065999992010112209204+46967+008400FM-15+0450LSZC V0203101N000510030019N0030001N1+00401+00201999999ADDGA1081+003001999GF108991999999999999999999MA1100001999999MW1631REMMET054METAR LSZC 220920Z 31001KT 3000 RA OVC010 04/02 Q1000;
0129068065999992010112209504+46967+008400FM-15+0450LSZC V0209999V000510030019N0030001N1+00401+00201999999ADDGA1081+003001999GF108991999999999999999999MA1100001999999MW1631REMMET054METAR LSZC 220950Z VRB01KT 3000 RA OVC010 04/02 Q1000;
0129068065999992010112210204+46967+008400FM-15+0450LSZC V0209999V001010030019N0030001N1+00401+00201999999ADDGA1081+003001999GF108991999999999999999999MA1100001999999MW1631REMMET054METAR LSZC 221020Z VRB02KT 3000 RA OVC010 04/02 Q1000;
0129068065999992010112210504+46967+008400FM-15+0450LSZC V0202701N001010030019N0030001N1+00401+00201999999ADDGA1081+003001999GF108991999999999999999999MA1100001999999MW1631REMMET054METAR LSZC 221050Z 27002KT 3000 RA OVC010 04/02 Q1000;
0129068065999992010112213204+46967+008400FM-15+0450LSZC V0209999V000510030019N0030001N1+00301+00201999999ADDGA1081+003001999GF108991999999999999999999MA1100001999999MW1631REMMET054METAR LSZC 221320Z VRB01KT 3000 RA OVC010 03/02 Q1000;
0129068065999992010112213504+46967+008400FM-15+0450LSZC V0209999V000510030019N0030001N1+00301+00201999999ADDGA1081+003001999GF108991999999999999999999MA1100001999999MW1631REMMET054METAR LSZC 221350Z VRB01KT 3000 RA OVC010 03/02 Q1000;
0130068065999992010112214504+46967+008400FM-15+0450LSZC V0202701N001010030019N0030001N1+00401+00201999999ADDGA1081+003001999GF108991999999999999999999MA1100001999999MW1611REMMET055METAR LSZC 221450Z 27002KT 3000 -RA OVC010 04/02 Q1000;
0143068065999992010112306504+46967+008400FM-15+0450LSZC V0202601N001010060019N0060001N1+00201+00101999999ADDGA1041+003001999GA2081+006001999GF108991999999999999999999MA1100411999999REMMET058METAR LSZC 230650Z 26002KT 6000 SCT010 OVC020 02/01 Q1004;
0143068065999992010112307204+46967+008400FM-15+0450LSZC V0202601N001010060019N0060001N1+00201+00101999999ADDGA1041+003001999GA2081+006001999GF108991999999999999999999MA1100411999999REMMET058METAR LSZC 230720Z 26002KT 6000 SCT010 OVC020 02/01 Q1004;
0143068065999992010112307504+46967+008400FM-15+0450LSZC V0202601N001510060019N0060001N1+00201+00101999999ADDGA1041+003001999GA2081+006001999GF108991999999999999999999MA1100511999999REMMET058METAR LSZC 230750Z 26003KT 6000 SCT010 OVC020 02/01 Q1005;
0143068065999992010112308504+46967+008400FM-15+0450LSZC V0202801N002110060019N0060001N1+00301+00101999999ADDGA1041+003001999GA2081+006001999GF108991999999999999999999MA1100511999999REMMET058METAR LSZC 230850Z 28004KT 6000 SCT010 OVC020 03/01 Q1005;
0143068065999992010112309204+46967+008400FM-15+0450LSZC V0202701N001010060019N0060001N1+00301+00101999999ADDGA1041+003001999GA2081+006001999GF108991999999999999999999MA1100511999999REMMET058METAR LSZC 230920Z 27002KT 6000 SCT010 OVC020 03/01 Q1005;
0143068065999992010112309504+46967+008400FM-15+0450LSZC V0209999V001010060019N0060001N1+00301+00201999999ADDGA1041+003001999GA2081+006001999GF108991999999999999999999MA1100511999999REMMET058METAR LSZC 230950Z VRB02KT 6000 SCT010 OVC020 03/02 Q1005;
0143068065999992010112310204+46967+008400FM-15+0450LSZC V0209999C000010060019N0060001N1+00401+00101999999ADDGA1041+003001999GA2081+006001999GF108991999999999999999999MA1100511999999REMMET058METAR LSZC 231020Z 00000KT 6000 SCT010 OVC020 04/01 Q1005;
0143068065999992010112310504+46967+008400FM-15+0450LSZC V0209999V000510060019N0060001N1+00401+00201999999ADDGA1041+003001999GA2081+006001999GF108991999999999999999999MA1100511999999REMMET058METAR LSZC 231050Z VRB01KT 6000 SCT010 OVC020 04/02 Q1005;
0151068065999992010112312204+46967+008400FM-15+0450LSZC V0203201N002110060019N0060001N1+00401+00001999999ADDGA1041+004501999GA2081+006001999GF108991999999999999999999MA1100511999999REMMET066METAR LSZC 231220Z 32004KT 250V070 6000 SCT015 OVC020 04/00 Q1005;
0151068065999992010112312504+46967+008400FM-15+0450LSZC V0203201N002610060019N0060001N1+00401+00001999999ADDGA1041+004501999GA2081+006001999GF108991999999999999999999MA1100511999999REMMET066METAR LSZC 231250Z 32005KT 260V010 6000 SCT015 OVC020 04/00 Q1005;
0143068065999992010112314204+46967+008400FM-15+0450LSZC V0209999V001510060019N0060001N1+00401+00001999999ADDGA1041+004501999GA2081+006001999GF108991999999999999999999MA1100611999999REMMET058METAR LSZC 231420Z VRB03KT 6000 SCT015 OVC020 04/00 Q1006;
0143068065999992010112314504+46967+008400FM-15+0450LSZC V0209999V001510105019N0060001N1+00401+00001999999ADDGA1071+010501999GA2081+012001999GF108991999999999999999999MA1100611999999REMMET058METAR LSZC 231450Z VRB03KT 6000 BKN035 OVC040 04/00 Q1006;
0144068065999992010112315204+46967+008400FM-15+0450LSZC V0209999V001010105019N0060001N1+00401-00101999999ADDGA1071+010501999GA2081+012001999GF108991999999999999999999MA1100611999999REMMET059METAR LSZC 231520Z VRB02KT 6000 BKN035 OVC040 04/M01 Q1006;
0143068065999992010112407204+46967+008400FM-15+0450LSZC V0209999V000510150019N0080001N1+00101+00001999999ADDGA1021+004501999GA2081+015001999GF108991999999999999999999MA1100911999999REMMET058METAR LSZC 240720Z VRB01KT 8000 FEW015 OVC050 01/00 Q1009;
0143068065999992010112407504+46967+008400FM-15+0450LSZC V0202001N000510150019N0080001N1+00101+00001999999ADDGA1021+004501999GA2081+015001999GF108991999999999999999999MA1100911999999REMMET058METAR LSZC 240750Z 20001KT 8000 FEW015 OVC050 01/00 Q1009;
0143068065999992010112408204+46967+008400FM-15+0450LSZC V0202301N000510150019N0070001N1+00201+00001999999ADDGA1021+004501999GA2081+015001999GF108991999999999999999999MA1101021999999REMMET058METAR LSZC 240820Z 23001KT 7000 FEW015 OVC050 02/00 Q1010;
0143068065999992010112408504+46967+008400FM-15+0450LSZC V0202801N001010150019N0070001N1+00201+00001999999ADDGA1021+004501999GA2081+015001999GF108991999999999999999999MA1101021999999REMMET058METAR LSZC 240850Z 28002KT 7000 FEW015 OVC050 02/00 Q1010;
0143068065999992010112409204+46967+008400FM-15+0450LSZC V0209999V001510150019N0070001N1+00201+00001999999ADDGA1021+004501999GA2081+015001999GF108991999999999999999999MA1101021999999REMMET058METAR LSZC 240920Z VRB03KT 7000 FEW015 OVC050 02/00 Q1010;
0143068065999992010112409504+46967+008400FM-15+0450LSZC V0209999V000510135019N0080001N1+00301+00001999999ADDGA1021+004501999GA2081+013501999GF108991999999999999999999MA1101021999999REMMET058METAR LSZC 240950Z VRB01KT 8000 FEW015 OVC045 03/00 Q1010;
0143068065999992010112410204+46967+008400FM-15+0450LSZC V0209999V001010135019N0070001N1+00301+00101999999ADDGA1041+003001999GA2081+013501999GF108991999999999999999999MA1101021999999REMMET058METAR LSZC 241020Z VRB02KT 7000 SCT010 OVC045 03/01 Q1010;
0143068065999992010112410504+46967+008400FM-15+0450LSZC V0209999V001010030019N0050001N1+00301+00001999999ADDGA1071+003001999GA2081+013501999GF108991999999999999999999MA1101021999999REMMET058METAR LSZC 241050Z VRB02KT 5000 BKN010 OVC045 03/00 Q1010;
0143068065999992010112412504+46967+008400FM-15+0450LSZC V0200501N001010030019N0050001N1+00301+00001999999ADDGA1071+003001999GA2081+013501999GF108991999999999999999999MA1100911999999REMMET058METAR LSZC 241250Z 05002KT 5000 BKN010 OVC045 03/00 Q1009;
0143068065999992010112413504+46967+008400FM-15+0450LSZC V0200801N001010135019N0050001N1+00301+00101999999ADDGA1021+003001999GA2071+013501999GF107991999999999999999999MA1100911999999REMMET058METAR LSZC 241350Z 08002KT 5000 FEW010 BKN045 03/01 Q1009;
0128068065999992010112506504+46967+008400FM-15+0450LSZC V0202301N001510330019N0112651N1-00101-00301999999ADDGA1071+033001999GF107991999999999999999999MA1100711999999REMMET059METAR LSZC 250650Z 23003KT 9999 BKN110 M01/M03 Q1007 NOSIG;
0128068065999992010112507204+46967+008400FM-15+0450LSZC V0202501N001510330019N0112651N1-00101-00301999999ADDGA1071+033001999GF107991999999999999999999MA1100611999999REMMET059METAR LSZC 250720Z 25003KT 9999 BKN110 M01/M03 Q1006 NOSIG;
0127068065999992010112507504+46967+008400FM-15+0450LSZC V0209999V001010330019N0112651N1+00001-00201999999ADDGA1071+033001999GF107991999999999999999999MA1100611999999REMMET058METAR LSZC 250750Z VRB02KT 9999 BKN110 00/M02 Q1006 NOSIG;
0150068065999992010112508204+46967+008400FM-15+0450LSZC V0203001N000510450019N0112651N1+00101-00201999999ADDGA1041+033001999GA2071+045001999GF107991999999999999999999MA1100611999999REMMET065METAR LSZC 250820Z 30001KT 9999 SCT110 BKN150 01/M02 Q1006 NOSIG;
0150068065999992010112508504+46967+008400FM-15+0450LSZC V0202101N001012200019N0112651N1+00101-00201999999ADDGA1021+033001999GA2041+045001999GF104991999999999999999999MA1100611999999REMMET065METAR LSZC 250850Z 21002KT 9999 FEW110 SCT150 01/M02 Q1006 NOSIG;
0150068065999992010112509204+46967+008400FM-15+0450LSZC V0209999V000512200019N0112651N1+00101-00201999999ADDGA1021+033001999GA2041+045001999GF104991999999999999999999MA1100611999999REMMET065METAR LSZC 250920Z VRB01KT 9999 FEW110 SCT150 01/M02 Q1006 NOSIG;
0079068065999992010112510204+46967+008400FM-15+0450LSZC V0209999C000019999999Y0099001N1+00401-00201999999ADDMA1100511999999REMMET052METAR LSZC 251020Z 00000KT CAVOK 04/M02 Q1005 NOSIG;
0079068065999992010112510504+46967+008400FM-15+0450LSZC V0209999V001019999999Y0099001N1+00401-00201999999ADDMA1100411999999REMMET052METAR LSZC 251050Z VRB02KT CAVOK 04/M02 Q1004 NOSIG;
0087068065999992010112512204+46967+008400FM-15+0450LSZC V0200601N001519999999Y0099001N1+00501-00201999999ADDMA1100311999999REMMET060METAR LSZC 251220Z 06003KT 020V120 CAVOK 05/M02 Q1003 NOSIG;
0079068065999992010112512504+46967+008400FM-15+0450LSZC V0209999V001019999999Y0099001N1+00401-00301999999ADDMA1100311999999REMMET052METAR LSZC 251250Z VRB02KT CAVOK 04/M03 Q1003 NOSIG;
0079068065999992010112513204+46967+008400FM-15+0450LSZC V0209999V001519999999Y0099001N1+00401-00201999999ADDMA1100201999999REMMET052METAR LSZC 251320Z VRB03KT CAVOK 04/M02 Q1002 NOSIG;
0079068065999992010112513504+46967+008400FM-15+0450LSZC V0209999V000519999999Y0099001N1+00501-00301999999ADDMA1100201999999REMMET052METAR LSZC 251350Z VRB01KT CAVOK 05/M03 Q1002 NOSIG;
0079068065999992010112514204+46967+008400FM-15+0450LSZC V0209999C000019999999Y0099001N1+00501-00301999999ADDMA1100201999999REMMET052METAR LSZC 251420Z 00000KT CAVOK 05/M03 Q1002 NOSIG;
0136068065999992010112607204+46967+008400FM-15+0450LSZC V0209999V002610045019N0030001N1+00001-00301999999ADDGA1081+004501999GF108991999999999999999999MA1100411999999MW1731REMMET061METAR LSZC 260720Z VRB05KT 3000 SN OVC015 00/M03 Q1004 NOSIG;
0179068065999992010112607504+46967+008400FM-15+0450LSZC V0200101N002610060019N0040001N1+00001-00301999999ADDGA1021+003001999GA2081+006001999GF108991999999999999999999MA1100511999999MW1711OC100771REMMET080METAR LSZC 260750Z 01005G15KT 290V100 4000 -SN FEW010 OVC020 00/M03 Q1005 NOSIG;
0160068065999992010112608204+46967+008400FM-15+0450LSZC V0209999V001510060019N0040001N1+00001-00401999999ADDGA1021+003001999GA2081+006001999GF108991999999999999999999MA1100511999999MW1711REMMET069METAR LSZC 260820Z VRB03KT 4000 -SN FEW010 OVC020 00/M04 Q1005 NOSIG;
0148068065999992010112608504+46967+008400FM-15+0450LSZC V0209999V002610060019N0040001N1+00001-00401999999ADDGA1081+006001999GF108991999999999999999999MA1100511999999MW1711OC100981REMMET065METAR LSZC 260850Z VRB05G19KT 4000 -SN OVC020 00/M04 Q1005 NOSIG;
0160068065999992010112609204+46967+008400FM-15+0450LSZC V0209999V002110078019N0050001N1+00001-00401999999ADDGA1041+005701999GA2081+007801999GF108991999999999999999999MA1100511999999MW1711REMMET069METAR LSZC 260920Z VRB04KT 5000 -SN SCT019 OVC026 00/M04 Q1005 NOSIG;
0160068065999992010112609504+46967+008400FM-15+0450LSZC V0209999V001510084019N0050001N1+00001-00501999999ADDGA1071+008401999GA2081+013501999GF108991999999999999999999MA1100511999999MW1711REMMET069METAR LSZC 260950Z VRB03KT 5000 -SN BKN028 OVC045 00/M05 Q1005 NOSIG;
0155068065999992010112610204+46967+008400FM-15+0450LSZC V0209999V002110135019N0050001N1+00001-00501999999ADDGA1041+009001999GA2081+013501999GF108991999999999999999999MA1100511999999REMMET070METAR LSZC 261020Z VRB04KT 5000 SCT030 OVC045 00/M05 Q1005 RESN NOSIG;
0150068065999992010112610504+46967+008400FM-15+0450LSZC V0209999V001510180019N0090001N1+00101-00701999999ADDGA1041+012001999GA2071+018001999GF107991999999999999999999MA1100511999999REMMET065METAR LSZC 261050Z VRB03KT 9000 SCT040 BKN060 01/M07 Q1005 NOSIG;
0158068065999992010112612204+46967+008400FM-15+0450LSZC V0202601N001510180019N0112651N1+00101-00601999999ADDGA1041+012001999GA2071+018001999GF107991999999999999999999MA1100511999999REMMET073METAR LSZC 261220Z 26003KT 230V300 9999 SCT040 BKN060 01/M06 Q1005 NOSIG;
0150068065999992010112612504+46967+008400FM-15+0450LSZC V0202301N002110180019N0112651N1+00101-00401999999ADDGA1041+012001999GA2071+018001999GF107991999999999999999999MA1100411999999REMMET065METAR LSZC 261250Z 23004KT 9999 SCT040 BKN060 01/M04 Q1004 NOSIG;
0158068065999992010112613204+46967+008400FM-15+0450LSZC V0202601N002110180019N0112651N1+00101-00501999999ADDGA1041+012001999GA2071+018001999GF107991999999999999999999MA1100411999999REMMET073METAR LSZC 261320Z 26004KT 220V290 9999 SCT040 BKN060 01/M05 Q1004 NOSIG;
0158068065999992010112613504+46967+008400FM-15+0450LSZC V0202801N002610180019N0112651N1+00101-00401999999ADDGA1041+012001999GA2071+018001999GF107991999999999999999999MA1100511999999REMMET073METAR LSZC 261350Z 28005KT 240V330 9999 SCT040 BKN060 01/M04 Q1005 NOSIG;
0161068065999992010112614204+46967+008400FM-15+0450LSZC V0202801N001510210019N0112651N1+00101-00401999999ADDGA1041+014101999GA2081+021001999GF108991999999999999999999MA1100511999999REMMET076METAR LSZC 261420Z 28003KT 250V320 9999 SH SCT047 OVC070 01/M04 Q1005 NOSIG;
0153068065999992010112614504+46967+008400FM-15+0450LSZC V0202501N002110210019N0112651N1+00001-00401999999ADDGA1041+014101999GA2081+021001999GF108991999999999999999999MA1100511999999REMMET068METAR LSZC 261450Z 25004KT 9999 SH SCT047 OVC075 00/M04 Q1005 NOSIG;
0153068065999992010112615204+46967+008400FM-15+0450LSZC V0209999V001010210019N0112651N1+00001-00401999999ADDGA1041+014101999GA2081+021001999GF108991999999999999999999MA1100511999999REMMET068METAR LSZC 261520Z VRB02KT 9999 SH SCT047 OVC075 00/M04 Q1005 NOSIG;
0150068065999992010112615504+46967+008400FM-15+0450LSZC V0209999V001010210019N0112651N1+00001-00501999999ADDGA1041+014101999GA2081+021001999GF108991999999999999999999MA1100511999999REMMET065METAR LSZC 261550Z VRB02KT 9999 SCT047 OVC075 00/M05 Q1005 NOSIG;
0150068065999992010112906504+46967+008400FM-15+0450LSZC V0209999V001010210019N0070001N1+00001-00101999999ADDGA1041+010501999GA2081+021001999GF108991999999999999999999MA1100201999999REMMET065METAR LSZC 290650Z VRB02KT 7000 SCT035 OVC075 00/M01 Q1002 NOSIG;
0150068065999992010112907204+46967+008400FM-15+0450LSZC V0202401N001510210019N0070001N1+00001-00101999999ADDGA1041+010501999GA2081+021001999GF108991999999999999999999MA1100311999999REMMET065METAR LSZC 290720Z 24003KT 7000 SCT035 OVC075 00/M01 Q1003 NOSIG;
0149068065999992010112907504+46967+008400FM-15+0450LSZC V0209999V001010210019N0070001N1+00001+00001999999ADDGA1041+010501999GA2081+021001999GF108991999999999999999999MA1100311999999REMMET064METAR LSZC 290750Z VRB02KT 7000 SCT035 OVC075 00/00 Q1003 NOSIG;
0149068065999992010112908204+46967+008400FM-15+0450LSZC V0209999V000510210019N0070001N1+00001+00001999999ADDGA1041+010501999GA2081+021001999GF108991999999999999999999MA1100311999999REMMET064METAR LSZC 290820Z VRB01KT 7000 SCT035 OVC075 00/00 Q1003 NOSIG;
0150068065999992010112908504+46967+008400FM-15+0450LSZC V0209999V001010210019N0070001N1+00101-00101999999ADDGA1041+010501999GA2081+021001999GF108991999999999999999999MA1100411999999REMMET065METAR LSZC 290850Z VRB02KT 7000 SCT035 OVC075 01/M01 Q1004 NOSIG;
0149068065999992010112909204+46967+008400FM-15+0450LSZC V0209999V000510180019N0070001N1+00101+00001999999ADDGA1041+012001999GA2071+018001999GF107991999999999999999999MA1100411999999REMMET064METAR LSZC 290920Z VRB01KT 7000 SCT040 BKN063 01/00 Q1004 NOSIG;
0173068065999992010112909504+46967+008400FM-15+0450LSZC V0209999V00261014101CN0070001N1+00201-00201999999ADDGA1021+009901999GA2041+014101999GA3071+018001999GF107991999999999999999999MA1100411999999REMMET072METAR LSZC 290950Z VRB05KT 7000 FEW033 SCT047 BKN063 02/M02 Q1004 NOSIG;
0197068065999992010112910204+46967+008400FM-15+0450LSZC V0203001N00261015001CN0090001N1+00201-00201999999ADDGA1021+009901999GA2041+015001999GA3071+018001999GF107991999999999999999999MA1100511999999OC100821REMMET088METAR LSZC 291020Z 30005G16KT 260V350 9000 FEW033 SCT050 BKN068 02/M02 Q1005 RESN NOSIG;
0173068065999992010112910504+46967+008400FM-15+0450LSZC V0209999V00151015001CN0112651N1+00401-00201999999ADDGA1021+009901999GA2041+015001999GA3071+021001999GF107991999999999999999999MA1100511999999REMMET072METAR LSZC 291050Z VRB03KT 9999 FEW033 SCT052 BKN070 04/M02 Q1005 NOSIG;
0127068065999992010112912204+46967+008400FM-15+0450LSZC V0209999V001012200019N0112651N1+00501-00401999999ADDGA1041+012001999GF104991999999999999999999MA1100511999999REMMET058METAR LSZC 291220Z VRB02KT 9999 SCT040 05/M04 Q1005 NOSIG;
0127068065999992010112912504+46967+008400FM-15+0450LSZC V0209999V001012200019N0112651N1+00501-00301999999ADDGA1041+012001999GF104991999999999999999999MA1100511999999REMMET058METAR LSZC 291250Z VRB02KT 9999 SCT040 05/M03 Q1005 NOSIG;
0135068065999992010112913204+46967+008400FM-15+0450LSZC V0201101N004112200019N0112651N1+00401-00301999999ADDGA1041+012001999GF104991999999999999999999MA1100511999999REMMET066METAR LSZC 291320Z 11008KT 060V160 9999 SCT040 04/M03 Q1005 NOSIG;
0135068065999992010112913504+46967+008400FM-15+0450LSZC V0201001N005112200019N0112651N1+00401-00301999999ADDGA1041+012001999GF104991999999999999999999MA1100511999999REMMET066METAR LSZC 291350Z 10010KT 060V130 9999 SCT040 04/M03 Q1005 NOSIG;
0127068065999992010112914204+46967+008400FM-15+0450LSZC V0209999V002612200019N0112651N1+00401-00401999999ADDGA1041+013501999GF104991999999999999999999MA1100511999999REMMET058METAR LSZC 291420Z VRB05KT 9999 SCT045 04/M04 Q1005 NOSIG;
0135068065999992010112914504+46967+008400FM-15+0450LSZC V0200401N006212200019N0112651N1+00201-00501999999ADDGA1041+013501999GF104991999999999999999999MA1100611999999REMMET066METAR LSZC 291450Z 04012KT 360V070 9999 SCT045 02/M05 Q1006 NOSIG;
0135068065999992010112915204+46967+008400FM-15+0450LSZC V0200201N003612200019N0112651N1+00201-00501999999ADDGA1041+012901999GF104991999999999999999999MA1100611999999REMMET066METAR LSZC 291520Z 02007KT 350V060 9999 SCT043 02/M05 Q1006 NOSIG;
0135068065999992010112915504+46967+008400FM-15+0450LSZC V0200101N004112200019N0112651N1+00201-00501999999ADDGA1041+012301999GF104991999999999999999999MA1100611999999REMMET066METAR LSZC 291550Z 01008KT 340V040 9999 SCT041 02/M05 Q1006 NOSIG;
0080068065999992010113006504+46967+008400FM-15+0450LSZC V0202501N002619999999Y0099001N1-00601-00901999999ADDMA1100811999999REMMET053METAR LSZC 300650Z 25005KT CAVOK M06/M09 Q1008 NOSIG;
0080068065999992010113007204+46967+008400FM-15+0450LSZC V0202601N002619999999Y0099001N1-00601-00901999999ADDMA1100811999999REMMET053METAR LSZC 300720Z 26005KT CAVOK M06/M09 Q1008 NOSIG;
0151068065999992010113007504+46967+008400FM-15+0450LSZC V0202501N002112200019N0112651N1-00601-00901999999ADDGA1021+003001999GA2041+039001999GF104991999999999999999999MA1100811999999REMMET066METAR LSZC 300750Z 25004KT 9999 FEW010 SCT130 M06/M09 Q1008 NOSIG;
0151068065999992010113008204+46967+008400FM-15+0450LSZC V0202701N002112200019N0112651N1-00501-00801999999ADDGA1021+003901999GA2041+060001999GF104991999999999999999999MA1100811999999REMMET066METAR LSZC 300820Z 27004KT 9999 FEW013 SCT200 M05/M08 Q1008 NOSIG;
0151068065999992010113008504+46967+008400FM-15+0450LSZC V0202801N002112200019N0112651N1-00401-00701999999ADDGA1021+003901999GA2041+060001999GF104991999999999999999999MA1100811999999REMMET066METAR LSZC 300850Z 28004KT 9999 FEW013 SCT200 M04/M07 Q1008 NOSIG;
0151068065999992010113009204+46967+008400FM-15+0450LSZC V0209999V001012200019N0112651N1-00401-00601999999ADDGA1021+003901999GA2041+060001999GF104991999999999999999999MA1100711999999REMMET066METAR LSZC 300920Z VRB02KT 9999 FEW013 SCT200 M04/M06 Q1007 NOSIG;
0151068065999992010113009504+46967+008400FM-15+0450LSZC V0202401N001512200019N0112651N1-00301-00501999999ADDGA1041+003901999GA2041+060001999GF104991999999999999999999MA1100711999999REMMET066METAR LSZC 300950Z 24003KT 9999 SCT013 SCT200 M03/M05 Q1007 NOSIG;
0151068065999992010113010204+46967+008400FM-15+0450LSZC V0209999V001012200019N0080001N1-00201-00501999999ADDGA1041+004501999GA2041+060001999GF104991999999999999999999MA1100611999999REMMET066METAR LSZC 301020Z VRB02KT 8000 SCT015 SCT200 M02/M05 Q1006 NOSIG;
0159068065999992010113010504+46967+008400FM-15+0450LSZC V0202301N001510600019N0080001N1-00201-00501999999ADDGA1041+004501999GA2071+060001999GF107991999999999999999999MA1100611999999REMMET074METAR LSZC 301050Z 23003KT 190V260 8000 SCT015 BKN200 M02/M05 Q1006 NOSIG;
0151068065999992010113012204+46967+008400FM-15+0450LSZC V0209999V001010180019N0080001N1-00201-00501999999ADDGA1041+006001999GA2071+018001999GF107991999999999999999999MA1100511999999REMMET066METAR LSZC 301220Z VRB02KT 8000 SCT020 BKN060 M02/M05 Q1005 NOSIG;
0159068065999992010113012504+46967+008400FM-15+0450LSZC V0202501N001510180019N0080001N1-00201-00501999999ADDGA1041+006001999GA2071+018001999GF107991999999999999999999MA1100411999999REMMET074METAR LSZC 301250Z 25003KT 210V290 8000 SCT020 BKN060 M02/M05 Q1004 NOSIG;
0151068065999992010113013204+46967+008400FM-15+0450LSZC V0202301N001010180019N0080001N1-00201-00501999999ADDGA1041+006001999GA2071+018001999GF107991999999999999999999MA1100411999999REMMET066METAR LSZC 301320Z 23002KT 8000 SCT020 BKN060 M02/M05 Q1004 NOSIG;
0151068065999992010113013504+46967+008400FM-15+0450LSZC V0202201N001510180019N0080001N1-00201-00501999999ADDGA1041+006001999GA2071+018001999GF107991999999999999999999MA1100411999999REMMET066METAR LSZC 301350Z 22003KT 8000 SCT020 BKN060 M02/M05 Q1004 NOSIG;
0151068065999992010113014204+46967+008400FM-15+0450LSZC V0209999V001010180019N0080001N1-00201-00501999999ADDGA1041+006001999GA2071+018001999GF107991999999999999999999MA1100311999999REMMET066METAR LSZC 301420Z VRB02KT 8000 SCT020 BKN060 M02/M05 Q1003 NOSIG;
0151068065999992010113014504+46967+008400FM-15+0450LSZC V0202201N001010180019N0080001N1-00201-00501999999ADDGA1041+006001999GA2071+018001999GF107991999999999999999999MA1100311999999REMMET066METAR LSZC 301450Z 22002KT 8000 SCT020 BKN060 M02/M05 Q1003 NOSIG;
0137068065999992010120106504+46967+008400FM-15+0450LSZC V0209999V00151003601CN0035001N1-00201-00501999999ADDGA1085+003601999GF108991999999999999999999MA1099491999999MW1101REMMET062METAR LSZC 010650Z VRB03KT 3500 BR OVC012 M02/M05 Q0995 NOSIG;
0137068065999992010120107204+46967+008400FM-15+0450LSZC V0209999V00151003601CN0035001N1-00201-00501999999ADDGA1085+003601999GF108991999999999999999999MA1099491999999MW1101REMMET062METAR LSZC 010720Z VRB03KT 3500 BR OVC012 M02/M05 Q0995 NOSIG;
0145068065999992010120107504+46967+008400FM-15+0450LSZC V0203001N00151003601CN0030001N1-00201-00501999999ADDGA1085+003601999GF108991999999999999999999MA1099391999999MW1101REMMET070METAR LSZC 010750Z 30003KT 260V010 3000 BR OVC012 M02/M05 Q0994 NOSIG;
0137068065999992010120108204+46967+008400FM-15+0450LSZC V0209999V00101003601CN0030001N1-00201-00501999999ADDGA1085+003601999GF108991999999999999999999MA1099491999999MW1101REMMET062METAR LSZC 010820Z VRB02KT 3000 BR OVC012 M02/M05 Q0995 NOSIG;
0137068065999992010120108504+46967+008400FM-15+0450LSZC V0209999V00051003601CN0030001N1-00201-00501999999ADDGA1085+003601999GF108991999999999999999999MA1099491999999MW1101REMMET062METAR LSZC 010850Z VRB01KT 3000 BR OVC012 M02/M05 Q0995 NOSIG;
0145068065999992010120109204+46967+008400FM-15+0450LSZC V0202901N00211003901CN0030001N1-00201-00501999999ADDGA1085+003901999GF108991999999999999999999MA1099491999999MW1101REMMET070METAR LSZC 010920Z 29004KT 260V330 3000 BR OVC013 M02/M05 Q0995 NOSIG;
0137068065999992010120109504+46967+008400FM-15+0450LSZC V0209999V00101003901CN0030001N1-00201-00401999999ADDGA1085+003901999GF108991999999999999999999MA1099491999999MW1101REMMET062METAR LSZC 010950Z VRB02KT 3000 BR OVC013 M02/M04 Q0995 NOSIG;
0137068065999992010120110204+46967+008400FM-15+0450LSZC V0209999V00101003901CN0030001N1-00101-00401999999ADDGA1085+003901999GF108991999999999999999999MA1099491999999MW1101REMMET062METAR LSZC 011020Z VRB02KT 3000 BR OVC013 M01/M04 Q0995 NOSIG;
0176068065999992010120112204+46967+008400FM-15+0450LSZC V0209999V000510021019N0011001N1-00201-00301999999ADDED199U17009GA1091+002101999GF109991999999000251999999MA1099391999999MW1101MW2731REMMET084METAR LSZC 011220Z VRB01KT 1100 R07/1700N R25/2000N BR SN VV007 M02/M03 Q0994 NOSIG;
0176068065999992010120112504+46967+008400FM-15+0450LSZC V0202501N001010021019N0011001N1-00201-00301999999ADDED199U18009GA1091+002101999GF109991999999000251999999MA1099391999999MW1101MW2731REMMET084METAR LSZC 011250Z 25002KT 1100 R07/1800N R25/1900N BR SN VV007 M02/M03 Q0994 NOSIG;
0176068065999992010120113204+46967+008400FM-15+0450LSZC V0209999V000510021019N0011001N1-00101-00301999999ADDED199U18009GA1091+002101999GF109991999999000251999999MA1099391999999MW1101MW2731REMMET084METAR LSZC 011320Z VRB01KT 1100 R07/1800N R25/2000N BR SN VV007 M01/M03 Q0994 NOSIG;
0176068065999992010120113504+46967+008400FM-15+0450LSZC V0209999V000510018019N0010001N1-00201-00301999999ADDED199U14009GA1091+001801999GF109991999999000251999999MA1099391999999MW1101MW2731REMMET084METAR LSZC 011350Z VRB01KT 1000 R07/1400N R25/1500N BR SN VV006 M02/M03 Q0994 NOSIG;
0176068065999992010120114204+46967+008400FM-15+0450LSZC V0209999C000010018019N0010001N1-00201-00301999999ADDED199U17009GA1091+001801999GF109991999999000251999999MA1099491999999MW1101MW2731REMMET084METAR LSZC 011420Z 00000KT 1000 R07/1700N R25/1900N BR SN VV006 M02/M03 Q0995 NOSIG;
0176068065999992010120114504+46967+008400FM-15+0450LSZC V0209999C000010018019N0010001N1-00201-00301999999ADDED199U17009GA1091+001801999GF109991999999000251999999MA1099491999999MW1101MW2731REMMET084METAR LSZC 011450Z 00000KT 1000 R07/1700N R25/1900N BR SN VV006 M02/M03 Q0995 NOSIG;
0177068065999992010120115204+46967+008400FM-15+0450LSZC V0209999V001010018019N0010001N1-00201-00301999999ADDED199U17009GA1091+001801999GF109991999999000251999999MA1099491999999MW1101MW2751REMMET085METAR LSZC 011520Z VRB02KT 1000 R07/1700N R25/1900N BR +SN VV006 M02/M03 Q0995 NOSIG;
0160068065999992010120206504+46967+008400FM-15+0450LSZC V0209999C00001006901CN0025001N1-00101-00201999999ADDGA1045+005401999GA2085+006901999GF108991999999999999999999MA1100511999999MW1101REMMET069METAR LSZC 020650Z 00000KT 2500 BR SCT018 OVC023 M01/M02 Q1005 NOSIG;
0160068065999992010120207204+46967+008400FM-15+0450LSZC V0209999V00051006901CN0025001N1-00101-00301999999ADDGA1045+004201999GA2085+006901999GF108991999999999999999999MA1100511999999MW1101REMMET069METAR LSZC 020720Z VRB01KT 2500 BR SCT014 OVC023 M01/M03 Q1005 NOSIG;
0160068065999992010120207504+46967+008400FM-15+0450LSZC V0209999V00101006301CN0030001N1-00101-00301999999ADDGA1045+004801999GA2085+006301999GF108991999999999999999999MA1100511999999MW1101REMMET069METAR LSZC 020750Z VRB02KT 3000 BR SCT016 OVC021 M01/M03 Q1005 NOSIG;
0160068065999992010120208204+46967+008400FM-15+0450LSZC V0202101N00101006301CN0030001N1-00101-00301999999ADDGA1045+004501999GA2085+006301999GF108991999999999999999999MA1100611999999MW1101REMMET069METAR LSZC 020820Z 21002KT 3000 BR SCT015 OVC021 M01/M03 Q1006 NOSIG;
0160068065999992010120208504+46967+008400FM-15+0450LSZC V0209999V00101006601CN0035001N1-00101-00301999999ADDGA1045+004501999GA2085+006601999GF108991999999999999999999MA1100611999999MW1101REMMET069METAR LSZC 020850Z VRB02KT 3500 BR SCT015 OVC022 M01/M03 Q1006 NOSIG;
0160068065999992010120209204+46967+008400FM-15+0450LSZC V0202201N00101006601CN0035001N1-00101-00301999999ADDGA1045+004501999GA2085+006601999GF108991999999999999999999MA1100611999999MW1101REMMET069METAR LSZC 020920Z 22002KT 3500 BR SCT015 OVC022 M01/M03 Q1006 NOSIG;
0160068065999992010120209504+46967+008400FM-15+0450LSZC V0202301N00051006601CN0035001N1-00101-00201999999ADDGA1045+004501999GA2085+006601999GF108991999999999999999999MA1100611999999MW1101REMMET069METAR LSZC 020950Z 23001KT 3500 BR SCT015 OVC022 M01/M02 Q1006 NOSIG;
0160068065999992010120210204+46967+008400FM-15+0450LSZC V0202301N00101006601CN0035001N1-00101-00301999999ADDGA1045+004501999GA2085+006601999GF108991999999999999999999MA1100611999999MW1101REMMET069METAR LSZC 021020Z 23002KT 3500 BR SCT015 OVC022 M01/M03 Q1006 NOSIG;
0159068065999992010120210504+46967+008400FM-15+0450LSZC V0202301N00101006601CN0035001N1+00001-00301999999ADDGA1045+004501999GA2085+006601999GF108991999999999999999999MA1100611999999MW1101REMMET068METAR LSZC 021050Z 23002KT 3500 BR SCT015 OVC022 00/M03 Q1006 NOSIG;
0159068065999992010120212204+46967+008400FM-15+0450LSZC V0209999V00051006601CN0035001N1+00001-00301999999ADDGA1045+004501999GA2085+006601999GF108991999999999999999999MA1100611999999MW1101REMMET068METAR LSZC 021220Z VRB01KT 3500 BR SCT015 OVC022 00/M03 Q1006 NOSIG;
0159068065999992010120212504+46967+008400FM-15+0450LSZC V0209999V00051006601CN0035001N1+00001-00201999999ADDGA1045+004501999GA2085+006601999GF108991999999999999999999MA1100511999999MW1101REMMET068METAR LSZC 021250Z VRB01KT 3500 BR SCT015 OVC022 00/M02 Q1005 NOSIG;
0159068065999992010120213204+46967+008400FM-15+0450LSZC V0202501N00101007501CN0035001N1+00001-00301999999ADDGA1045+004501999GA2075+007501999GF107991999999999999999999MA1100511999999MW1101REMMET068METAR LSZC 021320Z 25002KT 3500 BR SCT015 BKN025 00/M03 Q1005 NOSIG;
0159068065999992010120213504+46967+008400FM-15+0450LSZC V0202701N00051007501CN0035001N1+00001-00301999999ADDGA1045+004501999GA2075+007501999GF107991999999999999999999MA1100511999999MW1101REMMET068METAR LSZC 021350Z 27001KT 3500 BR SCT015 BKN025 00/M03 Q1005 NOSIG;
0159068065999992010120214204+46967+008400FM-15+0450LSZC V0209999V00101007501CN0035001N1+00001-00301999999ADDGA1045+004501999GA2075+007501999GF107991999999999999999999MA1100511999999MW1101REMMET068METAR LSZC 021420Z VRB02KT 3500 BR SCT015 BKN025 00/M03 Q1005 NOSIG;
0159068065999992010120214504+46967+008400FM-15+0450LSZC V0202201N00101007501CN0035001N1+00001-00301999999ADDGA1045+004501999GA2075+007501999GF107991999999999999999999MA1100511999999MW1101REMMET068METAR LSZC 021450Z 22002KT 3500 BR SCT015 BKN025 00/M03 Q1005 NOSIG;
0159068065999992010120215204+46967+008400FM-15+0450LSZC V0209999V00101007501CN0035001N1+00001-00301999999ADDGA1045+004501999GA2075+007501999GF107991999999999999999999MA1100611999999MW1101REMMET068METAR LSZC 021520Z VRB02KT 3500 BR SCT015 BKN025 00/M03 Q1006 NOSIG;
0137068065999992010120306504+46967+008400FM-15+0450LSZC V0202601N003112200019N0070001N1-00701-00901999999ADDGA1045+003001999GF104991999999999999999999MA1100711999999MW1101REMMET062METAR LSZC 030650Z 26006KT 7000 BR SCT010 M07/M09 Q1007 NOSIG;
0137068065999992010120307204+46967+008400FM-15+0450LSZC V0202601N003612200019N0070001N1-00701-00901999999ADDGA1045+003001999GF104991999999999999999999MA1100611999999MW1101REMMET062METAR LSZC 030720Z 26007KT 7000 BR SCT010 M07/M09 Q1006 NOSIG;
0145068065999992010120307504+46967+008400FM-15+0450LSZC V0202601N002612200019N0070001N1-00801-00901999999ADDGA1045+003001999GF104991999999999999999999MA1100711999999MW1101REMMET070METAR LSZC 030750Z 26005KT 200V280 7000 BR SCT010 M08/M09 Q1007 NOSIG;
0160068065999992010120308204+46967+008400FM-15+0450LSZC V0202601N00211015001CN0070001N1-00701-00901999999ADDGA1045+003001999GA2075+015001999GF107991999999999999999999MA1100711999999MW1101REMMET069METAR LSZC 030820Z 26004KT 7000 BR SCT010 BKN050 M07/M09 Q1007 NOSIG;
0160068065999992010120308504+46967+008400FM-15+0450LSZC V0202601N00261015001CN0070001N1-00701-00801999999ADDGA1045+003001999GA2075+015001999GF107991999999999999999999MA1100711999999MW1101REMMET069METAR LSZC 030850Z 26005KT 7000 BR SCT010 BKN050 M07/M08 Q1007 NOSIG;
0170068065999992010120309204+46967+008400FM-15+0450LSZC V0202801N00151999999CN0060001N1-00701-00801999999ADDGA1045+004501999GA2045+015001999GF104991999999999999999999MA1100711999999REMMET066METAR LSZC 030920Z 28003KT 6000 SCT015 SCT050 M07/M08 Q1007 NOSIG;EQDP01 015003SCOCIG
0160068065999992010120309504+46967+008400FM-15+0450LSZC V0202801N00151004801CN0045001N1-00401-00601999999ADDGA1075+004801999GA2075+015001999GF107991999999999999999999MA1100711999999MW1101REMMET069METAR LSZC 030950Z 28003KT 4500 BR BKN016 BKN050 M04/M06 Q1007 NOSIG;
0160068065999992010120310204+46967+008400FM-15+0450LSZC V0202601N00211004801CN0045001N1-00401-00601999999ADDGA1075+004801999GA2075+015001999GF107991999999999999999999MA1100711999999MW1101REMMET069METAR LSZC 031020Z 26004KT 4500 BR BKN016 BKN050 M04/M06 Q1007 NOSIG;
0160068065999992010120310504+46967+008400FM-15+0450LSZC V0202501N00151004801CN0050001N1-00301-00601999999ADDGA1075+004801999GA2075+015001999GF107991999999999999999999MA1100611999999MW1101REMMET069METAR LSZC 031050Z 25003KT 5000 BR BKN016 BKN050 M03/M06 Q1006 NOSIG;
0168068065999992010120312204+46967+008400FM-15+0450LSZC V0203101N00261004801CN0050001N1-00201-00501999999ADDGA1075+004801999GA2075+015001999GF107991999999999999999999MA1100611999999MW1101REMMET077METAR LSZC 031220Z 31005KT 250V010 5000 BR BKN016 BKN050 M02/M05 Q1006 NOSIG;
0160068065999992010120312504+46967+008400FM-15+0450LSZC V0203201N00411004801CN0050001N1-00201-00501999999ADDGA1075+004801999GA2075+015001999GF107991999999999999999999MA1100711999999MW1101REMMET069METAR LSZC 031250Z 32008KT 5000 BR BKN016 BKN050 M02/M05 Q1007 NOSIG;
0145068065999992010120313204+46967+008400FM-15+0450LSZC V0203401N00151004501CN0050001N1-00201-00501999999ADDGA1085+004501999GF108991999999999999999999MA1100711999999MW1101REMMET070METAR LSZC 031320Z 34003KT 260V020 5000 BR OVC015 M02/M05 Q1007 NOSIG;
0145068065999992010120313504+46967+008400FM-15+0450LSZC V0203101N00261004501CN0050001N1-00201-00501999999ADDGA1085+004501999GF108991999999999999999999MA1100811999999MW1101REMMET070METAR LSZC 031350Z 31005KT 250V340 5000 BR OVC015 M02/M05 Q1008 NOSIG;
0137068065999992010120314204+46967+008400FM-15+0450LSZC V0202401N00151004501CN0050001N1-00301-00501999999ADDGA1085+004501999GF108991999999999999999999MA1100811999999MW1101REMMET062METAR LSZC 031420Z 24003KT 5000 BR OVC015 M03/M05 Q1008 NOSIG;
0137068065999992010120314504+46967+008400FM-15+0450LSZC V0202701N00211004501CN0050001N1-00201-00501999999ADDGA1085+004501999GF108991999999999999999999MA1100811999999MW1101REMMET062METAR LSZC 031450Z 27004KT 5000 BR OVC015 M02/M05 Q1008 NOSIG;
0128068065999992010120315204+46967+008400FM-15+0450LSZC V0209999C00001005401CN0060001N1-00201-00601999999ADDGA1075+005401999GF107991999999999999999999MA1100911999999REMMET059METAR LSZC 031520Z 00000KT 6000 BKN018 M02/M06 Q1009 NOSIG;
0151068065999992010120315504+46967+008400FM-15+0450LSZC V0209999V00101015001CN0060001N1-00201-00601999999ADDGA1045+006001999GA2075+015001999GF107991999999999999999999MA1100911999999REMMET066METAR LSZC 031550Z VRB02KT 6000 SCT020 BKN050 M02/M06 Q1009 NOSIG;
0135068065999992010120606504+46967+008400FM-15+0450LSZC V0202501N00211001201CN0030001N1+00101+00001999999ADDGA1085+001201999GF108991999999999999999999MA1099801999999MW1101REMMET060METAR LSZC 060650Z 25004KT 3000 BR OVC004 01/00 Q0998 NOSIG;
0135068065999992010120607204+46967+008400FM-15+0450LSZC V0209999C00001001201CN0030001N1+00101+00001999999ADDGA1085+001201999GF108991999999999999999999MA1099801999999MW1631REMMET060METAR LSZC 060720Z 00000KT 3000 RA OVC004 01/00 Q0998 NOSIG;
0158068065999992010120607504+46967+008400FM-15+0450LSZC V0202301N00151007501CN0030001N1+00101+00001999999ADDGA1045+001201999GA2085+007501999GF108991999999999999999999MA1099801999999MW1631REMMET067METAR LSZC 060750Z 23003KT 3000 RA SCT004 OVC025 01/00 Q0998 NOSIG;
0158068065999992010120608204+46967+008400FM-15+0450LSZC V0209999V00051007501CN0030001N1+00101+00001999999ADDGA1045+001201999GA2085+007501999GF108991999999999999999999MA1099801999999MW1631REMMET067METAR LSZC 060820Z VRB01KT 3000 RA SCT004 OVC025 01/00 Q0998 NOSIG;
0158068065999992010120608504+46967+008400FM-15+0450LSZC V0202501N00101007501CN0030001N1+00101+00101999999ADDGA1045+001201999GA2085+007501999GF108991999999999999999999MA1099801999999MW1631REMMET067METAR LSZC 060850Z 25002KT 3000 RA SCT004 OVC025 01/01 Q0998 NOSIG;
0158068065999992010120609204+46967+008400FM-15+0450LSZC V0202501N00101016505CN0080001N1+00101+00001999999ADDGA1025+000601999GA2085+016505999GF108991999999999999999999MA1099801999999MW1631REMMET067METAR LSZC 060920Z 25002KT 8000 RA FEW002 OVC055 01/00 Q0998 NOSIG;
0159068065999992010120609504+46967+008400FM-15+0450LSZC V0209999V00101016505CN0080001N1+00201+00101999999ADDGA1025+000601999GA2085+016505999GF108991999999999999999999MA1099801999999MW1611REMMET068METAR LSZC 060950Z VRB02KT 8000 -RA FEW002 OVC055 02/01 Q0998 NOSIG;
0159068065999992010120610204+46967+008400FM-15+0450LSZC V0209999V00101020405CN0080001N1+00201+00101999999ADDGA1025+000601999GA2085+020405999GF108991999999999999999999MA1099801999999MW1611REMMET068METAR LSZC 061020Z VRB02KT 8000 -RA FEW002 OVC068 02/01 Q0998 NOSIG;
0159068065999992010120610504+46967+008400FM-15+0450LSZC V0203201N00101020405CN0080001N1+00201+00201999999ADDGA1025+000601999GA2085+020405999GF108991999999999999999999MA1099701999999MW1611REMMET068METAR LSZC 061050Z 32002KT 8000 -RA FEW002 OVC068 02/02 Q0997 NOSIG;
0159068065999992010120612204+46967+008400FM-15+0450LSZC V0209999V00051020405CN0080001N1+00301+00201999999ADDGA1025+000601999GA2085+020405999GF108991999999999999999999MA1099701999999MW1611REMMET068METAR LSZC 061220Z VRB01KT 8000 -RA FEW002 OVC068 03/02 Q0997 NOSIG;
0159068065999992010120612504+46967+008400FM-15+0450LSZC V0209999C00001020405CN0080001N1+00301+00201999999ADDGA1025+000601999GA2085+020405999GF108991999999999999999999MA1099701999999MW1611REMMET068METAR LSZC 061250Z 00000KT 8000 -RA FEW002 OVC068 03/02 Q0997 NOSIG;
0159068065999992010120613204+46967+008400FM-15+0450LSZC V0209999V00101020405CN0060001N1+00301+00201999999ADDGA1045+000601999GA2085+020405999GF108991999999999999999999MA1099701999999MW1611REMMET068METAR LSZC 061320Z VRB02KT 6000 -RA SCT002 OVC068 03/02 Q0997 NOSIG;
0159068065999992010120613504+46967+008400FM-15+0450LSZC V0209999V00101020405CN0060001N1+00301+00201999999ADDGA1045+000601999GA2075+020405999GF107991999999999999999999MA1099591999999MW1611REMMET068METAR LSZC 061350Z VRB02KT 6000 -RA SCT002 BKN068 03/02 Q0996 NOSIG;
0149068065999992010120614204+46967+008400FM-15+0450LSZC V0202601N00101024001CN0090001N1+00301+00201999999ADDGA1025+000601999GA2075+024001999GF107991999999999999999999MA1099591999999REMMET064METAR LSZC 061420Z 26002KT 9000 FEW002 BKN080 03/02 Q0996 NOSIG;
0149068065999992010120614504+46967+008400FM-15+0450LSZC V0202501N00151023405CN0112651N1+00301+00201999999ADDGA1025+000601999GA2075+023405999GF107991999999999999999999MA1099701999999REMMET064METAR LSZC 061450Z 25003KT 9999 FEW002 BKN078 03/02 Q0997 NOSIG;
0149068065999992010120615204+46967+008400FM-15+0450LSZC V0203001N00101022805CN0112651N1+00301+00201999999ADDGA1045+001501999GA2075+022805999GF107991999999999999999999MA1099701999999REMMET064METAR LSZC 061520Z 30002KT 9999 SCT005 BKN076 03/02 Q0997 NOSIG;
0149068065999992010120615504+46967+008400FM-15+0450LSZC V0209999V00101022805CN0112651N1+00301+00201999999ADDGA1045+001501999GA2075+022805999GF107991999999999999999999MA1099591999999REMMET064METAR LSZC 061550Z VRB02KT 9999 SCT005 BKN076 03/02 Q0996 NOSIG;
0126068065999992010120706504+46967+008400FM-15+0450LSZC V0202501N002112200019N0112651N1+00201+00101999999ADDGA1025+024001999GF102991999999999999999999MA1100101999999REMMET057METAR LSZC 070650Z 25004KT 9999 FEW080 02/01 Q1001 NOSIG;
0126068065999992010120707204+46967+008400FM-15+0450LSZC V0209999V001512200019N0112651N1+00201+00201999999ADDGA1025+024001999GF102991999999999999999999MA1100201999999REMMET057METAR LSZC 070720Z VRB03KT 9999 FEW080 02/02 Q1002 NOSIG;
0126068065999992010120707504+46967+008400FM-15+0450LSZC V0209999V001012200019N0112651N1+00201+00101999999ADDGA1025+024001999GF102991999999999999999999MA1100201999999REMMET057METAR LSZC 070750Z VRB02KT 9999 FEW080 02/01 Q1002 NOSIG;
0126068065999992010120708204+46967+008400FM-15+0450LSZC V0202501N001012200019N0112651N1+00201+00101999999ADDGA1025+024001999GF102991999999999999999999MA1100201999999REMMET057METAR LSZC 070820Z 25002KT 9999 FEW080 02/01 Q1002 NOSIG;
0134068065999992010120708504+46967+008400FM-15+0450LSZC V0202801N002112200019N0112651N1+00201+00201999999ADDGA1025+024001999GF102991999999999999999999MA1100201999999REMMET065METAR LSZC 070850Z 28004KT 250V320 9999 FEW080 02/02 Q1002 NOSIG;
0149068065999992010120709204+46967+008400FM-15+0450LSZC V0202501N00211045001CN0112651N1+00301+00201999999ADDGA1025+024001999GA2075+045001999GF107991999999999999999999MA1100201999999REMMET064METAR LSZC 070920Z 25004KT 9999 FEW080 BKN150 03/02 Q1002 NOSIG;
0149068065999992010120709504+46967+008400FM-15+0450LSZC V0202601N00311045001CN0112651N1+00601+00501999999ADDGA1025+028205999GA2075+045001999GF107991999999999999999999MA1100201999999REMMET064METAR LSZC 070950Z 26006KT 9999 FEW094 BKN150 06/05 Q1002 NOSIG;
0149068065999992010120710204+46967+008400FM-15+0450LSZC V0209999V00151045001CN0112651N1+00801+00601999999ADDGA1025+028205999GA2075+045001999GF107991999999999999999999MA1100201999999REMMET064METAR LSZC 071020Z VRB03KT 9999 FEW094 BKN150 08/06 Q1002 NOSIG;
0168068065999992010120710504+46967+008400FM-15+0450LSZC V0209999V00101999999CN0112651N1+00901+00601999999ADDGA1025+028205999GA2045+045001999GF104991999999999999999999MA1100101999999REMMET064METAR LSZC 071050Z VRB02KT 9999 FEW094 SCT150 09/06 Q1001 NOSIG;EQDP01 045003SCOCIG
0126068065999992010120712204+46967+008400FM-15+0450LSZC V0202401N001012200019N0112651N1+01001+00601999999ADDGA1045+027001999GF104991999999999999999999MA1100001999999REMMET057METAR LSZC 071220Z 24002KT 9999 SCT090 10/06 Q1000 NOSIG;
0126068065999992010120712504+46967+008400FM-15+0450LSZC V0209999V001012200019N0112651N1+00901+00601999999ADDGA1045+027001999GF104991999999999999999999MA1099901999999REMMET057METAR LSZC 071250Z VRB02KT 9999 SCT090 09/06 Q0999 NOSIG;
0126068065999992010120713204+46967+008400FM-15+0450LSZC V0209999V000512200019N0112651N1+00801+00601999999ADDGA1045+030001999GF104991999999999999999999MA1100001999999REMMET057METAR LSZC 071320Z VRB01KT 9999 SCT100 08/06 Q1000 NOSIG;
0149068065999992010120713504+46967+008400FM-15+0450LSZC V0209999V00101036001CN0112651N1+00801+00601999999ADDGA1045+030001999GA2085+036001999GF108991999999999999999999MA1100001999999REMMET064METAR LSZC 071350Z VRB02KT 9999 SCT100 OVC120 08/06 Q1000 NOSIG;
0149068065999992010120714204+46967+008400FM-15+0450LSZC V0209999C00001036001CN0112651N1+00801+00601999999ADDGA1045+028505999GA2085+036001999GF108991999999999999999999MA1100001999999REMMET064METAR LSZC 071420Z 00000KT 9999 SCT095 OVC120 08/06 Q1000 NOSIG;
0126068065999992010120714504+46967+008400FM-15+0450LSZC V0209999V00101030001CN0112651N1+00801+00601999999ADDGA1085+030001999GF108991999999999999999999MA1100001999999REMMET057METAR LSZC 071450Z VRB02KT 9999 OVC100 08/06 Q1000 NOSIG;
0126068065999992010120715204+46967+008400FM-15+0450LSZC V0209999V00051030001CN0112651N1+00801+00601999999ADDGA1075+030001999GF107991999999999999999999MA1100001999999REMMET057METAR LSZC 071520Z VRB01KT 9999 BKN100 08/06 Q1000 NOSIG;
0126068065999992010120715504+46967+008400FM-15+0450LSZC V0209999C000012200019N0112651N1+00701+00601999999ADDGA1045+030001999GF104991999999999999999999MA1100001999999REMMET057METAR LSZC 071550Z 00000KT 9999 SCT100 07/06 Q1000 NOSIG;
0151068065999992010120906204+46967+008400FM-15+0450LSZC V0201601N002110036019N0015001N1+00001+00001999999ADDGA1091+003601999GF109991999999000251999999MA1102101999999MW1731REMMET076METAR LSZC 090620Z 16004KT 100V230 1500 SN VV012 00/00 Q1021 075950// NOSIG;
0172068065999992010120906504+46967+008400FM-15+0450LSZC V0209999V00151006001CN0035001N1+00101+00001999999ADDGA1045+003001999GA2085+006001999GF108991999999999999999999MA1102201999999MW1101REMMET081METAR LSZC 090650Z VRB03KT 3500 BR SH SCT010 OVC020 01/00 Q1022 R07/595091 NOSIG;
0160068065999992010120907204+46967+008400FM-15+0450LSZC V0209999V00151007201CN0060001N1+00101-00101999999ADDGA1045+004501999GA2085+007201999GF108991999999999999999999MA1102201999999REMMET075METAR LSZC 090720Z VRB03KT 6000 SH SCT015 OVC024 01/M01 Q1022 R07/99 NOSIG;
0157068065999992010120907504+46967+008400FM-15+0450LSZC V0209999V00101025505CN0112651N1+00101-00201999999ADDGA1045+004501999GA2075+025505999GF107991999999999999999999MA1102301999999REMMET072METAR LSZC 090750Z VRB02KT 9999 SCT015 BKN085 01/M02 Q1023 R07/99 NOSIG;
0157068065999992010120908204+46967+008400FM-15+0450LSZC V0209999V00051025505CN0112651N1+00001-00201999999ADDGA1045+004501999GA2075+025505999GF107991999999999999999999MA1102301999999REMMET072METAR LSZC 090820Z VRB01KT 9999 SCT015 BKN085 00/M02 Q1023 R07/99 NOSIG;
0157068065999992010120908504+46967+008400FM-15+0450LSZC V0209999V00101025505CN0112651N1+00001-00201999999ADDGA1045+004501999GA2075+025505999GF107991999999999999999999MA1102301999999REMMET072METAR LSZC 090850Z VRB02KT 9999 SCT015 BKN085 00/M02 Q1023 R07/99 NOSIG;
0176068065999992010120909204+46967+008400FM-15+0450LSZC V0209999V00101999999CN0112651N1+00101-00201999999ADDGA1045+010501999GA2045+024001999GF104991999999999999999999MA1102401999999REMMET072METAR LSZC 090920Z VRB02KT 9999 SCT035 SCT080 01/M02 Q1024 R07/99 NOSIG;EQDP01 024003SCOCIG
0178068065999992010120909504+46967+008400FM-15+0450LSZC V0209999V00101999999CN0112651N1+00101-00201999999ADDGA1045+010501999GA2045+024001999GF104991999999999999999999MA1102401999999REMMET074METAR LSZC 090950Z VRB02KT 9999 SCT035 SCT080 01/M02 Q1024 88620394 NOSIG;EQDP01 024003SCOCIG
0180068065999992010120910204+46967+008400FM-15+0450LSZC V0209999V00101999999CN0112651N1+00001-00201999999ADDGA1025+005401999GA2045+010501999GF104991999999999999999999MA1102401999999REMMET076METAR LSZC 091020Z VRB02KT 9999 FEW018 SCT035 00/M02 Q1024 R88/620394 NOSIG;EQDP01 010503SCOCIG
0180068065999992010120910504+46967+008400FM-15+0450LSZC V0209999V00051999999CN0112651N1+00101-00201999999ADDGA1025+005401999GA2045+009301999GF104991999999999999999999MA1102401999999REMMET076METAR LSZC 091050Z VRB01KT 9999 FEW018 SCT031 01/M02 Q1024 R88/620394 NOSIG;EQDP01 009303SCOCIG
0184068065999992010120912204+46967+008400FM-15+0450LSZC V0209999C00001009301CN0112651N1+00201-00101999999ADDGA1025+005401999GA2045+009301999GA3075+017105999GF107991999999999999999999MA1102511999999REMMET083METAR LSZC 091220Z 00000KT 9999 FEW018 SCT031 BKN057 02/M01 Q1025 R88/620394 NOSIG;
0179068065999992010120912504+46967+008400FM-15+0450LSZC V0209999V00051009301CN0112651N1+00101-00201999999ADDGA1025+005401999GA2045+009301999GA3075+017105999GF107991999999999999999999MA1102511999999REMMET078METAR LSZC 091250Z VRB01KT 9999 FEW018 SCT031 BKN057 01/M02 Q1025 R88/D NOSIG;
0182068065999992010120913204+46967+008400FM-15+0450LSZC V0209999C00001009301CN0112651N1+00201-00201999999ADDGA1025+005101999GA2045+009301999GA3075+017105999GF107991999999999999999999MA1102511999999REMMET081METAR LSZC 091320Z 00000KT 9999 SH FEW017 SCT031 BKN057 02/M02 Q1025 R88/D NOSIG;
0184068065999992010120913504+46967+008400FM-15+0450LSZC V0209999V00051009301CN0112651N1+00101-00201999999ADDGA1025+005101999GA2045+009301999GA3075+017105999GF107991999999999999999999MA1102511999999REMMET083METAR LSZC 091350Z VRB01KT 9999 SHSN FEW017 SCT031 BKN057 01/M02 Q1025 R88/D NOSIG;
0175068065999992010120914204+46967+008400FM-15+0450LSZC V0201701N00101999999CN0112651N1+00001-00301999999ADDGA1025+008401999GA2045+011101999GF104991999999999999999999MA1102511999999REMMET071METAR LSZC 091420Z 17002KT 9999 FEW028 SCT037 00/M03 Q1025 R88/D NOSIG;EQDP01 011103SCOCIG
0176068065999992010120914504+46967+008400FM-15+0450LSZC V0209999V00101999999CN0112651N1-00101-00201999999ADDGA1025+008401999GA2045+012901999GF104991999999999999999999MA1102611999999REMMET072METAR LSZC 091450Z VRB02KT 9999 FEW028 SCT043 M01/M02 Q1026 R88/D NOSIG;EQDP01 012903SCOCIG
0170068065999992010120915204+46967+008400FM-15+0450LSZC V0202601N00151999999CN0112651N1-00201-00401999999ADDGA1025+008401999GA2045+012901999GF104991999999999999999999MA1102611999999REMMET066METAR LSZC 091520Z 26003KT 9999 FEW028 SCT043 M02/M04 Q1026 NOSIG;EQDP01 012903SCOCIG
0128068065999992010120915504+46967+008400FM-15+0450LSZC V0209999V000512200019N0112651N1-00201-00401999999ADDGA1025+015001999GF102991999999999999999999MA1102711999999REMMET059METAR LSZC 091550Z VRB01KT 9999 FEW050 M02/M04 Q1027 NOSIG;
0151068065999992010121006504+46967+008400FM-15+0450LSZC V0209999V00151018001CN0112651N1-00101-00301999999ADDGA1045+013501999GA2085+018001999GF108991999999999999999999MA1103011999999REMMET066METAR LSZC 100650Z VRB03KT 9999 SCT045 OVC060 M01/M03 Q1030 NOSIG;
0160068065999992010121007204+46967+008400FM-15+0450LSZC V0202801N00361018001CN0070001N1+00001-00301999999ADDGA1045+013501999GA2085+018001999GF108991999999999999999999MA1103121999999MW1711REMMET069METAR LSZC 100720Z 28007KT 7000 -SN SCT045 OVC060 00/M03 Q1031 NOSIG;
0168068065999992010121007504+46967+008400FM-15+0450LSZC V0202401N00511010501CN0070001N1+00001-00301999999ADDGA1075+010501999GA2085+018001999GF108991999999999999999999MA1103121999999MW1711REMMET077METAR LSZC 100750Z 24010KT 210V290 7000 -SN BKN035 OVC060 00/M03 Q1031 NOSIG;
0167068065999992010121008204+46967+008400FM-15+0450LSZC V0202901N00361010501CN0080001N1+00001-00301999999ADDGA1075+010501999GA2085+018001999GF108991999999999999999999MA1103121999999REMMET082METAR LSZC 100820Z 29007KT 8000 -SHSN BKN035 OVC060 00/M03 Q1031 R25/490095 NOSIG;
0146068065999992010121009204+46967+008400FM-15+0450LSZC V0209999V001010060019N0035001N1+00101-00201999999ADDGA1091+006001999GF109991999999000251999999MA1103181999999MW1731REMMET071METAR LSZC 100920Z VRB02KT 3500 SN VV020 01/M02 Q1032 R25/490095 NOSIG;
0146068065999992010121009504+46967+008400FM-15+0450LSZC V0209999V000510006019N0015001N1+00001-00201999999ADDGA1091+000601999GF109991999999000251999999MA1103181999999MW1731REMMET071METAR LSZC 100950Z VRB01KT 1500 SN VV002 00/M02 Q1032 R25/490095 NOSIG;
0194068065999992010121012204+46967+008400FM-15+0450LSZC V0201601N00101010501CN0035001N1+00001-00101999999ADDGA1025+003001999GA2075+010501999GA3085+013801999GF108991999999999999999999MA1103181999999MW1711REMMET087METAR LSZC 101220Z 16002KT 3500 -SN FEW010 BKN035 OVC046 00/M01 Q1032 R25/593091 NOSIG;
0194068065999992010121013504+46967+008400FM-15+0450LSZC V0209999C00001010501CN0035001N1+00001-00101999999ADDGA1025+003001999GA2075+010501999GA3085+013801999GF108991999999999999999999MA1103181999999MW1711REMMET087METAR LSZC 101350Z 00000KT 3500 -SN FEW010 BKN035 OVC046 00/M01 Q1032 R25/593091 NOSIG;
0135068065999992010121306504+46967+008400FM-15+0450LSZC V0209999V003110030019N0015001N1+00101-00101999999ADDGA1091+003001999GF109991999999000251999999MA1101691999999MW1731REMMET060METAR LSZC 130650Z VRB06KT 1500 SN VV010 01/M01 Q1017 NOSIG;
0155068065999992010121307204+46967+008400FM-15+0450LSZC V0203101N00361004501CN0025001N1+00001-00101999999ADDGA1085+004501999GF108991999999999999999999MA1101691999999MW1731OC101031REMMET072METAR LSZC 130720Z 31007G20KT 250V010 2500 SN OVC015 00/M01 Q1017 NOSIG;
0146068065999992010121307504+46967+008400FM-15+0450LSZC V0209999V003610030019N0017001N1+00101-00101999999ADDGA1091+003001999GF109991999999000251999999MA1101691999999MW1731REMMET071METAR LSZC 130750Z VRB07KT 1700 SN VV010 01/M01 Q1017 R88/591099 NOSIG;
0196068065999992010121308204+46967+008400FM-15+0450LSZC V0203501N005110018019N0010001N1+00001-00201999999ADDED199U14009GA1091+001801999GF109991999999000251999999MA1101801999999MW1731OC101131REMMET102METAR LSZC 130820Z 35010G22KT 300V050 1000 R07/1400N R25/1200N SN VV006 00/M02 Q1018 R88/591099 NOSIG;
0197068065999992010121308504+46967+008400FM-15+0450LSZC V0203101N006210018019N0010001N1+00001-00201999999ADDED199U14009GA1091+001801999GF109991999999000251999999MA1101801999999MW1751OC101231REMMET103METAR LSZC 130850Z 31012G24KT 260V340 1000 R07/1400N R25/1900N +SN VV006 00/M02 Q1018 R88/591099 NOSIG;
0181068065999992010121309204+46967+008400FM-15+0450LSZC V0209999V00361017105CN0025001N1+00001-00201999999ADDGA1045+004801999GA2085+017105999GF108991999999999999999999MA1101901999999MW1731OC101031REMMET082METAR LSZC 130920Z VRB07G20KT 2500 SN SCT016 OVC057 00/M02 Q1019 R88/591199 NOSIG;
0189068065999992010121309504+46967+008400FM-15+0450LSZC V0203101N00621017105CN0025001N1+00001-00501999999ADDGA1045+004801999GA2085+017105999GF108991999999999999999999MA1101901999999MW1731OC101181REMMET090METAR LSZC 130950Z 31012G23KT 270V340 2500 SN SCT016 OVC057 00/M05 Q1019 R88/591199 NOSIG;
0170068065999992010121310204+46967+008400FM-15+0450LSZC V0209999V00261013501CN0025001N1+00001-00501999999ADDGA1045+004801999GA2085+013501999GF108991999999999999999999MA1101901999999MW1731REMMET079METAR LSZC 131020Z VRB05KT 2500 SN SCT016 OVC045 00/M05 Q1019 R88/591199 NOSIG;
0170068065999992010121310504+46967+008400FM-15+0450LSZC V0209999V00211012001CN0025001N1+00001-00501999999ADDGA1045+004801999GA2075+012001999GF107991999999999999999999MA1101901999999MW1731REMMET079METAR LSZC 131050Z VRB04KT 2500 SN SCT016 BKN040 00/M05 Q1019 R88/591199 NOSIG;
0167068065999992010121312204+46967+008400FM-15+0450LSZC V0209999V00101011101CN0070001N1+00001-00501999999ADDGA1045+007501999GA2075+011101999GF107991999999999999999999MA1101901999999MW1711REMMET076METAR LSZC 131220Z VRB02KT 7000 -SN SCT025 BKN037 00/M05 Q1019 R88/99 NOSIG;
0167068065999992010121312504+46967+008400FM-15+0450LSZC V0209999V00151015305CN0090001N1+00001-00501999999ADDGA1045+007801999GA2075+015305999GF107991999999999999999999MA1101901999999MW1711REMMET076METAR LSZC 131250Z VRB03KT 9000 -SN SCT026 BKN051 00/M05 Q1019 R88/99 NOSIG;
0166068065999992010121313204+46967+008400FM-15+0450LSZC V0209999V00151015305CN0112651N1+00001-00501999999ADDGA1045+006301999GA2075+015305999GF107991999999999999999999MA1101901999999MW1711REMMET075METAR LSZC 131320Z VRB03KT 9999 -SN SCT021 BKN051 00/M05 Q1019 R88/D NOSIG;
0156068065999992010121313504+46967+008400FM-15+0450LSZC V0209999V00151015305CN0112651N1+00001-00501999999ADDGA1045+009301999GA2075+015305999GF107991999999999999999999MA1101901999999REMMET071METAR LSZC 131350Z VRB03KT 9999 SCT031 BKN051 00/M05 Q1019 R88/D NOSIG;
0128068065999992010121314204+46967+008400FM-15+0450LSZC V0209999V002112200019N0112651N1-00101-00501999999ADDGA1045+009301999GF104991999999999999999999MA1101901999999REMMET059METAR LSZC 131420Z VRB04KT 9999 SCT031 M01/M05 Q1019 NOSIG;
0128068065999992010121314504+46967+008400FM-15+0450LSZC V0203301N004112200019N0112651N1-00101-00601999999ADDGA1045+009301999GF104991999999999999999999MA1101901999999REMMET059METAR LSZC 131450Z 33008KT 9999 SCT031 M01/M06 Q1019 NOSIG;
0128068065999992010121315204+46967+008400FM-15+0450LSZC V0203201N003112200019N0112651N1-00101-00601999999ADDGA1045+009301999GF104991999999999999999999MA1101901999999REMMET059METAR LSZC 131520Z 32006KT 9999 SCT031 M01/M06 Q1019 NOSIG;
0136068065999992010121315504+46967+008400FM-15+0450LSZC V0203301N003112200019N0112651N1-00101-00601999999ADDGA1045+009301999GF104991999999999999999999MA1101901999999REMMET067METAR LSZC 131550Z 33006KT 290V010 9999 SCT031 M01/M06 Q1019 NOSIG;
0128068065999992010121406504+46967+008400FM-15+0450LSZC V0209999V00101012001CN0112651N1-00401-00701999999ADDGA1085+012001999GF108991999999999999999999MA1101901999999REMMET059METAR LSZC 140650Z VRB02KT 9999 OVC040 M04/M07 Q1019 NOSIG;
0128068065999992010121407204+46967+008400FM-15+0450LSZC V0209999V00101012001CN0050001N1-00301-00701999999ADDGA1085+012001999GF108991999999999999999999MA1102001999999REMMET059METAR LSZC 140720Z VRB02KT 5000 OVC040 M03/M07 Q1020 NOSIG;
0138068065999992010121407504+46967+008400FM-15+0450LSZC V0202101N00151012001CN0030001N1-00301-00601999999ADDGA1085+012001999GF108991999999999999999999MA1102001999999MW1711REMMET063METAR LSZC 140750Z 21003KT 3000 -SN OVC040 M03/M06 Q1020 NOSIG;
0138068065999992010121408204+46967+008400FM-15+0450LSZC V0209999V00101009001CN0030001N1-00401-00601999999ADDGA1085+009001999GF108991999999999999999999MA1102001999999MW1711REMMET063METAR LSZC 140820Z VRB02KT 3000 -SN OVC030 M04/M06 Q1020 NOSIG;
0138068065999992010121408504+46967+008400FM-15+0450LSZC V0202601N00101009001CN0030001N1-00301-00601999999ADDGA1085+009001999GF108991999999999999999999MA1102101999999MW1711REMMET063METAR LSZC 140850Z 26002KT 3000 -SN OVC030 M03/M06 Q1021 NOSIG;
0138068065999992010121409204+46967+008400FM-15+0450LSZC V0209999V00051009001CN0030001N1-00301-00501999999ADDGA1085+009001999GF108991999999999999999999MA1102101999999MW1711REMMET063METAR LSZC 140920Z VRB01KT 3000 -SN OVC030 M03/M05 Q1021 NOSIG;
0138068065999992010121409504+46967+008400FM-15+0450LSZC V0202401N00101009001CN0030001N1-00301-00501999999ADDGA1085+009001999GF108991999999999999999999MA1102101999999MW1711REMMET063METAR LSZC 140950Z 24002KT 3000 -SN OVC030 M03/M05 Q1021 NOSIG;
0138068065999992010121410504+46967+008400FM-15+0450LSZC V0202601N00101009001CN0030001N1-00301-00501999999ADDGA1085+009001999GF108991999999999999999999MA1102101999999MW1711REMMET063METAR LSZC 141050Z 26002KT 3000 -SN OVC030 M03/M05 Q1021 NOSIG;
0138068065999992010121411204+46967+008400FM-15+0450LSZC V0209999V00051009001CN0030001N1-00201-00401999999ADDGA1085+009001999GF108991999999999999999999MA1102101999999MW1711REMMET063METAR LSZC 141120Z VRB01KT 3000 -SN OVC030 M02/M04 Q1021 NOSIG;
0137068065999992010121412204+46967+008400FM-15+0450LSZC V0209999V00101005401CN0015001N1-00301-00501999999ADDGA1085+005401999GF108991999999999999999999MA1102101999999MW1731REMMET062METAR LSZC 141220Z VRB02KT 1500 SN OVC018 M03/M05 Q1021 NOSIG;
0137068065999992010121412504+46967+008400FM-15+0450LSZC V0209999V00051005401CN0015001N1-00301-00501999999ADDGA1085+005401999GF108991999999999999999999MA1102201999999MW1731REMMET062METAR LSZC 141250Z VRB01KT 1500 SN OVC018 M03/M05 Q1022 NOSIG;
0146068065999992010121413204+46967+008400FM-15+0450LSZC V0203201N00361004501CN0020001N1-00301-00601999999ADDGA1075+004501999GF107991999999999999999999MA1102201999999MW1711REMMET071METAR LSZC 141320Z 32007KT 290V010 2000 -SN BKN015 M03/M06 Q1022 NOSIG;
0138068065999992010121413504+46967+008400FM-15+0450LSZC V0209999V00151006001CN0035001N1-00301-00701999999ADDGA1075+006001999GF107991999999999999999999MA1102201999999MW1711REMMET063METAR LSZC 141350Z VRB03KT 3500 -SN BKN020 M03/M07 Q1022 NOSIG;
0169068065999992010121414204+46967+008400FM-15+0450LSZC V0202601N00151010501CN0050001N1-00301-00701999999ADDGA1045+006001999GA2075+010501999GF107991999999999999999999MA1102201999999MW1711REMMET078METAR LSZC 141420Z 26003KT 220V330 5000 -SN SCT020 BKN035 M03/M07 Q1022 NOSIG;
0161068065999992010121414504+46967+008400FM-15+0450LSZC V0209999V00151010501CN0050001N1-00301-00701999999ADDGA1045+006001999GA2075+010501999GF107991999999999999999999MA1102201999999MW1711REMMET070METAR LSZC 141450Z VRB03KT 5000 -SN SCT020 BKN035 M03/M07 Q1022 NOSIG;
0161068065999992010121415204+46967+008400FM-15+0450LSZC V0209999V00051010501CN0050001N1-00301-00701999999ADDGA1045+006001999GA2075+010501999GF107991999999999999999999MA1102301999999MW1711REMMET070METAR LSZC 141520Z VRB01KT 5000 -SN SCT020 BKN035 M03/M07 Q1023 NOSIG;
0138068065999992010121506504+46967+008400FM-15+0450LSZC V0202201N00151004501CN0035001N1-00601-00801999999ADDGA1085+004501999GF108991999999999999999999MA1102711999999MW1711REMMET063METAR LSZC 150650Z 22003KT 3500 -SN OVC015 M06/M08 Q1027 NOSIG;
0128068065999992010121507204+46967+008400FM-15+0450LSZC V0209999V00101004501CN0035001N1-00601-00801999999ADDGA1085+004501999GF108991999999999999999999MA1102711999999REMMET059METAR LSZC 150720Z VRB02KT 3500 OVC015 M06/M08 Q1027 NOSIG;
0128068065999992010121507504+46967+008400FM-15+0450LSZC V0209999V00051004501CN0035001N1-00601-00801999999ADDGA1085+004501999GF108991999999999999999999MA1102711999999REMMET059METAR LSZC 150750Z VRB01KT 3500 OVC015 M06/M08 Q1027 NOSIG;
0128068065999992010121508204+46967+008400FM-15+0450LSZC V0202701N00101003601CN0020001N1-00601-00701999999ADDGA1085+003601999GF108991999999999999999999MA1102711999999REMMET059METAR LSZC 150820Z 27002KT 2000 OVC012 M06/M07 Q1027 NOSIG;
0128068065999992010121508504+46967+008400FM-15+0450LSZC V0202601N00101003601CN0020001N1-00601-00701999999ADDGA1085+003601999GF108991999999999999999999MA1102711999999REMMET059METAR LSZC 150850Z 26002KT 2000 OVC012 M06/M07 Q1027 NOSIG;
0128068065999992010121509204+46967+008400FM-15+0450LSZC V0202601N00101003601CN0020001N1-00501-00701999999ADDGA1085+003601999GF108991999999999999999999MA1102711999999REMMET059METAR LSZC 150920Z 26002KT 2000 OVC012 M05/M07 Q1027 NOSIG;
0128068065999992010121509504+46967+008400FM-15+0450LSZC V0202501N00101003601CN0020001N1-00501-00701999999ADDGA1085+003601999GF108991999999999999999999MA1102711999999REMMET059METAR LSZC 150950Z 25002KT 2000 OVC012 M05/M07 Q1027 NOSIG;
0138068065999992010121510204+46967+008400FM-15+0450LSZC V0202501N00051005401CN0025001N1-00501-00701999999ADDGA1085+005401999GF108991999999999999999999MA1102711999999MW1711REMMET063METAR LSZC 151020Z 25001KT 2500 -SN OVC018 M05/M07 Q1027 NOSIG;
0137068065999992010121510504+46967+008400FM-15+0450LSZC V0209999C000010024019N0010001N1-00401-00601999999ADDGA1091+002401999GF109991999999000251999999MA1102611999999MW1711REMMET062METAR LSZC 151050Z 00000KT 1000 -SN VV008 M04/M06 Q1026 NOSIG;
0137068065999992010121512204+46967+008400FM-15+0450LSZC V0209999V001010024019N0010001N1-00501-00601999999ADDGA1091+002401999GF109991999999000251999999MA1102611999999MW1711REMMET062METAR LSZC 151220Z VRB02KT 1000 -SN VV008 M05/M06 Q1026 NOSIG;
0137068065999992010121512504+46967+008400FM-15+0450LSZC V0209999V001010024019N0010001N1-00501-00701999999ADDGA1091+002401999GF109991999999000251999999MA1102511999999MW1711REMMET062METAR LSZC 151250Z VRB02KT 1000 -SN VV008 M05/M07 Q1025 NOSIG;
0137068065999992010121513504+46967+008400FM-15+0450LSZC V0202701N001510024019N0010001N1-00501-00601999999ADDGA1091+002401999GF109991999999000251999999MA1102511999999MW1711REMMET062METAR LSZC 151350Z 27003KT 1000 -SN VV008 M05/M06 Q1025 NOSIG;
0138068065999992010121514204+46967+008400FM-15+0450LSZC V0202801N00101005401CN0020001N1-00501-00601999999ADDGA1085+005401999GF108991999999999999999999MA1102511999999MW1711REMMET063METAR LSZC 151420Z 28002KT 2000 -SN OVC018 M05/M06 Q1025 NOSIG;
0138068065999992010121514504+46967+008400FM-15+0450LSZC V0209999V00101005401CN0035001N1-00501-00601999999ADDGA1085+005401999GF108991999999999999999999MA1102511999999MW1711REMMET063METAR LSZC 151450Z VRB02KT 3500 -SN OVC018 M05/M06 Q1025 NOSIG;
0128068065999992010121515204+46967+008400FM-15+0450LSZC V0202801N00101010801CN0060001N1-00501-00601999999ADDGA1085+010801999GF108991999999999999999999MA1102401999999REMMET059METAR LSZC 151520Z 28002KT 6000 OVC036 M05/M06 Q1024 NOSIG;
0137068065999992010121515504+46967+008400FM-15+0450LSZC V0202801N00101012001CN0040001N1-00501-00701999999ADDGA1085+012001999GF108991999999999999999999MA1102401999999MW1101REMMET062METAR LSZC 151550Z 28002KT 4000 BR OVC040 M05/M07 Q1024 NOSIG;
0138068065999992010121606504+46967+008400FM-15+0450LSZC V0202701N00211001501CN0025001N1-00501-00601999999ADDGA1085+001501999GF108991999999999999999999MA1101801999999MW1711REMMET063METAR LSZC 160650Z 27004KT 2500 -SN OVC005 M05/M06 Q1018 NOSIG;
0138068065999992010121607204+46967+008400FM-15+0450LSZC V0202501N00211001501CN0025001N1-00501-00601999999ADDGA1085+001501999GF108991999999999999999999MA1101801999999MW1711REMMET063METAR LSZC 160720Z 25004KT 2500 -SN OVC005 M05/M06 Q1018 NOSIG;
0128068065999992010121607504+46967+008400FM-15+0450LSZC V0202301N00151004501CN0035001N1-00701-00801999999ADDGA1075+004501999GF107991999999999999999999MA1101801999999REMMET059METAR LSZC 160750Z 23003KT 3500 BKN015 M07/M08 Q1018 NOSIG;
0159068065999992010121608204+46967+008400FM-15+0450LSZC V0202501N00151010501CN0050001N1-00801-00801999999ADDGA1045+004501999GA2075+010501999GF107991999999999999999999MA1101801999999REMMET074METAR LSZC 160820Z 25003KT 210V280 5000 SCT015 BKN035 M08/M08 Q1018 NOSIG;
0151068065999992010121608504+46967+008400FM-15+0450LSZC V0202701N00211012001CN0080001N1-00701-00801999999ADDGA1025+004501999GA2075+012001999GF107991999999999999999999MA1101691999999REMMET066METAR LSZC 160850Z 27004KT 8000 FEW015 BKN040 M07/M08 Q1017 NOSIG;
0170068065999992010121609204+46967+008400FM-15+0450LSZC V0202601N00211999999CN0080001N1-00801-00901999999ADDGA1025+005401999GA2045+012001999GF104991999999999999999999MA1101691999999REMMET066METAR LSZC 160920Z 26004KT 8000 FEW018 SCT040 M08/M09 Q1017 NOSIG;EQDP01 012003SCOCIG
0170068065999992010121609504+46967+008400FM-15+0450LSZC V0202701N00261999999CN0080001N1-00701-00901999999ADDGA1025+005401999GA2045+012001999GF104991999999999999999999MA1101691999999REMMET066METAR LSZC 160950Z 27005KT 8000 FEW018 SCT040 M07/M09 Q1017 NOSIG;EQDP01 012003SCOCIG
0170068065999992010121610204+46967+008400FM-15+0450LSZC V0202501N00151999999CN0112651N1-00601-00901999999ADDGA1025+005401999GA2045+012001999GF104991999999999999999999MA1101591999999REMMET066METAR LSZC 161020Z 25003KT 9999 FEW018 SCT040 M06/M09 Q1016 NOSIG;EQDP01 012003SCOCIG
0170068065999992010121610504+46967+008400FM-15+0450LSZC V0209999V00151999999CN0112651N1-00501-00801999999ADDGA1025+004801999GA2045+012001999GF104991999999999999999999MA1101591999999REMMET066METAR LSZC 161050Z VRB03KT 9999 FEW016 SCT040 M05/M08 Q1016 NOSIG;EQDP01 012003SCOCIG
0128068065999992010121612204+46967+008400FM-15+0450LSZC V0202701N001512200019N0112651N1-00401-00801999999ADDGA1025+012001999GF102991999999999999999999MA1101391999999REMMET059METAR LSZC 161220Z 27003KT 9999 FEW040 M04/M08 Q1014 NOSIG;
0128068065999992010121612504+46967+008400FM-15+0450LSZC V0201701N000512200019N0112651N1-00301-00801999999ADDGA1025+012001999GF102991999999999999999999MA1101291999999REMMET059METAR LSZC 161250Z 17001KT 9999 FEW040 M03/M08 Q1013 NOSIG;
0128068065999992010121613204+46967+008400FM-15+0450LSZC V0201501N000512200019N0112651N1-00401-00901999999ADDGA1025+012001999GF102991999999999999999999MA1101291999999REMMET059METAR LSZC 161320Z 15001KT 9999 FEW040 M04/M09 Q1013 NOSIG;
0128068065999992010121613504+46967+008400FM-15+0450LSZC V0209999V001012200019N0112651N1-00401-00901999999ADDGA1025+012001999GF102991999999999999999999MA1101291999999REMMET059METAR LSZC 161350Z VRB02KT 9999 FEW040 M04/M09 Q1013 NOSIG;
0128068065999992010121614204+46967+008400FM-15+0450LSZC V0202401N002112200019N0112651N1-00601-01001999999ADDGA1025+012001999GF102991999999999999999999MA1101191999999REMMET059METAR LSZC 161420Z 24004KT 9999 FEW040 M06/M10 Q1012 NOSIG;
0128068065999992010121614504+46967+008400FM-15+0450LSZC V0202801N002612200019N0112651N1-00501-00901999999ADDGA1025+012001999GF102991999999999999999999MA1101191999999REMMET059METAR LSZC 161450Z 28005KT 9999 FEW040 M05/M09 Q1012 NOSIG;
0136068065999992010121615204+46967+008400FM-15+0450LSZC V0202201N001512200019N0112651N1-00601-01001999999ADDGA1025+012001999GF102991999999999999999999MA1101191999999REMMET067METAR LSZC 161520Z 22003KT 180V270 9999 FEW040 M06/M10 Q1012 NOSIG;
0128068065999992010121615504+46967+008400FM-15+0450LSZC V0209999V001012200019N0112651N1-00601-01001999999ADDGA1025+012001999GF102991999999999999999999MA1101191999999REMMET059METAR LSZC 161550Z VRB02KT 9999 FEW040 M06/M10 Q1012 NOSIG;
0137068065999992010121706504+46967+008400FM-15+0450LSZC V0209999V000510003019N0010001N1-00101-00201999999ADDGA1091+000301999GF109991999999000251999999MA1099191999999MW1751REMMET062METAR LSZC 170650Z VRB01KT 1000 +SN VV001 M01/M02 Q0992 NOSIG;
0137068065999992010121707204+46967+008400FM-15+0450LSZC V0209999V000510003019N0010001N1-00101-00201999999ADDGA1091+000301999GF109991999999000251999999MA1099191999999MW1751REMMET062METAR LSZC 170720Z VRB01KT 1000 +SN VV001 M01/M02 Q0992 NOSIG;
0143068065999992010121707504+46967+008400FM-15+0450LSZC V0200601N001510003019N0010001N1+00001+00001999999ADDGA1091+000301999GF109991999999000251999999MA1099191999999MW1751REMMET068METAR LSZC 170750Z 06003KT 020V090 1000 +SN VV001 00/00 Q0992 NOSIG;
0135068065999992010121708204+46967+008400FM-15+0450LSZC V0209999V001010003019N0010001N1+00001+00001999999ADDGA1091+000301999GF109991999999000251999999MA1099191999999MW1751REMMET060METAR LSZC 170820Z VRB02KT 1000 +SN VV001 00/00 Q0992 NOSIG;
0135068065999992010121708504+46967+008400FM-15+0450LSZC V0209999V001010003019N0010001N1+00001+00001999999ADDGA1091+000301999GF109991999999000251999999MA1099291999999MW1751REMMET060METAR LSZC 170850Z VRB02KT 1000 +SN VV001 00/00 Q0993 NOSIG;
0143068065999992010121709204+46967+008400FM-15+0450LSZC V0202701N005110054019N0020001N1+00001-00101999999ADDGA1091+005401999GF109991999999000251999999MA1099391999999MW1731REMMET068METAR LSZC 170920Z 27010KT 220V300 2000 SN VV018 00/M01 Q0994 NOSIG;
0145068065999992010121709504+46967+008400FM-15+0450LSZC V0203201N00261013201CN0090001N1+00001-00101999999ADDGA1075+013201999GF107991999999999999999999MA1099391999999MW1711REMMET070METAR LSZC 170950Z 32005KT 260V030 9000 -SN BKN044 00/M01 Q0994 NOSIG;
0127068065999992010121710204+46967+008400FM-15+0450LSZC V0209999V00051013501CN0112651N1+00101-00301999999ADDGA1075+013501999GF107991999999999999999999MA1099391999999REMMET058METAR LSZC 171020Z VRB01KT 9999 BKN045 01/M03 Q0994 NOSIG;
0135068065999992010121710504+46967+008400FM-15+0450LSZC V0200801N00361016505CN0112651N1+00101-00201999999ADDGA1075+016505999GF107991999999999999999999MA1099391999999REMMET066METAR LSZC 171050Z 08007KT 050V110 9999 BKN055 01/M02 Q0994 NOSIG;
0135068065999992010121712204+46967+008400FM-15+0450LSZC V0200801N00361016505CN0080001N1+00101-00301999999ADDGA1075+016505999GF107991999999999999999999MA1099391999999REMMET066METAR LSZC 171220Z 08007KT 050V120 8000 BKN055 01/M03 Q0994 NOSIG;
0135068065999992010121712504+46967+008400FM-15+0450LSZC V0200901N00261016505CN0080001N1+00101-00301999999ADDGA1075+016505999GF107991999999999999999999MA1099391999999REMMET066METAR LSZC 171250Z 09005KT 070V150 8000 BKN055 01/M03 Q0994 NOSIG;
0155068065999992010121713204+46967+008400FM-15+0450LSZC V0203401N00461004501CN0050001N1+00001-00301999999ADDGA1085+004501999GF108991999999999999999999MA1099391999999MW1731OC101081REMMET072METAR LSZC 171320Z 34009G21KT 300V020 5000 SN OVC015 00/M03 Q0994 NOSIG;
0145068065999992010121713504+46967+008400FM-15+0450LSZC V0203301N003610006019N0010001N1-00101-00201999999ADDGA1091+000601999GF109991999999000251999999MA1099391999999MW1751REMMET070METAR LSZC 171350Z 33007KT 280V010 1000 +SN VV002 M01/M02 Q0994 NOSIG;
0168068065999992010121714204+46967+008400FM-15+0450LSZC V0209999V001010006019N0008001N1-00101-00201999999ADDED199U09009GA1091+000601999GF109991999999000251999999MA1099491999999MW1751REMMET082METAR LSZC 171420Z VRB02KT 0800 R07/0900N R25/1300N +SN VV002 M01/M02 Q0995 NOSIG;
0168068065999992010121714504+46967+008400FM-15+0450LSZC V0209999V003610003019N0003501N1-00201-00201999999ADDED199U06009GA1091+000301999GF109991999999000251999999MA1099491999999MW1751REMMET082METAR LSZC 171450Z VRB07KT 0350 R07/0600N R25/0650N +SN VV001 M02/M02 Q0995 NOSIG;
0176068065999992010121715204+46967+008400FM-15+0450LSZC V0203301N003110006019N0005501N1-00201-00301999999ADDED199U15009GA1091+000601999GF109991999999000251999999MA1099591999999MW1751REMMET090METAR LSZC 171520Z 33006KT 250V020 0550 R07/1500N R25/1000N +SN VV002 M02/M03 Q0996 NOSIG;
0175068065999992010121715504+46967+008400FM-15+0450LSZC V0200701N002610012019N0010001N1-00201-00301999999ADDED199U17009GA1091+001201999GF109991999999000251999999MA1099591999999MW1731REMMET089METAR LSZC 171550Z 07005KT 010V160 1000 R07/1700N R25/1800N SN VV004 M02/M03 Q0996 NOSIG;
0126068065999992010122006504+46967+008400FM-15+0450LSZC V0209999V00051021001CN0112651N1+00201+00001999999ADDGA1075+021001999GF107991999999999999999999MA1100201999999REMMET057METAR LSZC 200650Z VRB01KT 9999 BKN070 02/00 Q1002 NOSIG;
0137068065999992010122007504+46967+008400FM-15+0450LSZC V0209999V00101021001CN0112651N1+00201+00001999999ADDGA1075+021001999GF107991999999999999999999MA1100311999999REMMET068METAR LSZC 200750Z VRB02KT 9999 BKN070 02/00 Q1003 R88/790291 NOSIG;
0137068065999992010122008204+46967+008400FM-15+0450LSZC V0209999V00151027905CN0112651N1+00201+00001999999ADDGA1075+027905999GF107991999999999999999999MA1100311999999REMMET068METAR LSZC 200820Z VRB03KT 9999 BKN093 02/00 Q1003 R88/790291 NOSIG;
0137068065999992010122008504+46967+008400FM-15+0450LSZC V0209999V00101027905CN0112651N1+00201+00001999999ADDGA1075+027905999GF107991999999999999999999MA1100311999999REMMET068METAR LSZC 200850Z VRB02KT 9999 BKN093 02/00 Q1003 R88/790291 NOSIG;
0137068065999992010122009204+46967+008400FM-15+0450LSZC V0202501N00151025805CN0112651N1+00201+00001999999ADDGA1075+025805999GF107991999999999999999999MA1100311999999REMMET068METAR LSZC 200920Z 25003KT 9999 BKN086 02/00 Q1003 R88/790291 NOSIG;
0126068065999992010122009504+46967+008400FM-15+0450LSZC V0209999V00101027305CN0112651N1+00301+00001999999ADDGA1075+027305999GF107991999999999999999999MA1100311999999REMMET057METAR LSZC 200950Z VRB02KT 9999 BKN091 03/00 Q1003 NOSIG;
0126068065999992010122010204+46967+008400FM-15+0450LSZC V0201801N00051028805CN0112651N1+00301+00101999999ADDGA1075+028805999GF107991999999999999999999MA1100311999999REMMET057METAR LSZC 201020Z 18001KT 9999 BKN096 03/01 Q1003 NOSIG;
0126068065999992010122010504+46967+008400FM-15+0450LSZC V0209999V00051026405CN0112651N1+00401+00101999999ADDGA1075+026405999GF107991999999999999999999MA1100311999999REMMET057METAR LSZC 201050Z VRB01KT 9999 BKN088 04/01 Q1003 NOSIG;
0126068065999992010122012204+46967+008400FM-15+0450LSZC V0209999V00051026405CN0112651N1+00401+00101999999ADDGA1075+026405999GF107991999999999999999999MA1100311999999REMMET057METAR LSZC 201220Z VRB01KT 9999 BKN088 04/01 Q1003 NOSIG;
0132068065999992010122013204+46967+008400FM-15+0450LSZC V0209999V00101027001CN0112651N1+00401+00001999999ADDGA1075+027001999GF107991999999999999999999MA1100311999999REMMET063METAR LSZC 201320Z VRB02KT 9999 BKN090 04/00 Q1003 R88/D NOSIG;
0132068065999992010122013504+46967+008400FM-15+0450LSZC V0209999V00101027001CN0112651N1+00401+00101999999ADDGA1075+027001999GF107991999999999999999999MA1100411999999REMMET063METAR LSZC 201350Z VRB02KT 9999 BKN090 04/01 Q1004 R88/D NOSIG;
0132068065999992010122014204+46967+008400FM-15+0450LSZC V0209999V00101025505CN0112651N1+00301+00101999999ADDGA1075+025505999GF107991999999999999999999MA1100411999999REMMET063METAR LSZC 201420Z VRB02KT 9999 BKN085 03/01 Q1004 R88/D NOSIG;
0155068065999992010122014504+46967+008400FM-15+0450LSZC V0201401N00261024001CN0112651N1+00401+00101999999ADDGA1045+016505999GA2075+024001999GF107991999999999999999999MA1100411999999REMMET070METAR LSZC 201450Z 14005KT 9999 SCT055 BKN080 04/01 Q1004 R88/D NOSIG;
0149068065999992010122015204+46967+008400FM-15+0450LSZC V0209999V00101023405CN0112651N1+00401+00101999999ADDGA1045+016505999GA2075+023405999GF107991999999999999999999MA1100511999999REMMET064METAR LSZC 201520Z VRB02KT 9999 SCT055 BKN078 04/01 Q1005 NOSIG;
0149068065999992010122015504+46967+008400FM-15+0450LSZC V0209999V00151025205CN0112651N1+00401+00001999999ADDGA1045+016505999GA2075+025205999GF107991999999999999999999MA1100511999999REMMET064METAR LSZC 201550Z VRB03KT 9999 SCT055 BKN084 04/00 Q1005 NOSIG;
0091068065999992010122106504+46967+008400FM-15+0450LSZC V0202401N002619999999Y0099001N1-00301-00401999999ADDMA1100611999999REMMET064METAR LSZC 210650Z 24005KT CAVOK M03/M04 Q1006 R88/959199 NOSIG;
0091068065999992010122107204+46967+008400FM-15+0450LSZC V0209999V001019999999Y0099001N1-00301-00401999999ADDMA1100611999999REMMET064METAR LSZC 210720Z VRB02KT CAVOK M03/M04 Q1006 R88/399199 NOSIG;
0091068065999992010122107504+46967+008400FM-15+0450LSZC V0202201N001519999999Y0099001N1-00201-00301999999ADDMA1100611999999REMMET064METAR LSZC 210750Z 22003KT CAVOK M02/M03 Q1006 R88/399199 NOSIG;
0099068065999992010122108204+46967+008400FM-15+0450LSZC V0202601N002619999999Y0099001N1-00101-00201999999ADDMA1100611999999REMMET072METAR LSZC 210820Z 26005KT 250V320 CAVOK M01/M02 Q1006 R88/399199 NOSIG;
0090068065999992010122108504+46967+008400FM-15+0450LSZC V0209999V001019999999Y0099001N1+00001-00201999999ADDMA1100611999999REMMET063METAR LSZC 210850Z VRB02KT CAVOK 00/M02 Q1006 R88/399193 NOSIG;
0090068065999992010122109504+46967+008400FM-15+0450LSZC V0202401N003619999999Y0099001N1+00201-00201999999ADDMA1100711999999REMMET063METAR LSZC 210950Z 24007KT CAVOK 02/M02 Q1007 R88/399193 NOSIG;
0090068065999992010122110204+46967+008400FM-15+0450LSZC V0209999V001019999999Y0099001N1+00201-00101999999ADDMA1100611999999REMMET063METAR LSZC 211020Z VRB02KT CAVOK 02/M01 Q1006 R88/399193 NOSIG;
0090068065999992010122110504+46967+008400FM-15+0450LSZC V0209999V001019999999Y0099001N1+00301-00101999999ADDMA1100611999999REMMET063METAR LSZC 211050Z VRB02KT CAVOK 03/M01 Q1006 R88/729195 NOSIG;
0150068065999992010122111504+46967+008400FM-15+0450LSZC V0209999V00151048001CN0112651N1+00301-00101999999ADDGA1025+024001999GA2085+048001999GF108991999999999999999999MA1100511999999REMMET065METAR LSZC 211150Z VRB03KT 9999 FEW080 OVC160 03/M01 Q1005 NOSIG;
0149068065999992010122112204+46967+008400FM-15+0450LSZC V0202601N00361048001CN0112651N1+00401+00001999999ADDGA1025+024001999GA2085+048001999GF108991999999999999999999MA1100411999999REMMET064METAR LSZC 211220Z 26007KT 9999 FEW080 OVC160 04/00 Q1004 NOSIG;
0150068065999992010122112504+46967+008400FM-15+0450LSZC V0209999V00101045001CN0112651N1+00501-00101999999ADDGA1045+024001999GA2085+045001999GF108991999999999999999999MA1100411999999REMMET065METAR LSZC 211250Z VRB02KT 9999 SCT080 OVC150 05/M01 Q1004 NOSIG;
0078068065999992010122113204+46967+008400FM-15+0450LSZC V0209999V001019999999Y0099001N1+00501+00001999999ADDMA1100411999999REMMET051METAR LSZC 211320Z VRB02KT CAVOK 05/00 Q1004 NOSIG;
0078068065999992010122113504+46967+008400FM-15+0450LSZC V0202901N001019999999Y0099001N1+00401+00001999999ADDMA1100411999999REMMET051METAR LSZC 211350Z 29002KT CAVOK 04/00 Q1004 NOSIG;
0078068065999992010122114204+46967+008400FM-15+0450LSZC V0209999V001019999999Y0099001N1+00401+00001999999ADDMA1100411999999REMMET051METAR LSZC 211420Z VRB02KT CAVOK 04/00 Q1004 NOSIG;
0078068065999992010122114504+46967+008400FM-15+0450LSZC V0209999V000519999999Y0099001N1+00401+00001999999ADDMA1100411999999REMMET051METAR LSZC 211450Z VRB01KT CAVOK 04/00 Q1004 NOSIG;
0078068065999992010122115204+46967+008400FM-15+0450LSZC V0209999V001019999999Y0099001N1+00301+00001999999ADDMA1100411999999REMMET051METAR LSZC 211520Z VRB02KT CAVOK 03/00 Q1004 NOSIG;
0078068065999992010122115504+46967+008400FM-15+0450LSZC V0209999V000519999999Y0099001N1+00401+00001999999ADDMA1100411999999REMMET051METAR LSZC 211550Z VRB01KT CAVOK 04/00 Q1004 NOSIG;
0126068065999992010122206504+46967+008400FM-15+0450LSZC V0209999V00051018001CN0080001N1+00201+00101999999ADDGA1085+018001999GF108991999999999999999999MA1100201999999REMMET057METAR LSZC 220650Z VRB01KT 8000 OVC060 02/01 Q1002 NOSIG;
0126068065999992010122207204+46967+008400FM-15+0450LSZC V0209999C00001018001CN0080001N1+00201+00101999999ADDGA1075+018001999GF107991999999999999999999MA1100201999999REMMET057METAR LSZC 220720Z 00000KT 8000 BKN060 02/01 Q1002 NOSIG;
0126068065999992010122207504+46967+008400FM-15+0450LSZC V0209999V00151018001CN0080001N1+00301+00001999999ADDGA1075+018001999GF107991999999999999999999MA1100201999999REMMET057METAR LSZC 220750Z VRB03KT 8000 BKN060 03/00 Q1002 NOSIG;
0126068065999992010122208204+46967+008400FM-15+0450LSZC V0209999V00051018001CN0080001N1+00301+00001999999ADDGA1075+018001999GF107991999999999999999999MA1100201999999REMMET057METAR LSZC 220820Z VRB01KT 8000 BKN060 03/00 Q1002 NOSIG;
0126068065999992010122209504+46967+008400FM-15+0450LSZC V0209999V00101018001CN0080001N1+00401+00101999999ADDGA1075+018001999GF107991999999999999999999MA1100311999999REMMET057METAR LSZC 220950Z VRB02KT 8000 BKN060 04/01 Q1003 NOSIG;
0126068065999992010122210204+46967+008400FM-15+0450LSZC V0209999V001512200019N0112651N1+00401+00001999999ADDGA1045+018001999GF104991999999999999999999MA1100201999999REMMET057METAR LSZC 221020Z VRB03KT 9999 SCT060 04/00 Q1002 NOSIG;
0126068065999992010122210504+46967+008400FM-15+0450LSZC V0209999V001012200019N0112651N1+00501+00101999999ADDGA1045+018001999GF104991999999999999999999MA1100201999999REMMET057METAR LSZC 221050Z VRB02KT 9999 SCT060 05/01 Q1002 NOSIG;
0126068065999992010122212204+46967+008400FM-15+0450LSZC V0209999V000512200019N0112651N1+00701+00101999999ADDGA1045+018001999GF104991999999999999999999MA1100001999999REMMET057METAR LSZC 221220Z VRB01KT 9999 SCT060 07/01 Q1000 NOSIG;
0126068065999992010122212504+46967+008400FM-15+0450LSZC V0209999V001012200019N0112651N1+00701+00101999999ADDGA1045+018001999GF104991999999999999999999MA1100101999999REMMET057METAR LSZC 221250Z VRB02KT 9999 SCT060 07/01 Q1001 NOSIG;
0078068065999992010122213504+46967+008400FM-15+0450LSZC V0202801N002119999999Y0099001N1+00601+00201999999ADDMA1100001999999REMMET051METAR LSZC 221350Z 28004KT CAVOK 06/02 Q1000 NOSIG;
0078068065999992010122214204+46967+008400FM-15+0450LSZC V0202401N000519999999Y0099001N1+00601+00101999999ADDMA1100001999999REMMET051METAR LSZC 221420Z 24001KT CAVOK 06/01 Q1000 NOSIG;
0078068065999992010122215204+46967+008400FM-15+0450LSZC V0202801N001519999999Y0099001N1+00401+00101999999ADDMA1100001999999REMMET051METAR LSZC 221520Z 28003KT CAVOK 04/01 Q1000 NOSIG;
0126068065999992010122306504+46967+008400FM-15+0450LSZC V0209999V00051018001CN0080001N1+00101+00101999999ADDGA1075+018001999GF107991999999999999999999MA1099591999999REMMET057METAR LSZC 230650Z VRB01KT 8000 BKN060 01/01 Q0996 NOSIG;
0126068065999992010122307204+46967+008400FM-15+0450LSZC V0209999V00101018001CN0080001N1+00101+00001999999ADDGA1075+018001999GF107991999999999999999999MA1099591999999REMMET057METAR LSZC 230720Z VRB02KT 8000 BKN060 01/00 Q0996 NOSIG;
0135068065999992010122307504+46967+008400FM-15+0450LSZC V0209999V00101018001CN0080001N1+00101+00001999999ADDGA1075+018001999GF107991999999999999999999MA1099591999999MW1101REMMET060METAR LSZC 230750Z VRB02KT 8000 BR BKN060 01/00 Q0996 NOSIG;
0135068065999992010122308204+46967+008400FM-15+0450LSZC V0209999V00151018001CN0070001N1+00101+00001999999ADDGA1075+018001999GF107991999999999999999999MA1099591999999MW1441REMMET060METAR LSZC 230820Z VRB03KT 7000 FG BKN060 01/00 Q0996 NOSIG;
0135068065999992010122308504+46967+008400FM-15+0450LSZC V0209999V00151018001CN0070001N1+00101+00101999999ADDGA1075+018001999GF107991999999999999999999MA1099491999999MW1441REMMET060METAR LSZC 230850Z VRB03KT 7000 FG BKN060 01/01 Q0995 NOSIG;
0158068065999992010122309204+46967+008400FM-15+0450LSZC V0209999V00151018001CN0050001N1+00201+00101999999ADDGA1045+006001999GA2075+018001999GF107991999999999999999999MA1099491999999MW1441REMMET067METAR LSZC 230920Z VRB03KT 5000 FG SCT020 BKN060 02/01 Q0995 NOSIG;
0158068065999992010122309504+46967+008400FM-15+0450LSZC V0209999V00101018001CN0030001N1+00201+00101999999ADDGA1045+006001999GA2075+018001999GF107991999999999999999999MA1099491999999MW1441REMMET067METAR LSZC 230950Z VRB02KT 3000 FG SCT020 BKN060 02/01 Q0995 NOSIG;
0158068065999992010122310204+46967+008400FM-15+0450LSZC V0202201N00151018001CN0020001N1+00201+00201999999ADDGA1045+006001999GA2075+018001999GF107991999999999999999999MA1099491999999MW1441REMMET067METAR LSZC 231020Z 22003KT 2000 FG SCT020 BKN060 02/02 Q0995 NOSIG;
0158068065999992010122312204+46967+008400FM-15+0450LSZC V0202701N00211024001CN0040001N1+00401+00201999999ADDGA1045+018001999GA2075+024001999GF107991999999999999999999MA1099491999999MW1101REMMET067METAR LSZC 231220Z 27004KT 4000 BR SCT060 BKN080 04/02 Q0995 NOSIG;
0126068065999992010122314204+46967+008400FM-15+0450LSZC V0209999C00001018001CN0050001N1+00401+00201999999ADDGA1075+018001999GF107991999999999999999999MA1099491999999REMMET057METAR LSZC 231420Z 00000KT 5000 BKN060 04/02 Q0995 NOSIG;
0126068065999992010122314504+46967+008400FM-15+0450LSZC V0209999V00101018001CN0050001N1+00301+00201999999ADDGA1075+018001999GF107991999999999999999999MA1099491999999REMMET057METAR LSZC 231450Z VRB02KT 5000 BKN060 03/02 Q0995 NOSIG;
